{
  "type": "FeatureCollection",
  "name": "germany_outline_approx",
  "crs": {"type": "name", "properties": {"name": "urn:ogc:def:crs:OGC:1.3:CRS84"}},
  "features": [
    {
      "type": "Feature",
      "properties": {
        "name": "Germany approximate outline",
        "note": "Contorno simplificado para centroides. Sustituir por Natural Earth admin-0 1:10m (dominio público) cuando esté disponible.",
        "license": "Public domain approximation for hackathon centroid tests"
      },
      "geometry": {
        "type": "Polygon",
        "coordinates": [[
          [7.0, 53.5], [8.5, 54.5], [10.0, 54.5], [13.5, 54.5], [14.5, 53.5],
          [14.8, 51.5], [15.0, 50.5], [13.8, 48.5], [13.0, 47.5], [12.0, 47.3],
          [10.0, 47.3], [8.5, 47.5], [7.5, 47.6], [6.5, 49.0], [6.0, 50.0],
          [6.0, 51.5], [6.5, 52.5], [7.0, 53.5]
        ]]
      }
    }
  ]
}
