{"type": "FeatureCollection","features":[{"type":"Feature","geometry":{"type":"Polygon","coordinates":[[[32383721.0461,5853644.7713],[32383565.3614,5853884.678],[32383391.1789,5853761.7294],[32383214.7473,5853642.2794],[32383033.5677,5853530.8264],[32382846.1408,5853432.3682],[32382717.4412,5853382.3899],[32382584.7434,5853343.4073],[32382452.0456,5853303.4251],[32382326.3447,5853249.4484],[32382233.6308,5853196.4708],[32382144.9153,5853139.9945],[32382060.4479,5853076.0212],[32381985.9765,5853003.5511],[32381946.4911,5852926.0825],[32381933.9948,5852838.1177],[32381940.7408,5852746.1542],[32381964.2302,5852660.1881],[32382027.704,5852590.7148],[32382114.169,5852544.2321],[32382211.38,5852514.7425],[32382309.3408,5852498.7475],[32382460.7801,5852463.7592],[32382612.9692,5852434.7686],[32382766.158,5852409.7764],[32382920.3465,5852391.2816],[32383022.5552,5852346.7979],[32383117.0168,5852283.3218],[32383199.7328,5852204.8518],[32383266.2051,5852114.3869],[32383334.4258,5851960.947],[32383373.4079,5851796.0121],[32383391.6482,5851625.0799],[32383399.8925,5851455.1475],[32383394.6429,5851335.6951],[32383380.3969,5851217.7422],[32383351.1569,5851102.2886],[32383302.9245,5850996.8312],[32383299.6745,5850906.867],[32383299.1735,5850816.9028],[32383303.9203,5850727.9381],[32383319.4129,5850640.9725],[32383351.1486,5850522.0194],[32383395.1295,5850406.5647],[32383445.8577,5850294.6085],[32383502.5836,5850185.1512],[32383562.3085,5850088.189],[32383629.7804,5849996.7244],[32383704.4994,5849911.2573],[32383785.966,5849832.7874],[32383760.228,5849958.7377],[32383749.2342,5850090.6853],[32383765.4796,5850218.1344],[32383818.71,5850328.5897],[32383899.1792,5850412.0554],[32383998.6406,5850479.0273],[32384108.3476,5850521.5088],[32384223.3022,5850536.5012],[32384318.5141,5850523.5051],[32384410.727,5850490.0171],[32384496.1923,5850438.5363],[32384568.4127,5850375.0606],[32384636.1344,5850275.5992],[32384687.1125,5850165.6422],[32384724.8459,5850050.1876],[32384750.584,5849932.2341],[32384821.8032,5849757.3027],[32384893.0224,5849582.8711],[32384965.2412,5849409.439],[32385037.46,5849236.007],[32385107.1807,5849124.0505],[32385209.8886,5849034.0849],[32385331.3393,5848965.6104],[32385460.7873,5848922.6256],[32385605.979,5848879.6406],[32385755.1693,5848852.6493],[32385906.359,5848839.1525],[32386058.2986,5848840.1499],[32386162.507,5848829.6526],[32386267.4652,5848819.6551],[32386372.6732,5848811.6567],[32386478.631,5848806.1574],[32386571.8436,5848777.6674],[32386659.3081,5848727.686],[32386738.7756,5848664.2102],[32386811.2458,5848593.7372],[32386843.7318,5848517.7669],[32386848.4787,5848431.801],[32386831.984,5848344.3361],[32386802.4945,5848263.3687],[32386752.2629,5848147.9153],[32386692.0352,5848036.4605],[32386625.81,5847929.504],[32386552.3378,5847828.0454],[32386536.0928,5847728.0854],[32386544.8378,5847626.1259],[32386574.5746,5847525.1656],[32386620.0552,5847434.2011],[32386644.5427,5847240.2779],[32386669.7799,5847047.3543],[32386694.0175,5846853.4311],[32386717.5054,5846660.5075],[32386719.2532,5846554.5496],[32386704.0077,5846447.0926],[32386667.5208,5846348.1325],[32386607.0437,5846265.6662],[32386584.8012,5846172.2037],[32386562.3088,5846080.2406],[32386541.0659,5845987.7776],[32386521.5723,5845895.8145],[32386524.3201,5845812.3477],[32386555.8064,5845732.8788],[32386606.2853,5845657.9079],[32386664.7611,5845592.4331],[32386729.9845,5845543.9515],[32386806.4536,5845510.4637],[32386887.4211,5845488.9711],[32386970.6379,5845480.4733],[32387029.1136,5845411.0001],[32387073.5948,5845329.5319],[32387105.3309,5845241.5664],[32387126.8211,5845151.6019],[32387171.8013,5845018.6541],[32387215.7819,5844886.2062],[32387257.5134,5844753.2585],[32387297.4956,5844619.3112],[32387358.22,5844514.8519],[32387444.9342,5844426.3858],[32387547.3924,5844352.4138],[32387656.848,5844292.936],[32387712.5747,5844209.4684],[32387763.0534,5844122.5023],[32387806.7847,5844033.0373],[32387838.2708,5843939.0742],[32387849.514,5843773.1401],[32387826.5207,5843605.707],[32387781.7861,5843439.2738],[32387730.8041,5843276.8391],[32387646.8353,5843127.8996],[32387531.6293,5842996.9533],[32387397.431,5842884.9997],[32387252.9871,5842789.0399],[32387163.5218,5842727.0658],[32387070.8078,5842669.59],[32386975.0952,5842621.6105],[32386873.3852,5842594.1229],[32386803.4125,5842557.6384],[32386733.6897,5842522.1535],[32386663.9669,5842486.1688],[32386595.2438,5842451.6835],[32386528.7692,5842384.2113],[32386498.28,5842286.7505],[32386488.0324,5842175.7948],[32386484.7822,5842068.8374],[32386467.787,5841935.3907],[32386453.5408,5841801.4442],[32386444.5424,5841666.9978],[32386439.5425,5841534.0508],[32386398.307,5841396.6061],[32386337.3293,5841265.1592],[32386261.1079,5841141.7094],[32386177.8893,5841023.7576],[32386117.1626,5840966.2813],[32386045.4405,5840920.8004],[32385966.7214,5840893.3125],[32385887.7528,5840893.3136],[32385815.2822,5840933.7985],[32385758.0558,5840998.7735],[32385713.3247,5841076.2433],[32385680.8388,5841158.2112],[32385663.8475,5841293.1577],[32385670.8467,5841431.1028],[32385694.0894,5841569.5473],[32385726.0787,5841704.993],[32385722.3318,5841818.9477],[32385718.5849,5841933.9021],[32385709.84,5842047.8568],[32385695.8472,5842161.8117],[32385680.3547,5842257.7738],[32385662.6132,5842353.7358],[32385641.8728,5842448.6984],[32385616.3842,5842542.6613],[32385591.6453,5842628.6275],[32385567.1563,5842714.5936],[32385539.6684,5842800.06],[32385510.9311,5842885.0267],[32385510.4325,5842968.9933],[32385536.9231,5843052.4597],[32385582.4062,5843131.9274],[32385634.8863,5843204.3978],[32385695.3634,5843281.8661],[32385761.838,5843355.336],[32385833.3106,5843423.8077],[32385911.0306,5843486.2817],[32385943.2692,5843587.7409],[32385940.5219,5843697.6972],[32385915.7833,5843810.6526],[32385881.0487,5843918.6102],[32385816.5752,5843978.0875],[32385728.3607,5844010.5758],[32385631.1495,5844021.5728],[32385537.1868,5844016.0763],[32385423.7309,5843949.1046],[32385330.2667,5843851.1449],[32385252.0462,5843736.6915],[32385184.8212,5843618.2396],[32385093.8551,5843460.3038],[32385009.1365,5843298.3694],[32384931.1651,5843133.9359],[32384861.1906,5842967.5031],[32384777.972,5842848.5516],[32384684.7574,5842736.5975],[32384582.5466,5842634.1397],[32384472.0892,5842543.1775],[32384405.3651,5842496.6969],[32384332.6434,5842455.2144],[32384257.6728,5842428.2262],[32384180.7034,5842425.7283],[32384116.7288,5842427.2287],[32384053.754,5842437.7254],[32383967.5383,5842440.7254],[32384051.5031,5842306.7775],[32384160.9569,5842124.3485],[32384259.1652,5841935.9221],[32384340.63,5841740.4987],[32384398.6045,5841568.0664],[32384452.8305,5841394.1349],[32384504.0576,5841219.2037],[32384551.2863,5841043.7728],[32384602.7629,5840840.8528],[32384653.24,5840637.9328],[32384702.4675,5840435.5127],[32384749.9457,5840232.5927],[32384783.6806,5840111.6403],[32384822.6634,5839993.1869],[32384866.3944,5839876.2328],[32384920.1214,5839764.7764],[32384951.6079,5839698.8022],[32384985.0937,5839634.8271],[32385025.5768,5839575.3502],[32385074.8065,5839524.3698],[32385117.0393,5839500.8785],[32385167.0193,5839492.3812],[32385217.9991,5839497.3785],[32385265.9803,5839513.8712],[32385307.7142,5839547.3573],[32385342.451,5839591.3393],[32385370.1907,5839640.8193],[32385391.6829,5839692.7983],[32385440.6639,5839728.2835],[32385493.3934,5839759.7702],[32385548.122,5839787.2585],[32385606.0993,5839809.7487],[32385659.0782,5839807.2489],[32385710.3075,5839785.2569],[32385757.5382,5839749.7704],[32385797.7716,5839710.2855],[32385851.0002,5839692.2919],[32385904.9785,5839674.7981],[32385959.2067,5839660.3031],[32386014.1847,5839648.8069],[32386074.1609,5839651.305],[32386133.1377,5839672.2958],[32386189.8656,5839703.7825],[32386242.5952,5839740.2672],[32386334.8084,5839734.2683],[32386426.0218,5839708.7771],[32386514.2362,5839671.2908],[32386599.4517,5839629.8061],[32386717.9039,5839578.8246],[32386837.3557,5839527.8432],[32386954.5583,5839473.3632],[32387072.0108,5839418.3834],[32387166.4724,5839360.9049],[32387255.9359,5839294.4301],[32387339.4016,5839221.4579],[32387418.1192,5839142.988],[32387483.3424,5839081.0118],[32387548.8155,5839019.5353],[32387613.2889,5838956.0597],[32387674.7635,5838890.5849],[32387731.9906,5838877.0895],[32387795.7156,5838903.578],[32387855.4425,5838953.0575],[32387903.1743,5839008.035],[32387967.4001,5839099.9975],[32388022.8794,5839197.458],[32388071.1117,5839299.9165],[32388114.346,5839403.8746],[32388158.5802,5839531.3232],[32388198.5662,5839661.7708],[32388232.8044,5839793.218],[32388261.7948,5839926.6645],[32388332.2682,5840026.124],[32388434.7285,5840103.0919],[32388554.4317,5840158.0684],[32388678.1331,5840198.0508],[32388792.8379,5840229.5366],[32388909.7917,5840253.5255],[32389028.7446,5840266.5186],[32389147.6973,5840266.517],[32389227.6655,5840267.0157],[32389307.8835,5840265.5151],[32389387.8516,5840259.0166],[32389466.0703,5840244.5213],[32389528.7956,5840264.0126],[32389586.7731,5840299.4977],[32389637.2537,5840345.9785],[32389679.9875,5840399.4566],[32389721.7214,5840439.94],[32389764.455,5840479.9235],[32389805.1894,5840522.406],[32389843.9246,5840566.8877],[32389910.6484,5840587.3787],[32389986.8679,5840573.883],[32390064.0867,5840541.3948],[32390137.3071,5840505.9079],[32390252.7606,5840464.9226],[32390367.9641,5840422.4379],[32390482.418,5840379.4534],[32390596.6219,5840333.4701],[32390660.0959,5840280.4903],[32390702.5779,5840204.0201],[32390724.0681,5840116.0548],[32390726.8157,5840029.0893],[32390707.5719,5839929.6292],[32390672.0847,5839833.6679],[32390622.6031,5839743.2045],[32390565.3746,5839659.7385],[32390513.6444,5839600.2629],[32390456.9161,5839545.7854],[32390394.4403,5839499.3048],[32390325.4673,5839465.819],[32390287.2313,5839380.3536],[32390267.7377,5839286.891],[32390262.4884,5839190.9293],[32390265.9857,5839096.9666],[32390274.7307,5838996.0067],[32390291.4727,5838897.0458],[32390315.2118,5838798.0848],[32390346.6979,5838703.1222],[32390384.1822,5838644.6449],[32390435.4111,5838595.6637],[32390496.8861,5838560.1769],[32390563.8592,5838540.6838],[32390662.8201,5838559.6748],[32390754.5344,5838612.1526],[32390839.0018,5838684.1228],[32390917.4717,5838760.5913],[32390991.9431,5838832.0618],[32391064.4153,5838906.5312],[32391132.1395,5838985.4988],[32391194.366,5839068.9647],[32391287.0798,5839119.4434],[32391393.0381,5839148.4303],[32391502.9945,5839161.4236],[32391612.9508,5839161.9219],[32391734.1522,5839133.9313],[32391849.6055,5839082.95],[32391959.061,5839015.4753],[32392059.5199,5838938.0047],[32392212.4573,5838813.0522],[32392359.3969,5838680.1031],[32392500.3389,5838540.1567],[32392637.5322,5838397.2117],[32392834.7009,5838197.2884],[32393031.1199,5837996.8654],[32393226.7892,5837794.943],[32393421.2089,5837592.5207],[32393617.6274,5837358.611],[32393799.5515,5837110.7071],[32393968.2307,5836854.8065],[32394131.1622,5836594.9075],[32394250.6117,5836387.9882],[32394362.0643,5836175.5711],[32394461.5216,5835958.1562],[32394546.9844,5835735.7434],[32394624.9514,5835596.2978],[32394705.9172,5835457.3519],[32394789.8819,5835321.9046],[32394882.843,5835192.9546],[32394959.3117,5835128.4791],[32395057.5221,5835090.9927],[32395162.73,5835078.4961],[32395264.6897,5835094.4883],[32395399.3866,5835132.4713],[32395530.0855,5835189.4468],[32395653.5374,5835260.4168],[32395770.9918,5835341.3829],[32395894.444,5835434.3442],[32396014.8975,5835534.3027],[32396129.1036,5835640.2589],[32396237.3122,5835753.2125],[32396315.782,5835823.6833],[32396394.5017,5835894.654],[32396472.9715,5835965.1248],[32396551.4413,5836036.5953],[32396618.1657,5836102.0683],[32396682.6411,5836172.0395],[32396744.1176,5836244.5098],[32396803.595,5836318.9793],[32396840.0816,5836394.9486],[32396853.5775,5836482.4136],[32396850.8299,5836573.3775],[32396837.3366,5836662.3423],[32396826.8419,5836742.3106],[32396812.0989,5836822.279],[32396793.6074,5836901.2479],[32396771.1175,5836980.2168],[32396739.3814,5837072.6804],[32396704.8965,5837165.644],[32396667.1628,5837256.6083],[32396627.6798,5837347.0729],[32396574.7025,5837459.0291],[32396519.9759,5837569.486],[32396464.2496,5837678.9432],[32396406.5241,5837788.9003],[32396334.5524,5837765.4107],[32396262.8307,5837748.9182],[32396188.86,5837737.9237],[32396114.8894,5837735.4257],[32396036.6705,5837737.9258],[32395959.7013,5837747.4231],[32395883.4818,5837761.9185],[32395809.2617,5837783.411],[32395744.2878,5837805.9029],[32395682.063,5837834.3925],[32395621.8374,5837867.88],[32395566.3601,5837907.8649],[32395531.1249,5837960.3445],[32395500.6378,5838015.3231],[32395476.3983,5838074.3],[32395461.9049,5838134.7761],[32395456.4079,5838188.2549],[32395458.1579,5838242.2334],[32395463.9064,5838297.2115],[32395472.4038,5838351.1899],[32395499.8941,5838431.6575],[32395523.3859,5838514.6242],[32395542.6294,5838598.0907],[32395558.1245,5838683.0567],[32395571.3708,5838790.5137],[32395583.6175,5838898.4706],[32395593.8649,5839006.4275],[32395604.1124,5839115.8838],[32395622.6065,5839213.8446],[32395635.8526,5839314.3045],[32395635.1044,5839413.2651],[32395613.6143,5839509.2273],[32395581.128,5839564.7056],[32395539.8951,5839615.686],[32395489.4158,5839657.1702],[32395433.1886,5839685.6596],[32395362.4665,5839669.1672],[32395288.4959,5839667.6688],[32395214.2755,5839673.1677],[32395141.3047,5839682.665],[32395022.1023,5839697.6607],[32394904.8993,5839725.1514],[32394793.6942,5839767.1363],[32394695.2342,5839830.6124],[32394640.7569,5839896.0871],[32394603.023,5839977.0555],[32394588.5301,5840064.0211],[32394602.0259,5840146.9879],[32394661.2541,5840265.4399],[32394735.4761,5840375.8949],[32394824.6921,5840474.8543],[32394928.1521,5840557.8198],[32395085.591,5840660.7766],[32395242.78,5840764.2332],[32395401.2185,5840867.19],[32395559.407,5840970.6466],[32395713.8471,5841071.1044],[32395868.2871,5841171.0625],[32396023.4768,5841271.5203],[32396178.9165,5841371.4783],[32396276.6283,5841417.4586],[32396372.341,5841470.936],[32396461.8063,5841532.9101],[32396544.5244,5841604.3805],[32396577.7624,5841687.8468],[32396621.2463,5841767.3145],[32396672.7269,5841841.2844],[32396732.4541,5841911.2557],[32396798.9287,5841976.7287],[32396874.6494,5842034.2047],[32396958.3667,5842075.687],[32397048.3311,5842092.679],[32397150.2905,5842089.1789],[32397252.2499,5842080.1811],[32397354.459,5842064.6858],[32397455.6685,5842046.6915],[32397592.8635,5842017.7011],[32397730.0585,5841988.7106],[32397867.2535,5841957.721],[32398003.6987,5841924.7322],[32398072.9209,5841903.7396],[32398819.3707,5841679.3183],[32398929.8268,5841680.8161],[32399013.5437,5841695.809],[32399105.2577,5841731.7934],[32399186.976,5841785.271],[32399264.1965,5841869.7363],[32399321.6751,5841974.1939],[32399357.9124,5842089.6475],[32399372.9082,5842207.1006],[32399358.1661,5842345.0459],[32399312.1863,5842478.4934],[32399243.2156,5842605.9437],[32399164.4987,5842725.897],[32399055.0432,5842792.8719],[32398942.5888,5842854.349],[32398825.1363,5842906.33],[32398704.6849,5842949.3145],[32398575.4867,5842982.3032],[32398445.2889,5843009.2944],[32398314.0914,5843030.7877],[32398181.8942,5843045.7836],[32398070.1883,5843020.7951],[32397955.2338,5843010.8008],[32397840.0297,5843010.8024],[32397725.0754,5843015.3023],[32397574.8853,5843021.8018],[32397424.6953,5843045.7944],[32397281.503,5843090.7786],[32397152.0555,5843161.7522],[32397054.3456,5843247.2196],[32396975.6285,5843355.6775],[32396925.6501,5843477.6297],[32396917.905,5843603.5797],[32396946.6462,5843782.0083],[32396986.383,5843959.4372],[32397038.3649,5844133.867],[32397101.0924,5844305.2979],[32397163.07,5844460.7352],[32397227.0468,5844615.6726],[32397297.0212,5844768.111],[32397374.9924,5844918.0502],[32397418.4761,5844984.5232],[32397404.733,5845085.983],[32397398.2369,5845170.9493],[32397371.7485,5845248.9186],[32397326.2675,5845309.895],[32397267.0418,5845359.3762],[32397199.5692,5845397.8618],[32397127.3483,5845424.3523],[32397033.3859,5845441.8467],[32396937.1742,5845447.8457],[32396841.2123,5845444.3484],[32396746.2499,5845432.3546],[32396684.2744,5845419.8604],[32396624.5478,5845397.3702],[32396568.8195,5845366.8831],[32396519.0888,5845328.899],[32396450.3652,5845264.9254],[32396385.8898,5845199.4524],[32396325.163,5845129.9809],[32396267.6848,5845058.5101],[32396226.2005,5845003.5326],[32396186.4655,5844947.0556],[32396148.9795,5844888.5794],[32396117.2413,5844828.6037],[32396077.0059,5844735.1415],[32396036.5207,5844642.6789],[32395996.2853,5844550.2162],[32395955.8001,5844457.7536],[32395924.5606,5844329.8049],[32395881.5759,5844204.3554],[32395823.3474,5844086.903],[32395744.8771,5843984.9447],[32395662.409,5843920.4715],[32395571.6942,5843865.4947],[32395475.9818,5843832.0094],[32395378.0207,5843829.0119],[32395286.8075,5843860.5007],[32395200.3425,5843902.985],[32395119.1255,5843955.4653],[32395045.6556,5844015.9423],[32395013.9196,5844107.9061],[32394973.437,5844198.3707],[32394920.7091,5844280.3389],[32394851.2377,5844344.8142],[32394783.0152,5844369.3054],[32394710.0443,5844376.8035],[32394637.0732,5844367.8081],[32394571.349,5844341.3196],[32394490.6301,5844276.8464],[32394421.1566,5844200.3778],[32394363.6783,5844113.913],[32394320.4441,5844021.4504],[32394290.2041,5843882.0063],[32394255.216,5843744.5615],[32394216.2296,5843608.6161],[32394173.9944,5843473.1706],[32394117.2646,5843307.2374],[32394057.286,5843143.8033],[32393992.3095,5842982.3684],[32393926.5834,5842821.9332],[32393834.8668,5842612.018],[32393739.4017,5842403.1025],[32393640.688,5842196.1862],[32393540.9747,5841991.2691],[32393503.738,5841886.8112],[32393461.5033,5841786.3518],[32393412.0216,5841687.8916],[32393354.793,5841595.4292],[32393309.0603,5841530.4557],[32393252.5819,5841471.9798],[32393186.8574,5841427.4984],[32393114.8856,5841402.5094],[32393024.9214,5841399.012],[32392934.9572,5841404.5111],[32392845.7429,5841416.5076],[32392758.7778,5841437.0007],[32392671.5627,5841455.4945],[32392590.0957,5841494.98],[32392513.8768,5841545.461],[32392439.4072,5841598.9407],[32392292.7171,5841707.8994],[32392150.7752,5841822.8557],[32392012.0821,5841941.8103],[32391875.1383,5842062.7641],[32391730.4475,5842178.72],[32391595.5031,5842308.1704],[32391475.3029,5842450.1157],[32391373.3457,5842604.5556],[32391288.1319,5842766.9922],[32391211.9147,5842935.4263],[32391160.9375,5843110.3574],[32391150.6941,5843288.2868],[32391172.6874,5843429.7302],[32391201.6779,5843569.6741],[32391235.6664,5843709.1181],[32391271.904,5843848.5622],[32391350.8745,5843982.5078],[32391420.8487,5844123.9505],[32391471.0809,5844271.3911],[32391494.8236,5844423.8302],[32391490.0773,5844544.7821],[32391469.3373,5844668.7331],[32391425.3564,5844780.1894],[32391349.8877,5844866.656],[32391236.4338,5844940.1284],[32391124.7293,5845015.1001],[32391013.2747,5845090.5717],[32390901.8202,5845166.543],[32390806.1092,5845232.0183],[32390711.6477,5845299.4928],[32390620.1851,5845368.9665],[32390530.7217,5845441.9387],[32390497.2361,5845515.9097],[32390519.4786,5845610.3718],[32390575.9575,5845706.8327],[32390641.4327,5845787.2997],[32390713.4059,5845916.7472],[32390769.6355,5846056.191],[32390800.6253,5846201.6327],[32390800.6274,5846347.5746],[32390766.6429,5846485.5202],[32390707.6683,5846618.4682],[32390626.9521,5846738.9214],[32390528.2428,5846840.8822],[32390411.5404,5846921.3518],[32390282.0928,5846983.329],[32390145.8975,5847026.3138],[32390005.7036,5847051.3058],[32389951.9743,5847004.8251],[32389898.2451,5846960.3435],[32389844.5158,5846914.8624],[32389790.7865,5846870.3808],[32389740.0559,5846818.4022],[32389684.3274,5846771.9215],[32389624.6005,5846729.4392],[32389563.8741,5846690.9554],[32389492.152,5846648.4733],[32389413.4329,5846619.4859],[32389330.4656,5846599.9948],[32389247.4984,5846585.5017],[32389141.5404,5846578.506],[32389034.5832,5846595.0009],[32388932.1245,5846630.9881],[32388839.9119,5846683.4685],[32388768.9417,5846794.9251],[32388773.9419,5846946.8646],[32388819.926,5847113.2978],[32388871.9076,5847268.2354],[32388760.2011,5847209.2604],[32388658.7403,5847129.2937],[32388578.2709,5847032.8332],[32388532.0377,5846921.3781],[32388503.2968,5846758.9432],[32388478.3044,5846596.5081],[32388456.3108,5846434.5728],[32388437.566,5846272.1377],[32388437.3143,5846151.1858],[32388432.3146,5846029.7342],[32388424.0661,5845908.7825],[32388416.8173,5845788.8303],[32388435.8077,5845647.8861],[32388434.806,5845500.4447],[32388400.8176,5845366.9983],[32388320.3481,5845266.5394],[32388166.6586,5845223.5586],[32388003.723,5845196.0718],[32387850.784,5845206.07],[32387723.0857,5845273.0451],[32387639.3706,5845384.502],[32387572.6489,5845507.9538],[32387525.6695,5845640.9016],[32387501.681,5845778.847],[32387489.4388,5845977.7681],[32387479.9454,5846177.6887],[32387473.7007,5846378.109],[32387468.2058,5846579.0292],[32387463.7107,5846798.442],[32387463.2141,5847017.3549],[32387465.7162,5847236.7676],[32387471.2172,5847456.68],[32387480.7167,5847686.0886],[32387494.9643,5847914.9974],[32387514.4598,5848143.4062],[32387537.9538,5848372.8146],[32387526.4594,5848444.2864],[32387491.9762,5848659.7012],[32387454.995,5848947.5872],[32387435.0071,5849237.4722],[32387437.0104,5849527.8566],[32387461.2544,5849779.2563],[32387500.7423,5850029.6561],[32387536.9815,5850281.0556],[32387554.2283,5850533.4549],[32387558.2285,5850659.4048],[32387560.4794,5850787.8537],[32387549.4856,5850911.8045],[32387510.7526,5851028.2588],[32387476.0178,5851124.2211],[32387433.536,5851217.1847],[32387379.8086,5851304.6506],[32387316.335,5851383.1203],[32387254.8606,5851463.5892],[32387192.1367,5851544.5578],[32387127.6634,5851622.0279],[32387059.1917,5851697.4989],[32386989.4708,5851798.9595],[32386923.7484,5851902.4192],[32386861.0249,5852007.3783],[32386800.3006,5852114.8364],[32386694.5937,5852194.3063],[32386559.3979,5852227.2951],[32386409.2076,5852230.7959],[32386265.2647,5852222.8011],[32386118.5726,5852189.8163],[32385977.8777,5852134.8402],[32385844.4297,5852061.8712],[32385720.9775,5851975.9071],[32385574.7839,5851855.4572],[32385437.5865,5851723.5117],[32385310.3851,5851583.5692],[32385192.4298,5851436.6293],[32385055.9831,5851368.1585],[32384905.0426,5851331.1754],[32384748.1048,5851323.1808],[32384595.9155,5851340.676],[32384480.7117,5851366.1675],[32384369.5064,5851403.1544],[32384265.0487,5851455.635],[32384174.5857,5851527.1078],[32384099.1167,5851600.5796],[32384031.3948,5851683.0478],[32383973.9189,5851772.513],[32383930.1877,5851868.4754],[32383894.7026,5851928.9518],[32383859.2176,5851991.9273],[32383826.9813,5852054.4028],[32383800.4928,5852120.377],[32383750.764,5852221.3375],[32383702.0348,5852321.7982],[32383653.3056,5852423.7583],[32383605.576,5852525.2186],[32383504.1174,5852597.6912],[32383407.407,5852679.1601],[32383325.9407,5852770.6248],[32383271.214,5852878.0828],[32383244.4759,5852968.0474],[32383228.7334,5853061.0106],[32383226.2358,5853154.9733],[32383241.481,5853245.9368],[32383258.2251,5853300.4149],[32383280.9669,5853354.3931],[32383311.4554,5853401.8738],[32383354.189,5853437.8588],[32383438.9062,5853499.833],[32383529.6209,5853553.3104],[32383624.3339,5853601.2899],[32383721.0461,5853644.7713]]],"crs":{"type":"EPSG","properties":{"code":4647}}},"properties":{"fl_nr":1825,"NRKART":16,"NRKARTTXT":"16","KLARTEXT":"Podsole aus aelteren Flugsanden ueber Talsanden (hoehere Bereiche der Talsandniederung); vergesellschaftet mit Gley-Podsolen; in flachen Taelern und Senkenbereichen Gleye aus Talsanden","BULAND":null}}]}