{"type": "FeatureCollection","features":[{"type":"Feature","geometry":{"type":"Polygon","coordinates":[[[32410047.8147,5850694.392],[32398813.4079,5850915.8524],[32387579.2296,5851163.357],[32387321.4889,5840042.163],[32387303.6066,5839269.5353],[32387368.013,5839248.5351],[32387526.3272,5839214.4581],[32387514.5808,5839138.4885],[32387506.8329,5839071.0154],[32387500.0838,5838947.5647],[32387487.3371,5838822.6145],[32387485.5872,5838780.1315],[32387489.835,5838744.1457],[32387495.503,5838719.9806],[32387499.3306,5838703.6617],[32387513.5744,5838666.6762],[32387532.8164,5838641.1861],[32387552.8083,5838627.6912],[32387571.0509,5838619.1943],[32387589.0437,5838614.6959],[32387607.7862,5838612.6964],[32387633.526,5838614.1954],[32387683.7561,5838621.192],[32387731.9871,5838634.1861],[32387754.4783,5838642.1826],[32387775.2201,5838651.1787],[32387813.7051,5838673.1695],[32387829.1991,5838684.6647],[32387840.1949,5838696.1599],[32387847.4422,5838708.6549],[32387852.1906,5838724.1486],[32387854.9397,5838742.1414],[32387855.6897,5838764.6325],[32387850.7734,5838822.8411],[32387846.445,5838874.0891],[32387846.9125,5838910.047],[32387846.9453,5838912.5738],[32387852.1937,5838946.5602],[32387860.4409,5838977.5477],[32387871.187,5839004.5368],[32387883.1826,5839027.0277],[32387897.6771,5839048.519],[32387926.6673,5839087.1715],[32387961.403,5839133.4843],[32387966.901,5839147.9784],[32387968.1507,5839161.473],[32387967.1513,5839175.9673],[32388033.1269,5839308.9135],[32388042.6235,5839335.4028],[32388051.6204,5839368.3896],[32388057.6185,5839401.3763],[32388058.6185,5839429.3652],[32388054.3705,5839448.8575],[32388042.1258,5839482.3444],[32388038.6276,5839507.3345],[32388038.1282,5839534.3237],[32388040.3776,5839555.3153],[32388046.6254,5839574.3077],[32388058.6209,5839594.2996],[32388075.8643,5839613.7916],[32388096.3563,5839628.2855],[32388117.598,5839638.2813],[32388136.8405,5839645.2782],[32388156.3328,5839649.7761],[32388223.8061,5839661.7704],[32388248.2965,5839672.7657],[32388278.5348,5839691.7577],[32388335.0129,5839735.7395],[32388336.1057,5839739.9841],[32388336.8066,5839742.9155],[32388336.9385,5839743.4879],[32388341.8779,5839763.363],[32388349.1041,5839779.6668],[32388365.192,5839801.4897],[32388374.2063,5839809.3833],[32388382.2225,5839813.9858],[32388386.7438,5839833.2],[32388393.4913,5839847.6941],[32388403.2376,5839859.1894],[32388415.7327,5839868.6854],[32388431.7265,5839876.682],[32388451.9685,5839884.1788],[32388475.4593,5839889.6763],[32388498.95,5839891.6751],[32388519.4418,5839890.6753],[32388533.4362,5839887.6763],[32388551.4398,5839878.6112],[32388569.1717,5839869.6829],[32388584.1657,5839864.6847],[32388599.6595,5839862.1855],[32388614.4036,5839863.1849],[32388628.3981,5839868.1827],[32388641.3931,5839877.6787],[32388649.64,5839891.673],[32388650.6399,5839908.1665],[32388646.6417,5839924.66],[32388631.8979,5839951.6494],[32388621.6524,5839982.1374],[32388752.851,5840034.1149],[32388853.3117,5840082.5942],[32388933.4205,5840116.7677],[32388962.2691,5840129.0742],[32388978.5127,5840139.07],[32389012.7495,5840166.5586],[32389018.4973,5840174.5554],[32389044.4877,5840220.0369],[32389052.4848,5840242.5278],[32389071.2287,5840333.4914],[32389083.1107,5840370.03],[32389094.4704,5840404.9626],[32389097.9693,5840423.4552],[32389098.7192,5840438.4493],[32389094.4715,5840479.433],[32389113.4641,5840489.9286],[32389134.4558,5840495.9259],[32389157.1968,5840498.4246],[32389182.6867,5840496.9248],[32389206.4272,5840493.4259],[32389227.1688,5840487.9278],[32389247.9105,5840479.9307],[32389312.4578,5840446.9459],[32389354.2915,5840425.5681],[32389349.7193,5840375.7295],[32389350.4929,5840361.1922],[32389360.4226,5840338.1189],[32389369.1071,5840325.7149],[32389382.4825,5840311.0298],[32389535.3704,5840159.7251],[32389568.265,5840135.9951],[32389581.5495,5840129.7781],[32389595.8293,5840127.1979],[32389686.4458,5840128.0294],[32389693.9781,5840135.5614],[32389705.2237,5840141.5589],[32389716.7192,5840144.0577],[32389728.9643,5840144.0576],[32389763.4505,5840138.0595],[32389828.4661,5840119.0218],[32389828.485,5840120.3277],[32389828.4366,5840123.3356],[32389828.2824,5840126.3313],[32389828.0084,5840129.3074],[32389827.633,5840132.273],[32389827.1929,5840135.2432],[32389826.6871,5840138.2118],[32389826.1144,5840141.1725],[32389825.4735,5840144.1189],[32389824.7633,5840147.045],[32389823.9825,5840149.9443],[32389823.1299,5840152.8106],[32389822.1865,5840155.6367],[32389821.0727,5840158.414],[32389819.8043,5840161.1416],[32389818.4109,5840163.8193],[32389816.9222,5840166.4468],[32389815.3676,5840169.0241],[32389814.731,5840170.0331],[32389813.7704,5840171.5554],[32389812.1279,5840174.0576],[32389810.4459,5840176.5363],[32389808.7317,5840178.9957],[32389806.9925,5840181.4402],[32389805.2355,5840183.8741],[32389803.4681,5840186.3017],[32389801.6974,5840188.7274],[32389799.9307,5840191.1554],[32389798.1752,5840193.5902],[32389796.4382,5840196.0359],[32389785.4003,5840209.8647],[32389761.6943,5840247.6199],[32389745.8904,5840285.375],[32389740.6226,5840305.5695],[32389741.5009,5840324.0079],[32389748.5252,5840334.5441],[32389763.4517,5840343.3241],[32389853.0101,5840368.7854],[32389864.7824,5840371.0798],[32389916.7212,5840381.2028],[32389956.6169,5840388.9785],[32390012.8103,5840395.1238],[32390032.7065,5840395.1235],[32390047.053,5840395.1233],[32390220.0229,5840377.5605],[32390265.6798,5840367.0236],[32390281.484,5840361.7553],[32390288.5082,5840359.1211],[32390317.4826,5840339.8042],[32390343.8228,5840314.3413],[32390364.0169,5840287.1224],[32390431.6238,5840242.3424],[32390474.2474,5840209.4568],[32390585.8728,5840100.5629],[32390651.8404,5840040.32],[32390729.8136,5839969.1132],[32390756.5526,5839942.1235],[32390778.2936,5839916.6334],[32390793.7871,5839892.6427],[32390801.2838,5839870.1515],[32390802.2831,5839849.1599],[32390798.2844,5839832.1667],[32390790.0375,5839818.6722],[32390777.0426,5839810.6755],[32390758.3,5839805.6778],[32390732.8101,5839802.6793],[32390640.593,5839795.1588],[32390579.6208,5839790.1864],[32390531.14,5839785.1891],[32390487.4073,5839778.6923],[32390448.1728,5839767.6972],[32390410.6875,5839753.7033],[32390343.9636,5839722.2168],[32390314.9749,5839705.7238],[32390288.7351,5839686.2319],[32390266.9934,5839666.2401],[32390251.4993,5839646.2483],[32390240.7532,5839620.2588],[32390232.7559,5839584.773],[32390228.0072,5839545.2888],[32390227.257,5839507.3039],[32390158.7837,5839471.819],[32390131.2944,5839454.3263],[32390055.5737,5839400.8487],[32390010.6968,5839369.6851],[32390011.5981,5839367.7372],[32390012.8596,5839365.0165],[32390014.1234,5839362.297],[32390015.4222,5839359.5901],[32390016.7652,5839356.8989],[32390018.1418,5839354.2198],[32390019.5413,5839351.5492],[32390020.9534,5839348.8833],[32390021.4388,5839347.9687],[32390030.3018,5839330.0508],[32390038.0576,5839304.3338],[32390044.1634,5839262.7248],[32390045.4866,5839220.6585],[32390045.4675,5839217.7251],[32390045.4356,5839214.7176],[32390045.389,5839211.7085],[32390045.3667,5839210.6624],[32390045.8583,5839208.843],[32390052.072,5839182.4356],[32390054.0707,5839145.4503],[32390052.3208,5839109.4646],[32390047.5722,5839074.9784],[32390039.528,5839036.269],[32390029.8283,5839003.5071],[32389985.8442,5838893.5515],[32389979.0966,5838871.0605],[32389973.5981,5838823.5795],[32389973.8477,5838802.088],[32389976.8462,5838782.0959],[32389984.093,5838763.1034],[32389994.3387,5838746.11],[32390006.8336,5838733.6148],[32390043.8185,5838708.1244],[32390065.5597,5838696.1289],[32390085.0518,5838688.6316],[32390123.7862,5838677.1356],[32390144.028,5838667.1393],[32390163.2702,5838653.1446],[32390181.0128,5838628.6541],[32390196.756,5838592.6682],[32390209.5004,5838553.6835],[32390221.6008,5838505.7747],[32390248.2323,5838369.2564],[32390255.4791,5838347.265],[32390269.4732,5838322.7746],[32390286.716,5838301.2829],[32390303.2093,5838287.2882],[32390321.9517,5838278.7913],[32390346.1919,5838270.2944],[32390373.431,5838264.2964],[32390401.4198,5838260.7974],[32390427.9093,5838261.2968],[32390453.6491,5838264.2953],[32390478.1394,5838268.7931],[32390501.6302,5838275.2902],[32390525.6208,5838286.2855],[32390549.8614,5838301.779],[32390571.603,5838319.2717],[32390627.3316,5838372.7497],[32390670.315,5838410.734],[32390691.8798,5838426.965],[32390726.5432,5838449.7177],[32390760.53,5838469.2094],[32390812.2597,5838494.1988],[32390872.329,5838526.0994],[32390871.2325,5838616.9379],[32390873.5867,5838640.8172],[32390878.532,5838668.5325],[32390887.4472,5838692.8271],[32390897.5548,5838711.2217],[32390912.1575,5838730.2559],[32390934.8012,5838754.3091],[32390954.9539,5838772.315],[32390976.6494,5838788.3902],[32390999.9908,5838801.9078],[32391030.9298,5838817.0354],[32391102.6081,5838846.5666],[32391104.4824,5838847.3177],[32391107.2616,5838848.4442],[32391110.0355,5838849.5832],[32391112.8033,5838850.7361],[32391115.5643,5838851.9045],[32391118.3179,5838853.0898],[32391121.065,5838854.2902],[32391123.8113,5838855.4938],[32391126.5571,5838856.6999],[32391129.3023,5838857.9084],[32391132.0468,5838859.1197],[32391134.7903,5838860.3339],[32391137.5328,5838861.5511],[32391140.2742,5838862.7716],[32391143.0143,5838863.9955],[32391145.753,5838865.2229],[32391148.4901,5838866.454],[32391151.2255,5838867.6891],[32391153.9591,5838868.9282],[32391156.6907,5838870.1716],[32391159.4203,5838871.4194],[32391162.1476,5838872.6718],[32391164.8725,5838873.9289],[32391167.5949,5838875.191],[32391170.3147,5838876.4581],[32391173.0318,5838877.7306],[32391175.7459,5838879.0084],[32391178.457,5838880.2919],[32391181.1649,5838881.5811],[32391183.8695,5838882.8763],[32391186.5706,5838884.1775],[32391189.2682,5838885.4851],[32391191.9621,5838886.7991],[32391194.6521,5838888.1198],[32391197.3381,5838889.4472],[32391200.0201,5838890.7816],[32391202.6977,5838892.1231],[32391205.371,5838893.4719],[32391208.0325,5838894.8427],[32391210.6607,5838896.2779],[32391213.2572,5838897.7734],[32391215.8254,5838899.322],[32391218.3688,5838900.9161],[32391220.8907,5838902.5484],[32391223.3946,5838904.2114],[32391225.8838,5838905.8978],[32391228.3618,5838907.6002],[32391230.8319,5838909.311],[32391233.2975,5838911.0229],[32391235.7621,5838912.7292],[32391238.225,5838914.4441],[32391240.6784,5838916.181],[32391243.1136,5838917.9468],[32391245.5217,5838919.748],[32391247.8941,5838921.5916],[32391250.222,5838923.4843],[32391252.4966,5838925.4328],[32391254.7094,5838927.4437],[32391256.8768,5838929.5057],[32391259.0141,5838931.606],[32391261.121,5838933.7425],[32391263.1971,5838935.9133],[32391265.2418,5838938.1163],[32391267.2546,5838940.3496],[32391269.2352,5838942.6111],[32391271.183,5838944.8988],[32391273.0975,5838947.2107],[32391274.9786,5838949.5448],[32391276.8387,5838951.8935],[32391278.6862,5838954.2526],[32391280.5223,5838956.6211],[32391282.3479,5838958.9982],[32391284.164,5838961.3831],[32391285.9718,5838963.775],[32391287.7721,5838966.173],[32391289.5661,5838968.5763],[32391291.3548,5838970.984],[32391293.1391,5838973.3953],[32391294.9202,5838975.8094],[32391296.699,5838978.2254],[32391298.4766,5838980.6425],[32391300.254,5838983.0599],[32391302.0321,5838985.4767],[32391303.8122,5838987.8921],[32391305.5951,5838990.3052],[32391305.7151,5838990.4671],[32391320.0845,5839009.4288],[32391354.552,5839050.9697],[32391372.1576,5839059.5908],[32391387.4484,5839064.2783],[32391389.3853,5839064.7018],[32391390.9897,5839065.0122],[32391392.0718,5839065.6956],[32391417.0276,5839081.4567],[32391440.7683,5839096.4504],[32391497.7462,5839136.9334],[32391519.238,5839155.4258],[32391548.4767,5839184.4138],[32391577.5372,5839211.637],[32391615.7009,5839247.3878],[32391641.191,5839262.3815],[32391661.1833,5839277.8751],[32391676.4275,5839296.8673],[32391690.9218,5839302.8647],[32391707.6653,5839314.3599],[32391739.1531,5839340.8489],[32391759.8951,5839354.3433],[32391779.8871,5839354.343],[32391789.8831,5839350.3444],[32391808.6254,5839336.3497],[32391815.1228,5839335.3501],[32391823.8694,5839336.8493],[32391834.1154,5839340.8476],[32391844.8612,5839347.3449],[32391855.3571,5839356.8409],[32391906.7079,5839409.6287],[32391918.8328,5839420.3148],[32391936.0761,5839432.3098],[32391957.3178,5839443.3051],[32391986.8063,5839455.2999],[32392058.778,5839479.7892],[32392073.1455,5839482.0878],[32392090.0156,5839484.7867],[32392160.6235,5839501.4211],[32392185.478,5839507.2765],[32392200.9717,5839501.7784],[32392214.7162,5839494.2812],[32392227.461,5839484.285],[32392254.9165,5839499.7689],[32392332.9198,5839543.7599],[32392382.0337,5839572.6274],[32392529.3434,5839659.2112],[32392537.8401,5839664.2091],[32392606.5633,5839706.6912],[32392646.2979,5839741.1769],[32392667.0401,5839762.1683],[32392689.0316,5839780.6606],[32392722.1438,5839808.649],[32392755.2561,5839836.6374],[32392757.5052,5839833.1388],[32392766.7512,5839827.141],[32392786.2436,5839826.1412],[32392820.2301,5839838.1359],[32392872.2099,5839865.6242],[32392986.4136,5839933.2775],[32393076.3805,5839986.5732],[32393107.1183,5840001.067],[32393143.604,5840014.5612],[32393192.5849,5840028.5549],[32393240.3159,5840040.5495],[32393285.2983,5840049.0454],[32393289.7966,5840049.5452],[32393402.2504,5839953.5818],[32393438.4854,5839925.0926],[32393460.4766,5839909.5984],[32393481.7179,5839898.1027],[32393504.7088,5839891.605],[32393530.9483,5839893.104],[32393525.9497,5839861.1168],[32393530.1977,5839830.6289],[32393547.4405,5839798.1416],[32393619.6605,5839716.6729],[32393666.3912,5839669.691],[32393717.3703,5839625.208],[32393801.5858,5839556.2342],[32393831.0736,5839525.2461],[32393853.8142,5839491.7591],[32393869.3074,5839454.7736],[32393877.5536,5839418.288],[32393881.5512,5839365.309],[32393879.5518,5839350.8148],[32393874.0538,5839338.8197],[32393865.0574,5839328.324],[32393852.812,5839317.8283],[32393817.7702,5839293.1636],[32393749.8519,5839245.3586],[32393718.3641,5839219.8692],[32393699.8712,5839199.8774],[32393688.6254,5839181.8847],[32393682.3776,5839165.3914],[32393678.6289,5839149.3978],[32393680.378,5839135.9031],[32393689.6243,5839127.9062],[32393712.8648,5839121.4084],[32393720.8615,5839115.9105],[32393727.1089,5839103.4154],[32393731.357,5839088.4213],[32393734.3554,5839058.4332],[32393729.3567,5839011.4519],[32393724.8582,5838999.4568],[32393718.4731,5838993.9839],[32393704.8661,5838988.4614],[32393666.3813,5838987.4624],[32393652.137,5838984.4638],[32393638.8923,5838978.4663],[32393629.6458,5838968.9702],[32393625.3974,5838956.4753],[32393623.6476,5838932.9846],[32393621.8982,5838923.4884],[32393617.3998,5838912.9927],[32393609.9027,5838902.497],[32393575.6659,5838873.0092],[32393563.9204,5838865.5123],[32393547.4269,5838861.5141],[32393509.9418,5838857.5163],[32393494.448,5838853.0183],[32393482.4526,5838845.0216],[32393471.9566,5838835.0257],[32393459.7112,5838819.5321],[32393448.2155,5838801.0396],[32393439.4687,5838781.0477],[32393434.4704,5838760.5559],[32393432.4709,5838738.0649],[32393433.2202,5838713.5746],[32393436.2187,5838687.5849],[32393443.4653,5838656.0973],[32393478.1998,5838538.6436],[32393485.1964,5838494.1612],[32393489.1941,5838442.1818],[32393491.442,5838358.2151],[32393489.1304,5838309.5493],[32393482.9428,5838179.2864],[32393484.6914,5838129.8061],[32393493.4375,5838100.3177],[32393506.432,5838077.8265],[32393523.1751,5838059.3336],[32393543.6032,5838060.6611],[32393623.1354,5838065.8296],[32393661.1203,5838066.8287],[32393703.3535,5838063.8293],[32393765.5786,5838055.3318],[32393837.5498,5838042.3359],[32393968.6594,5838011.254],[32394019.5585,5837999.1874],[32394066.7078,5837988.8539],[32394114.1888,5837980.8565],[32394130.1825,5837980.8562],[32394145.1765,5837983.355],[32394162.4198,5837988.8526],[32394181.1625,5837999.3482],[32394197.4062,5838012.3428],[32394213.1501,5838028.3362],[32394294.6177,5838028.335],[32394316.1091,5838023.8365],[32394332.1026,5838012.3409],[32394343.5978,5837996.347],[32394352.0941,5837977.8543],[32394364.0135,5837937.0631],[32394364.8568,5837934.5179],[32394373.3348,5837912.38],[32394388.3284,5837887.3898],[32394415.8171,5837856.9015],[32394453.0517,5837821.4151],[32394490.0366,5837788.9275],[32394544.6478,5837744.8032],[32394565.5057,5837727.9507],[32394578.0005,5837715.4555],[32394605.2391,5837676.4706],[32394618.9833,5837652.9797],[32394628.4792,5837632.9876],[32394702.4511,5837720.9515],[32394726.9418,5837754.9377],[32394741.1864,5837768.4321],[32394757.43,5837773.9297],[32394772.174,5837769.931],[32394781.92,5837760.4347],[32394786.668,5837747.9396],[32394787.1676,5837735.4446],[32394780.9198,5837716.952],[32394746.4324,5837641.4825],[32394742.1839,5837623.4897],[32394739.9344,5837600.9987],[32394740.9337,5837578.5076],[32394746.4313,5837560.0149],[32394758.6762,5837549.0191],[32394776.4191,5837544.5207],[32394796.911,5837546.5196],[32394816.9032,5837554.5161],[32394843.5685,5837574.3663],[32394861.8857,5837588.0021],[32394880.8783,5837594.4993],[32394900.3705,5837594.499],[32394914.115,5837587.0018],[32394922.3615,5837574.0069],[32394925.1101,5837557.0136],[32394924.61,5837536.0219],[32394922.6105,5837512.5313],[32394916.6125,5837486.0419],[32394905.1167,5837457.5534],[32394832.1437,5837318.1099],[32394799.4057,5837248.1382],[32394769.6665,5837175.6675],[32394745.825,5837105.1557],[32394717.9346,5837002.737],[32394707.6879,5836951.2576],[32394700.9398,5836894.2804],[32394697.4404,5836839.3023],[32394697.9396,5836793.3206],[32394703.853,5836807.9786],[32394715.6831,5836837.3028],[32394753.418,5836828.3059],[32394786.6547,5836822.3078],[32394816.8926,5836819.8084],[32394887.8644,5836820.3072],[32394970.0817,5836823.8046],[32395009.816,5836828.802],[32395051.2996,5836836.7983],[32395089.5345,5836846.7938],[32395120.0226,5836856.7894],[32395129.2185,5836861.3871],[32395172.5286,5836811.8882],[32395165.7536,5836804.3096],[32395156.5071,5836788.8159],[32395149.7594,5836765.3253],[32395152.0084,5836754.8295],[32395159.7551,5836742.3343],[32395177.6986,5836731.6584],[32395223.0809,5836715.2261],[32395252.0318,5836712.0959],[32395298.9793,5836712.0952],[32395342.1902,5836716.0629],[32395337.7079,5836693.6484],[32395332.0757,5836676.7541],[32395332.0754,5836654.2284],[32395326.3125,5836602.3736],[32395081.534,5836586.8973],[32395036.302,5836588.3973],[32395002.5656,5836597.3942],[32394975.8264,5836611.389],[32394923.5977,5836645.3762],[32394896.6086,5836657.3718],[32394870.8689,5836663.8696],[32394842.9627,5836666.5977],[32394804.3954,5836670.368],[32394754.1656,5836680.8645],[32394727.9261,5836684.3635],[32394706.4346,5836683.3642],[32394686.9423,5836679.8659],[32394662.2004,5836560.9135],[32394653.953,5836511.9331],[32394648.9543,5836462.4529],[32394645.5033,5836400.5894],[32394641.7053,5836332.5047],[32394599.4726,5836367.4914],[32394578.9809,5836379.9867],[32394560.2385,5836386.4844],[32394541.496,5836387.984],[32394522.7534,5836383.9859],[32394504.0107,5836374.4899],[32394487.0172,5836358.4966],[32394474.0221,5836337.0053],[32394464.7754,5836313.5148],[32394458.7775,5836290.524],[32394456.2782,5836270.0322],[32394457.2775,5836252.5391],[32394461.7755,5836237.545],[32394469.7722,5836225.5497],[32394481.0176,5836217.5527],[32394506.2574,5836209.0557],[32394496.5108,5836175.0694],[32394488.2635,5836131.5868],[32394484.5143,5836083.1061],[32394482.764,5836017.1324],[32394478.7648,5835962.1543],[32394473.5161,5835908.1759],[32394469.4578,5835882.4168],[32394467.7679,5835871.6905],[32394460.0206,5835846.2007],[32394449.5244,5835817.2124],[32394438.2785,5835792.2225],[32394428.0323,5835777.2286],[32394416.7867,5835770.2316],[32394386.2987,5835758.2368],[32394370.5548,5835748.241],[32394357.5598,5835737.7453],[32394348.3134,5835728.749],[32394342.3156,5835720.2525],[32394339.8165,5835709.7567],[32394340.0662,5835696.2621],[32394347.0629,5835660.7761],[32394353.0602,5835642.7832],[32394463.7626,5835390.8818],[32394488.752,5835343.4003],[32394542.4792,5835249.4369],[32394570.9673,5835209.9523],[32394607.9521,5835170.4674],[32394651.4342,5835131.9821],[32394699.1647,5835094.9962],[32394744.3963,5835065.0075],[32394783.3804,5835043.5154],[32394817.3667,5835029.0207],[32394847.8544,5835019.0243],[32394884.0899,5835010.0273],[32394931.321,5835001.53],[32394983.3002,5834996.0315],[32395034.03,5834993.5318],[32395112.9986,5834992.531],[32395146.7351,5834988.5322],[32395205.432,5834971.7409],[32395243.6961,5834957.5431],[32395266.4368,5834943.5484],[32395309.9189,5834901.5644],[32395327.6616,5834886.5701],[32395343.1553,5834877.0737],[32395356.8998,5834871.0759],[32395374.6427,5834868.5766],[32395397.8835,5834868.5763],[32395442.8656,5834874.5733],[32395457.36,5834882.5699],[32395467.3562,5834895.5646],[32395483.6002,5834927.5516],[32395494.846,5834943.5451],[32395509.0905,5834960.0383],[32395524.8345,5834975.0322],[32395541.0781,5834984.5281],[32395557.0719,5834989.5259],[32395573.5653,5834991.0251],[32395589.0591,5834988.0261],[32395602.8035,5834979.0295],[32395635.2901,5834943.5431],[32395651.5333,5834923.051],[32395672.5245,5834891.0635],[32395688.0181,5834874.07],[32395706.2606,5834858.5759],[32395724.0034,5834847.0802],[32395761.4882,5834828.587],[32395803.2213,5834804.0962],[32395820.2143,5834790.6013],[32395830.7099,5834776.1069],[32395837.457,5834758.6138],[32395841.705,5834735.6229],[32395844.9533,5834710.133],[32395845.4528,5834686.1425],[32395843.4532,5834664.1513],[32395833.7065,5834618.1697],[32395833.2062,5834585.1828],[32395838.2038,5834554.6949],[32395849.449,5834536.2021],[32395864.443,5834534.7025],[32395878.1877,5834543.6987],[32395889.4334,5834558.1928],[32395904.178,5834586.1814],[32395915.9235,5834602.1749],[32395931.4176,5834618.1683],[32395964.6548,5834645.6569],[32395971.4022,5834656.1526],[32395973.1517,5834667.1482],[32395972.902,5834679.6433],[32395970.1533,5834693.1379],[32395944.4141,5834736.621],[32395914.177,5834794.0986],[32395910.6757,5834801.415],[32395897.4341,5834829.0849],[32395885.9391,5834858.0735],[32395853.7033,5834954.0358],[32395840.2097,5835021.0094],[32395828.2156,5835098.9785],[32395826.4668,5835136.9634],[32395829.2162,5835168.4509],[32395834.5408,5835194.7919],[32395814.3899,5835201.8454],[32395801.453,5835209.4298],[32395792.8736,5835217.7454],[32395787.2992,5835225.162],[32395782.13,5835232.0394],[32395778.4049,5835236.9956],[32395711.7632,5835192.9428],[32395692.0209,5835177.9491],[32395682.2745,5835161.4558],[32395680.0252,5835146.4618],[32395683.0238,5835135.4661],[32395691.0205,5835126.9693],[32395703.2656,5835118.9724],[32395728.2554,5835106.9768],[32395736.0023,5835100.979],[32395739.0009,5835091.4828],[32395737.5014,5835081.4868],[32395731.5037,5835073.9898],[32395719.2585,5835069.4918],[32395701.0157,5835066.4933],[32395679.7741,5835065.494],[32395634.0424,5835070.4926],[32395552.0749,5835061.9972],[32395329.4132,5835046.5065],[32395304.1733,5835047.0067],[32395279.6831,5835052.005],[32395256.6924,5835062.5012],[32395235.701,5835080.4943],[32395217.4586,5835103.4854],[32395201.4653,5835128.4757],[32395185.9719,5835157.9642],[32395163.5767,5835206.3996],[32395148.488,5835236.9333],[32395122.9987,5835280.4164],[32395080.2667,5835347.3903],[32395051.7786,5835386.3752],[32394931.7458,5835541.67],[32394863.3748,5835630.1263],[32394859.7893,5835634.7651],[32394824.3733,5835680.7614],[32394799.3837,5835716.2476],[32394769.1466,5835776.2242],[32394756.6521,5835808.2116],[32394742.4086,5835868.6878],[32394714.4209,5835953.6544],[32394730.1647,5835953.6541],[32394740.6607,5835965.1494],[32394748.6578,5835985.1414],[32394754.6552,5835972.1464],[32394812.6303,5835846.6955],[32394843.1174,5835791.2172],[32394901.3358,5835698.4249],[32394958.0691,5835611.7869],[32394986.0574,5835574.8012],[32395087.0157,5835465.3433],[32395150.4316,5835391.7867],[32395246.4496,5835280.4146],[32395285.4335,5835238.4308],[32395342.1601,5835181.4526],[32395375.3965,5835153.9631],[32395408.633,5835137.969],[32395441.3699,5835132.9705],[32395473.857,5835132.97],[32395504.5948,5835135.9684],[32395527.5784,5835140.5648],[32395558.3236,5835147.4631],[32395609.0537,5835164.9554],[32395631.295,5835176.4505],[32395653.2865,5835192.9436],[32395675.7779,5835215.4344],[32395711.7642,5835260.416],[32395761.4956,5835341.8829],[32395782.2373,5835335.8849],[32395804.9782,5835334.3852],[32395859.6015,5835344.1386],[32395868.5816,5835359.1017],[32395879.1849,5835364.4945],[32395894.1093,5835366.3301],[32395909.08,5835365.7194],[32395923.9249,5835363.4483],[32395934.6162,5835359.2274],[32396043.134,5835375.3655],[32396210.568,5835412.8482],[32396240.8061,5835422.344],[32396268.0454,5835434.3389],[32396303.7814,5835452.3312],[32396343.266,5835474.8217],[32396381.7511,5835500.311],[32396412.7391,5835525.3006],[32396489.7096,5835600.7695],[32396537.1914,5835649.7493],[32396597.6683,5835715.7222],[32396694.6313,5835822.6783],[32396737.6035,5835872.6992],[32396758.6069,5835897.1478],[32396813.0867,5836004.1045],[32396861.8187,5836095.5674],[32396908.5512,5836175.0351],[32396961.0314,5836248.5051],[32397025.7568,5836331.4712],[32397132.2163,5836460.4184],[32397184.1965,5836516.3954],[32397384.6197,5836723.81],[32397416.3575,5836753.7976],[32397458.0914,5836788.2833],[32397504.5734,5836821.7693],[32397550.0557,5836848.2582],[32397673.7574,5836910.2317],[32397708.7437,5836929.7235],[32397740.4814,5836950.2149],[32397769.7201,5836971.7059],[32397793.7108,5836992.1974],[32397823.6993,5837023.1847],[32397858.1861,5837055.6713],[32397874.9297,5837075.1633],[32397887.1751,5837092.6561],[32397895.9218,5837105.151],[32397906.4177,5837113.6475],[32397923.411,5837118.1455],[32397945.4023,5837120.1444],[32397967.3936,5837119.1444],[32397991.3839,5837114.1461],[32398019.3727,5837105.1493],[32398051.3598,5837091.1544],[32398083.5967,5837074.1607],[32398160.5654,5837029.6773],[32398188.3042,5837018.1814],[32398217.2926,5837010.684],[32398244.2818,5837008.1846],[32398264.024,5837009.6837],[32398278.8438,5837012.4407],[32398307.007,5837017.6799],[32398330.2478,5837019.6788],[32398381.9772,5837020.1779],[32398428.2083,5836985.6909],[32398451.6986,5836961.2003],[32398477.9377,5836928.2131],[32398507.6753,5836886.7292],[32398505.6754,5836839.7479],[32398507.6742,5836813.7582],[32398514.1713,5836788.768],[32398527.6656,5836765.777],[32398547.6573,5836745.7847],[32398574.8963,5836730.2904],[32398630.2195,5836710.147],[32398675.1059,5836693.8036],[32398702.3448,5836676.8099],[32398719.5877,5836658.3171],[32398731.3327,5836636.8254],[32398737.5803,5836643.8226],[32398747.0764,5836654.5678],[32398756.5731,5836665.3138],[32398776.3966,5836650.654],[32398786.3109,5836643.3221],[32398800.0557,5836659.3155],[32398820.8019,5836683.3105],[32398841.5399,5836707.2959],[32399011.2216,5836658.8128],[32399010.2086,5836590.2213],[32399008.9703,5836506.3735],[32399008.7743,5836500.1038],[32399007.9703,5836474.3862],[32398984.4244,5836440.338],[32398906.0087,5836326.9463],[32398876.7698,5836287.4624],[32398859.0266,5836267.4706],[32398817.5425,5836227.4871],[32398798.5498,5836212.4933],[32398782.0563,5836201.9977],[32398757.4763,5836190.8584],[32398731.3261,5836179.0075],[32398713.8329,5836168.512],[32398700.0882,5836156.0171],[32398679.3461,5836130.5276],[32398672.0988,5836117.5328],[32398670.5992,5836104.538],[32398678.5958,5836093.0425],[32398700.3371,5836085.5452],[32398929.9953,5836054.0545],[32398980.2252,5836046.057],[32399001.2167,5836041.0587],[32399020.2091,5836039.0592],[32399033.6509,5836043.3262],[32399035.953,5836044.057],[32399047.4486,5836060.0505],[32399103.9288,5836242.4771],[32399138.4168,5836361.9291],[32399163.3422,5836460.0215],[32399223.8876,5836698.2941],[32399242.8809,5836759.2696],[32399257.0474,5836804.7491],[32399302.7255,5836727.6647],[32399328.7737,5836690.762],[32399374.3585,5836660.3712],[32399405.6706,5836656.8916],[32399413.4317,5836656.0291],[32399430.7981,5836699.4433],[32399452.506,5836745.0284],[32399491.5797,5836784.1012],[32399582.7495,5836725.4901],[32399621.8233,5836779.7578],[32399686.9467,5836875.2689],[32399715.1671,5836938.2199],[32399716.5492,5836982.4244],[32399717.3389,5837007.683],[32399721.6806,5837031.5608],[32399737.3284,5837045.6436],[32399769.4372,5837068.4628],[32399869.2905,5837057.6078],[32399936.5829,5837035.8993],[32399956.1194,5837035.899],[32400002.1274,5837035.8984],[32400021.8248,5837026.6524],[32400054.8116,5837017.6555],[32400076.5413,5837014.4031],[32400125.7832,5837009.6577],[32400182.5107,5837009.1571],[32400210.4995,5837010.6561],[32400278.2227,5837020.6512],[32400309.2105,5837028.6476],[32400337.9493,5837040.6424],[32400395.4268,5837072.6289],[32400454.1539,5837102.6161],[32400605.5946,5837169.0875],[32400682.8144,5837206.0718],[32400743.7908,5837254.0518],[32400777.5279,5837285.039],[32400803.0181,5837312.0279],[32400878.7393,5837405.9895],[32400895.483,5837429.9797],[32400958.4596,5837541.4345],[32401037.6803,5837700.87],[32401044.4277,5837701.8695],[32401054.2988,5837702.6191],[32401064.1698,5837703.3686],[32401092.1085,5837748.2995],[32401142.2484,5837828.9345],[32401185.3744,5837898.2895],[32401176.628,5837902.7877],[32401167.8815,5837907.2861],[32401210.1157,5837974.7586],[32401225.1101,5838004.2467],[32401234.1069,5838029.2366],[32401239.6051,5838053.227],[32401242.1044,5838075.2182],[32401241.6049,5838094.7105],[32401236.857,5838114.2028],[32401216.3658,5838158.1856],[32401194.1253,5838203.6678],[32401179.6317,5838243.1523],[32401174.3843,5838278.6383],[32401179.3827,5838308.1265],[32401188.3795,5838336.1152],[32401199.8753,5838360.1055],[32401212.8704,5838378.598],[32401224.8658,5838392.0924],[32401236.1115,5838402.5881],[32401249.8561,5838411.5843],[32401269.0986,5838418.5813],[32401290.5901,5838422.5794],[32401312.0815,5838422.0793],[32401338.0711,5838414.5819],[32401373.8067,5838399.5874],[32401426.5353,5838374.0968],[32401558.9816,5838305.1223],[32401607.2123,5838297.6247],[32401653.9437,5838292.626],[32401703.4239,5838290.6261],[32401801.1351,5838295.1229],[32401883.1027,5838305.1178],[32401941.8294,5838315.6128],[32402003.0554,5838335.604],[32402040.2908,5838353.5963],[32402078.276,5838376.0868],[32402110.5135,5838398.5774],[32402142.2184,5838426.0542],[32402155.4962,5838437.5613],[32402181.736,5838456.0536],[32402214.9729,5838468.0483],[32402349.67,5838510.5296],[32402419.6425,5838537.5178],[32402570.0836,5838604.9889],[32402598.0727,5838618.9829],[32402619.0645,5838631.9775],[32402637.0576,5838645.4718],[32402650.5524,5838658.9663],[32402657.7996,5838669.462],[32402659.5491,5838680.9574],[32402659.7995,5838712.9447],[32402662.0488,5838729.4381],[32402672.0452,5838756.927],[32402683.0411,5838776.4191],[32402692.5373,5838774.4198],[32402709.0308,5838776.4188],[32402738.2693,5838785.4148],[32402782.2521,5838804.4066],[32402889.2103,5838860.3828],[32402983.4237,5838921.3573],[32403092.1314,5838986.3299],[32403162.6038,5839019.8156],[32403185.5948,5839027.8121],[32403206.6705,5839032.2624],[32403224.0795,5839031.8099],[32403245.0711,5839025.3122],[32403269.3113,5839012.3171],[32403292.5518,5838994.3239],[32403310.7942,5838974.3316],[32403331.433,5838948.409],[32403311.9238,5838829.3776],[32403304.0446,5838817.8939],[32403301.2956,5838805.3989],[32403300.0452,5838745.9226],[32403309.1647,5838745.0105],[32403316.43,5838726.8484],[32403329.454,5838711.6531],[32403351.1608,5838679.0918],[32403372.8672,5838640.0184],[32403392.4033,5838592.2619],[32403398.9153,5838559.701],[32403376.8046,5838479.5554],[32403378.9265,5838480.366],[32403388.5062,5838484.0255],[32403410.7474,5838487.5238],[32403434.488,5838488.0232],[32403699.1325,5838473.5253],[32404181.69,5838442.5308],[32404727.2221,5838384.0464],[32404731.2196,5838381.5479],[32404771.2042,5838356.5567],[32404793.6951,5838345.5607],[32404813.937,5838338.5632],[32404857.1696,5838329.0664],[32404898.1532,5838323.568],[32405030.3505,5838312.5705],[32405033.2661,5838322.0664],[32405039.0974,5838341.059],[32405070.8349,5838347.0562],[32405113.5679,5838352.5534],[32405158.3002,5838356.0514],[32405195.5354,5838355.5511],[32405228.7721,5838349.0532],[32405266.2569,5838334.5584],[32405306.4906,5838311.567],[32405347.7237,5838279.5791],[32405383.7089,5838242.0935],[32405437.6863,5838169.6216],[32405465.6747,5838136.1345],[32405511.156,5838093.1509],[32405573.6304,5838039.6713],[32405634.1056,5837990.69],[32405672.8398,5837963.2003],[32405694.831,5837956.2028],[32405717.5719,5837957.7019],[32405740.0631,5837966.1982],[32405760.8051,5837979.6925],[32405776.2992,5838000.1842],[32405783.5467,5838026.6735],[32405783.797,5838056.1618],[32405777.5499,5838084.6506],[32405760.0572,5838109.6409],[32405729.3198,5838132.6322],[32405665.0402,5838166.086],[32405564.1367,5838218.6003],[32405480.9206,5838268.5816],[32405448.4339,5838294.5717],[32405426.9428,5838321.5613],[32405416.1974,5838347.0513],[32405415.9479,5838369.0426],[32405426.4439,5838387.0353],[32405446.936,5838402.5288],[32405474.6751,5838413.5241],[32405507.4122,5838418.5216],[32405544.8972,5838413.5231],[32405589.3793,5838399.528],[32405706.832,5838358.0428],[32405802.5435,5838331.552],[32406035.2001,5838276.5706],[32406134.4103,5838251.5791],[32406178.3927,5838243.0819],[32406221.6254,5838237.5834],[32406255.6119,5838237.583],[32406277.8531,5838245.0797],[32406294.0969,5838258.0743],[32406327.3342,5838299.5573],[32406351.5749,5838325.0468],[32406379.8141,5838350.0365],[32406409.8024,5838371.0277],[32406439.7907,5838384.0221],[32406466.0303,5838389.0198],[32406486.2723,5838388.5197],[32406503.7652,5838384.0212],[32406522.0078,5838369.5267],[32406538.0011,5838350.0342],[32406551.4954,5838328.5426],[32406560.9914,5838307.051],[32406565.7392,5838287.0589],[32406565.2391,5838268.5662],[32406559.4912,5838251.0733],[32406548.7452,5838235.5796],[32406532.2515,5838220.086],[32406509.7603,5838204.5925],[32406483.0207,5838190.5984],[32406454.0321,5838180.6028],[32406427.7925,5838176.6048],[32406405.0516,5838179.1041],[32406352.5726,5838191.5999],[32406324.3339,5838191.6003],[32406304.0918,5838184.1035],[32406290.597,5838171.1089],[32406282.1001,5838155.1154],[32406283.5993,5838134.6235],[32406298.343,5838108.1338],[32406321.3335,5838080.1446],[32406348.3224,5838054.6544],[32406524.5,5837899.2137],[32406603.7175,5837832.2392],[32406642.9514,5837796.253],[32406671.1897,5837764.7651],[32406715.921,5837701.7895],[32406740.4109,5837672.8007],[32406764.9008,5837653.8079],[32406793.6392,5837641.8122],[32406830.6244,5837632.8153],[32406873.8571,5837627.8167],[32406921.3382,5837627.3162],[32406976.0666,5837636.8116],[32407044.0399,5837659.8015],[32407226.4683,5837734.2693],[32407347.171,5837785.2473],[32407608.8186,5837902.6969],[32407624.3123,5837893.7003],[32407648.0527,5837883.7039],[32407680.7896,5837875.7066],[32407723.5225,5837870.708],[32407800.9916,5837863.7097],[32407999.1024,5837840.3593],[32408089.3764,5837829.7191],[32408157.3493,5837826.7193],[32408189.0867,5837828.718],[32408219.3247,5837834.2154],[32408245.8143,5837843.7113],[32408267.5558,5837856.206],[32408287.2982,5837872.1994],[32408510.4624,5838076.6149],[32408577.4366,5838138.0895],[32408592.6808,5838154.0829],[32408611.9234,5838176.0739],[32408629.4168,5838200.0641],[32408652.6581,5838239.0483],[32408659.6556,5838256.5412],[32408663.6543,5838278.5324],[32408660.9057,5838302.5229],[32408652.1595,5838323.5147],[32408638.1654,5838343.5069],[32408586.4389,5838549.4258],[32408534.7125,5838755.3447],[32408527.8558,5838787.7907],[32408524.4672,5838803.8255],[32408517.2208,5838854.3055],[32408512.4734,5838904.7855],[32408510.4749,5838952.7665],[32408511.9825,5838984.2481],[32408512.7247,5838999.7478],[32408519.7226,5839046.729],[32408529.2195,5839091.2112],[32408538.9661,5839130.1955],[32408553.711,5839177.1766],[32408576.4528,5839237.6523],[32408602.9431,5839300.6269],[32408629.4333,5839352.6058],[32408662.9208,5839406.5839],[32408706.6543,5839470.058],[32408748.3885,5839528.0344],[32408777.1276,5839564.5194],[32408815.6123,5839564.5189],[32408836.3541,5839569.5166],[32408863.0936,5839581.0117],[32408892.8322,5839605.0017],[32408920.3218,5839640.987],[32408964.3053,5839708.9593],[32408986.7967,5839736.448],[32409019.2844,5839773.4329],[32409061.0184,5839817.4148],[32409108.0949,5839862.6439],[32409111.9988,5839866.3946],[32409166.7278,5839912.8753],[32409219.7073,5839952.8586],[32409271.1873,5839985.345],[32409321.4177,5840011.8337],[32409375.6465,5840036.3232],[32409510.4116,5840095.9583],[32409549.5784,5840113.2901],[32409647.54,5840149.7742],[32409655.2866,5840134.2802],[32409669.7807,5840125.2836],[32409687.2737,5840122.2845],[32409702.7676,5840125.2831],[32409775.4771,5840155.0185],[32409802.9784,5840166.2654],[32409804.3996,5840205.2901],[32409853.7527,5840228.3262],[32410047.8147,5850694.392]]],"crs":{"type":"EPSG","properties":{"code":4647}}},"properties":{"FL_NR":1575,"BR":3,"BR_NAME":"GEEST","TKNR":3310,"TKNAME":"Haselünne","UP_DATE":"2018-09-06T14:12:10.0000000"}}]}