{"type": "FeatureCollection","features":[{"type":"Feature","geometry":{"type":"Polygon","coordinates":[[[32390289.0871,5846783.9082],[32390387.049,5846841.384],[32390475.5143,5846874.8694],[32390512.3217,5846882.5135],[32390540.4887,5846888.3631],[32390579.9732,5846902.8568],[32390714.4206,5846965.8299],[32390747.4078,5846984.3221],[32390761.6523,5846997.8165],[32390766.9004,5847011.8108],[32390764.9014,5847027.8045],[32390757.4047,5847046.2973],[32390744.66,5847061.7913],[32390713.6725,5847079.7846],[32390702.4272,5847091.2801],[32390694.9304,5847106.7741],[32390690.1825,5847123.2676],[32390688.6834,5847141.2604],[32390691.1827,5847161.7523],[32390696.9307,5847183.2436],[32390704.6779,5847203.7354],[32390715.4239,5847222.7277],[32390729.9184,5847237.7215],[32390776.1504,5847269.7081],[32390807.3883,5847286.2011],[32390842.3746,5847300.6949],[32390889.8559,5847314.6886],[32390951.8315,5847329.6818],[32391074.7829,5847355.6697],[32391126.7624,5847361.1668],[32391176.7425,5847361.6659],[32391228.9717,5847358.1666],[32391252.4622,5847349.6696],[32391275.4529,5847339.1735],[32391292.7963,5847329.2136],[32391321.934,5847309.1847],[32391337.9274,5847294.6903],[32391363.2786,5847261.4022],[32391363.9443,5847260.5281],[32391375.9116,5847245.2094],[32391388.6564,5847234.7134],[32391429.6399,5847221.2182],[32391473.1225,5847211.7214],[32391491.865,5847211.7211],[32391515.6056,5847215.7192],[32391557.839,5847227.214],[32391561.7972,5847227.0587],[32391557.2204,5847238.4094],[32391556.3426,5847254.2944],[32391560.1755,5847277.3464],[32391565.8159,5847286.5404],[32391578.9732,5847292.179],[32391625.8866,5847300.3259],[32391714.0824,5847315.6419],[32391736.512,5847314.368],[32391730.459,5847208.472],[32391721.1149,5847155.0527],[32391784.6013,5847159.4234],[32391881.5761,5847163.3881],[32391935.3431,5847184.4351],[32391983.7332,5847179.5418],[32392025.1525,5847179.2265],[32392047.8933,5847166.2314],[32392085.128,5847129.7454],[32392115.0945,5847067.5681],[32392136.5961,5847031.4591],[32392167.8041,5847007.8114],[32392209.4431,5846986.4371],[32392263.6181,5846971.8001],[32392319.2911,5846967.1661],[32392366.026,5846976.6902],[32392421.652,5846993.982],[32392474.5145,5847027.2546],[32392503.504,5847054.724],[32392531.827,5847095.514],[32392643.9491,5847275.8351],[32392659.4291,5847294.4971],[32392680.39,5847313.156],[32392703.797,5847327.88],[32392740.944,5847344.252],[32392765.169,5847349.075],[32392793.076,5847350.941],[32392852.8122,5847342.757],[32392886.9843,5847334.6453],[32392935.675,5847325.838],[32392989.838,5847330.214],[32393024.751,5847343.725],[32393060.5,5847368.966],[32393077.508,5847383.329],[32393023.8262,5847424.333],[32393010.7641,5847417.118],[32392983.2749,5847406.6225],[32392966.3306,5847402.887],[32392951.5374,5847399.6258],[32392924.0483,5847397.1272],[32392905.8055,5847397.6272],[32392889.0622,5847399.1269],[32392857.6491,5847418.7502],[32392803.674,5847447.3253],[32392746.5239,5847467.4337],[32392713.7155,5847474.842],[32392683.0237,5847469.5503],[32392659.2112,5847457.6441],[32392570.7079,5847381.047],[32392553.6422,5847355.647],[32392535.7828,5847333.0251],[32392515.1453,5847315.9594],[32392499.3714,5847300.5096],[32392465.121,5847289.8577],[32392409.5763,5847284.6062],[32392385.3669,5847284.6062],[32392335.3605,5847295.7187],[32392313.1196,5847296.9208],[32392259.5609,5847287.6801],[32392178.3431,5847281.1838],[32392099.8742,5847278.6859],[32392043.3967,5847280.6859],[32392006.6614,5847287.6837],[32391974.1745,5847297.1803],[32391947.4353,5847307.6765],[32391926.6937,5847318.1726],[32391900.7041,5847327.6692],[32391827.2336,5847344.6635],[32391799.9945,5847352.6607],[32391783.6416,5847362.4391],[32391775.7544,5847367.1553],[32391747.7659,5847391.6459],[32391725.2752,5847418.1357],[32391717.2787,5847438.6277],[32391724.0261,5847447.624],[32391737.5208,5847448.6234],[32391777.7547,5847440.626],[32391823.5304,5847427.6154],[32391874.9656,5847410.6366],[32391900.2055,5847405.1384],[32391951.1852,5847408.1365],[32391983.9223,5847413.6339],[32392018.1588,5847421.6302],[32392051.3958,5847433.625],[32392083.6331,5847447.6189],[32392114.6211,5847464.6117],[32392144.8593,5847483.6038],[32392171.8489,5847506.0944],[32392195.5899,5847532.5836],[32392244.0715,5847596.0576],[32392280.3077,5847639.04],[32392375.0215,5847742.4975],[32392441.9959,5847807.9705],[32392478.7336,5847852.2097],[32392512.9689,5847893.4355],[32392549.2049,5847925.9221],[32392578.9434,5847946.4135],[32392588.6896,5847949.4122],[32392601.6844,5847950.9114],[32392613.88,5847948.7334],[32392615.6788,5847948.4122],[32392660.3621,5847917.848],[32392677.8908,5847902.3037],[32392688.0135,5847886.8615],[32392715.594,5847819.6212],[32392748.667,5847799.7775],[32392784.3858,5847806.3921],[32392818.7817,5847832.8504],[32392872.5758,5847889.432],[32392871.4075,5847902.1562],[32392870.3271,5847913.9223],[32392873.0764,5847939.4121],[32392883.0727,5847963.9023],[32392895.3183,5847991.891],[32392910.4925,5848049.4243],[32392913.3121,5848060.8633],[32392926.7333,5848104.4052],[32392936.2953,5848135.427],[32392947.0503,5848170.3192],[32392954.2976,5848180.3152],[32392964.0208,5848189.801],[32393049.0105,5848538.684],[32392968.4708,5848578.9555],[32392968.0476,5848558.1647],[32392934.8104,5848530.6761],[32392884.0799,5848484.6951],[32392827.1017,5848429.7177],[32392775.1216,5848376.2398],[32392725.3906,5848317.7637],[32392691.454,5848275.1108],[32392617.4315,5848181.3195],[32392590.7968,5848149.4715],[32392570.1995,5848124.8427],[32392506.7238,5848060.3692],[32392361.3959,5847924.2254],[32392249.5725,5847819.4687],[32392179.5043,5847749.6228],[32392090.6334,5847661.0339],[32392046.6504,5847625.5487],[32392011.4141,5847604.0577],[32391981.9257,5847591.0633],[32391953.6868,5847584.5663],[32391922.1993,5847581.5679],[32391891.2116,5847582.0682],[32391878.9765,5847583.9152],[32391864.7222,5847586.0669],[32391808.7447,5847603.5608],[32391702.5375,5847644.546],[32391638.8132,5847666.0383],[32391585.0847,5847676.5349],[32391543.3513,5847676.0357],[32391499.8684,5847667.0399],[32391441.3914,5847645.0494],[32391327.8475,5847592.22],[32391181.7434,5847528.1141],[32391003.5627,5847454.6314],[32390723.1726,5847343.6794],[32390667.4432,5847319.1894],[32390611.7162,5847294.7005],[32390576.7299,5847283.2056],[32390516.2538,5847272.7106],[32390327.0787,5847249.2226],[32390265.853,5847244.7252],[32390203.1279,5847242.2271],[32390173.1397,5847237.7293],[32390143.6514,5847230.2327],[32390109.6647,5847214.7393],[32390070.4299,5847190.7494],[32389991.4605,5847132.2738],[32389958.9729,5847100.287],[32389914.4962,5847040.7958],[32389881.2523,5846996.3294],[32389835.0162,5846946.0472],[32389712.8167,5846818.9024],[32389609.657,5846717.9945],[32389449.1679,5846561.0087],[32389360.7018,5846471.0457],[32389316.9686,5846432.0618],[32389311.3082,5846427.2474],[32389273.4853,5846395.0771],[32389240.9979,5846370.5873],[32389215.5079,5846357.5929],[32389187.0191,5846349.5964],[32389158.5303,5846345.5984],[32389111.2991,5846343.1001],[32389042.5763,5846336.6036],[32389010.0892,5846336.6041],[32388876.2017,5846342.1038],[32388803.1716,5846345.1036],[32388782.6798,5846349.6021],[32388766.9362,5846359.0985],[32388755.4411,5846375.5921],[32388748.1943,5846399.0829],[32388746.1955,5846429.071],[32388755.1927,5846483.5492],[32388807.9248,5846694.4645],[32388832.4165,5846798.9227],[32388847.9112,5846856.3996],[32388860.9066,5846893.8845],[32388873.1519,5846911.8771],[32388887.8963,5846924.372],[32388904.6397,5846932.3686],[32388922.6327,5846938.3659],[32388947.3729,5846943.8634],[32389074.5727,5846968.8517],[32389118.3054,5846979.3469],[32389153.5416,5846990.342],[32389181.7805,5847002.3368],[32389205.7712,5847015.3313],[32389229.7619,5847030.8248],[32389254.5023,5847049.3171],[32389294.9867,5847082.3035],[32389310.9806,5847101.2957],[32389330.2233,5847127.7849],[32389352.9646,5847153.7742],[32389378.7047,5847170.7671],[32389440.6804,5847196.7559],[32389511.1529,5847232.2408],[32389537.1428,5847248.7339],[32389550.3877,5847261.2287],[32389571.6296,5847288.7175],[32389596.62,5847307.2098],[32389631.6063,5847326.2017],[32389668.342,5847343.1944],[32389698.3302,5847354.6894],[32389722.8206,5847366.6843],[32389745.5618,5847382.1778],[32389768.8029,5847401.17],[32389734.8162,5847392.174],[32389690.5836,5847377.6804],[32389646.6009,5847361.1876],[32389612.3643,5847345.6942],[32389552.4879,5847310.2251],[32389428.4358,5847236.7401],[32389269.7476,5847147.278],[32389195.2767,5847107.2949],[32389134.0506,5847078.3073],[32389070.3256,5847053.8179],[32388989.6073,5847027.3296],[32388903.1413,5847002.3407],[32388821.1736,5846982.3498],[32388694.7235,5846955.8621],[32388641.9944,5846948.3659],[32388588.7655,5846944.868],[32388541.2844,5846946.8679],[32388508.5475,5846954.3653],[32388484.0574,5846965.8611],[32388459.5664,5846911.8829],[32388423.3294,5846812.423],[32388381.5947,5846723.9588],[32388321.1173,5846621.5004],[32388261.3896,5846524.5398],[32388220.6548,5846453.0688],[32388201.4118,5846408.0869],[32388191.6652,5846376.0998],[32388187.6665,5846350.61],[32388186.6665,5846323.1209],[32388190.4145,5846289.6342],[32388200.6597,5846242.6528],[32388217.1524,5846191.173],[32388237.6436,5846141.1926],[32388262.6329,5846090.7123],[32388293.3699,5846036.7334],[32388328.8551,5845984.7536],[32388396.3271,5845903.7848],[32388419.0676,5845873.7964],[32388438.0596,5845839.8097],[32388458.5508,5845797.3263],[32388475.0436,5845754.3432],[32388481.7904,5845717.3578],[32388479.0411,5845689.369],[32388470.7941,5845668.3774],[32388457.0493,5845653.3836],[32388437.8069,5845644.3874],[32388413.0667,5845641.8888],[32388385.8276,5845646.3874],[32388359.0883,5845654.8844],[32388310.312,5845679.4011],[32388263.627,5845702.8666],[32388247.8833,5845707.8648],[32388232.8893,5845709.3645],[32388221.1439,5845703.8668],[32388213.8966,5845690.8721],[32388206.8989,5845657.3855],[32388205.6491,5845642.3915],[32388207.3982,5845627.8972],[32388213.8954,5845612.4033],[32388225.3906,5845595.9097],[32388238.6351,5845580.9155],[32388265.6241,5845559.4236],[32388280.8678,5845543.9296],[32388290.8636,5845527.9358],[32388288.371,5845514.344],[32388271.1212,5845510.9429],[32388243.1325,5845518.4403],[32388194.1522,5845539.9324],[32388173.1608,5845555.4265],[32388110.6865,5845610.4055],[32388086.1965,5845628.8985],[32388068.2037,5845637.8952],[32388050.9607,5845641.8938],[32388035.7167,5845639.8948],[32388023.2215,5845631.3984],[32388017.9734,5845614.905],[32388021.7216,5845593.9133],[32388032.9668,5845571.9219],[32388049.7099,5845552.9292],[32388084.4348,5845528.8882],[32388134.1754,5845494.4513],[32388161.6141,5845464.5174],[32388191.9016,5845431.4756],[32388263.1224,5845367.9998],[32388314.1014,5845318.5188],[32388330.8444,5845298.5265],[32388337.5058,5845285.9235],[32388340.0905,5845281.0334],[32388344.8384,5845263.0404],[32388345.088,5845246.0472],[32388340.5896,5845232.0528],[32388331.8429,5845220.0577],[32388318.8479,5845207.5629],[32388302.8541,5845196.5675],[32388284.6112,5845189.0707],[32388263.3697,5845186.572],[32388240.1289,5845188.0717],[32388218.1377,5845191.5706],[32388187.65,5845199.5679],[32388176.1545,5845201.0675],[32388174.9612,5845200.8095],[32388166.9082,5845199.0684],[32388159.9109,5845191.5715],[32388157.1618,5845179.5763],[32388159.4107,5845166.0816],[32388170.9057,5845135.0938],[32388253.6203,5844963.6608],[32388274.6112,5844910.6816],[32388320.0909,5844752.7438],[32388334.5846,5844715.7583],[32388353.5764,5844674.2745],[32388374.8175,5844639.2882],[32388397.558,5844611.7988],[32388443.8875,5844565.0969],[32388459.5608,5844551.7114],[32388509.7619,5844508.8382],[32388522.7566,5844495.3434],[32388531.253,5844482.8482],[32388563.4894,5844426.3702],[32388583.231,5844388.3851],[32388596.4753,5844357.3972],[32388616.7163,5844288.9242],[32388626.2122,5844266.9328],[32388637.2075,5844248.9398],[32388648.9527,5844237.944],[32388661.6975,5844230.4468],[32388675.6919,5844224.9488],[32388693.1849,5844219.9505],[32388716.1757,5844216.4516],[32388744.1645,5844216.951],[32388777.1515,5844222.9482],[32388819.3849,5844239.441],[32388867.866,5844264.9302],[32388912.0988,5844291.419],[32388941.3375,5844310.9109],[32389125.5161,5844438.8574],[32389225.4773,5844505.8294],[32389253.7164,5844526.8206],[32389271.7094,5844543.3138],[32389279.7064,5844556.8083],[32389281.456,5844572.8019],[32389280.9565,5844594.2934],[32389277.958,5844618.2839],[32389267.9627,5844668.2642],[32389264.4646,5844702.7505],[32389262.9658,5844744.234],[32389264.216,5844791.2153],[32389269.9644,5844838.6963],[32389280.2109,5844880.1797],[32389300.4536,5844934.6577],[32389330.1926,5844989.6354],[32389353.4339,5845028.6196],[32389371.6771,5845056.6082],[32389396.4178,5845099.091],[32389406.1644,5845130.0785],[32389408.6639,5845165.0646],[32389405.9153,5845182.5576],[32389400.1678,5845200.0508],[32389385.4241,5845230.039],[32389358.4353,5845264.0259],[32389339.1933,5845285.0178],[32389317.7024,5845325.0022],[32389301.9592,5845360.4883],[32389292.7133,5845392.9755],[32389288.4657,5845439.4571],[32389289.4655,5845459.9489],[32389293.9641,5845482.4399],[32389301.9612,5845505.9304],[32389312.7073,5845526.9219],[32389325.9523,5845544.9146],[32389341.4463,5845559.4086],[32389358.1898,5845571.9034],[32389393.1762,5845590.3956],[32389419.0384,5845599.2658],[32389496.6356,5845625.88],[32389493.887,5845653.3691],[32389494.8871,5845682.8574],[32389501.1351,5845718.3432],[32389512.1312,5845751.3299],[32389526.6258,5845776.8195],[32389546.1183,5845796.8113],[32389572.8579,5845811.805],[32389599.3475,5845821.8006],[32389619.5895,5845826.2986],[32389636.5828,5845826.7981],[32389653.0762,5845825.2985],[32389670.3193,5845819.3006],[32389686.3128,5845808.8046],[32389698.8076,5845795.8096],[32389706.0545,5845783.3144],[32389711.8036,5845874.778],[32389718.3022,5845960.7437],[32389690.8138,5846002.2276],[32389677.3194,5846019.221],[32389665.5742,5846030.2168],[32389654.0789,5846037.2142],[32389641.5839,5846040.2131],[32389626.8397,5846041.213],[32389590.854,5846037.2151],[32389544.1224,5846024.7207],[32389500.8893,5846007.2282],[32389365.6922,5845945.2548],[32389390.4322,5845933.759],[32389410.1742,5845919.7643],[32389425.1679,5845901.2715],[32389432.9145,5845879.7799],[32389436.4128,5845857.2888],[32389434.4133,5845834.7978],[32389426.1663,5845814.306],[32389407.4235,5845796.8133],[32389381.1837,5845784.3186],[32389347.9468,5845774.323],[32389351.9448,5845747.3337],[32389352.9441,5845722.3436],[32389350.1948,5845698.3532],[32389333.2011,5845664.8668],[32389301.2131,5845616.3865],[32389266.2263,5845566.4069],[32389239.9862,5845528.9222],[32389200.501,5845468.4468],[32389182.2578,5845434.4606],[32389168.2629,5845398.4751],[32389161.0153,5845364.9885],[32389159.5155,5845336.9996],[32389162.0141,5845314.5086],[32389167.2618,5845298.5148],[32389177.0077,5845282.0213],[32389193.6952,5845259.5911],[32389223.4883,5845219.5455],[32389247.7284,5845197.0541],[32389258.7236,5845173.0635],[32389261.9722,5845161.568],[32389261.972,5845147.5736],[32389255.4741,5845111.0882],[32389216.2385,5845028.6215],[32389211.2402,5845013.6276],[32389208.4911,5844997.1342],[32389207.9911,5844980.1409],[32389209.24,5844938.6574],[32389206.2409,5844920.1648],[32389197.994,5844908.1697],[32389186.2486,5844903.6717],[32389173.7536,5844905.1712],[32389161.5086,5844912.6684],[32389149.5135,5844924.6638],[32389138.5181,5844941.6572],[32389129.522,5844962.649],[32389124.2745,5844988.6387],[32389124.2749,5845020.626],[32389132.7737,5845167.5674],[32389134.0237,5845206.0521],[32389132.7747,5845237.5396],[32389116.7986,5845338.9023],[32389109.536,5845384.9813],[32389106.2878,5845419.9674],[32389107.7876,5845446.9566],[32389115.035,5845468.9478],[32389125.5312,5845491.9385],[32389137.5267,5845512.93],[32389168.3147,5845553.7667],[32389185.7585,5845576.9038],[32389195.7547,5845591.3979],[32389203.002,5845607.3915],[32389207.5006,5845628.3831],[32389209.5001,5845653.3731],[32389209.0007,5845679.8626],[32389177.5126,5845635.3807],[32389130.7803,5845577.9042],[32389103.2909,5845548.4163],[32389076.5511,5845524.926],[32389053.81,5845511.9315],[32389035.0674,5845507.9334],[32389017.8242,5845507.4338],[32389001.081,5845510.9327],[32388984.3377,5845519.9293],[32388967.0948,5845534.9236],[32388951.8511,5845552.4169],[32388936.8574,5845573.9085],[32388931.6092,5845553.9165],[32388926.361,5845533.9246],[32388912.6157,5845482.4452],[32388908.1174,5845472.9491],[32388901.1201,5845466.4518],[32388891.6238,5845461.9537],[32388867.6333,5845458.4554],[32388845.1422,5845459.4553],[32388831.1477,5845455.9569],[32388817.4031,5845447.9603],[32388806.9071,5845436.465],[32388796.8194,5845420.0871],[32388786.8703,5845403.9342],[32388780.667,5845395.9815],[32388768.6716,5845386.4854],[32388754.927,5845381.9874],[32388739.6831,5845381.9876],[32388724.4392,5845387.9854],[32388712.1942,5845398.4814],[32388705.1972,5845412.9758],[32388705.4474,5845430.4688],[32388715.359,5845451.5554],[32388723.4407,5845462.4558],[32388736.6856,5845474.4509],[32388763.6751,5845493.9427],[32388773.6713,5845503.4388],[32388780.1688,5845512.935],[32388782.668,5845520.9317],[32388781.4185,5845526.9294],[32388777.4202,5845530.428],[32388770.423,5845531.9275],[32388758.5429,5845531.7603],[32388734.9371,5845531.4282],[32388724.4413,5845535.9266],[32388719.6934,5845548.4217],[32388722.6924,5845563.4157],[32388730.4395,5845574.911],[32388749.4322,5845595.9024],[32388770.4244,5845629.8886],[32388741.186,5845630.8886],[32388727.4415,5845633.3878],[32388712.4476,5845639.3856],[32388695.4545,5845650.3815],[32388682.4599,5845665.8755],[32388678.9616,5845685.3678],[32388687.7083,5845704.3601],[32388705.4515,5845720.8533],[32388728.9424,5845734.8474],[32388886.1308,5845796.3207],[32388782.8494,5845813.6012],[32388723.5357,5845823.5253],[32388688.9596,5845829.3104],[32388654.7234,5845838.8071],[32388616.2389,5845854.8013],[32388576.5051,5845877.2929],[32388464.5506,5845946.267],[32388451.8058,5845958.2624],[32388445.5585,5845970.7575],[32388446.5583,5845984.7519],[32388452.0562,5845996.2473],[32388459.3034,5846001.745],[32388482.7942,5846011.2409],[32388498.2882,5846020.7369],[32388511.2832,5846032.7319],[32388520.2798,5846045.2268],[32388522.5291,5846056.7222],[32388517.5312,5846067.7179],[32388499.039,5846097.7063],[32388493.7914,5846116.199],[32388493.5417,5846132.6924],[32388496.0409,5846145.1874],[32388502.0386,5846155.1834],[32388511.535,5846164.6794],[32388525.5295,5846171.6765],[32388542.5228,5846174.1752],[32388558.7664,5846173.1754],[32388571.0114,5846170.1764],[32388585.7554,5846157.6812],[32388631.7364,5846109.1998],[32388652.4779,5846089.7073],[32388672.7196,5846075.2128],[32388723.1992,5846047.2232],[32388748.439,5846036.727],[32388770.9299,5846029.2297],[32388793.4209,5846025.231],[32388820.91,5846022.7316],[32388857.6453,5846022.2313],[32388908.8644,5846023.874],[32388951.1082,5846025.2288],[32388993.5329,5846018.0534],[32389019.081,5846013.7324],[32389047.5697,5846011.7328],[32389082.3059,5846012.2321],[32389130.037,5846021.7277],[32389189.0139,5846041.7189],[32389248.9904,5846068.2075],[32389300.4703,5846097.1953],[32389380.6892,5846150.1731],[32389412.4269,5846174.1631],[32389436.1678,5846197.6534],[32389452.6616,5846221.1438],[32389464.6572,5846245.1341],[32389472.6543,5846269.1245],[32389479.2832,5846309.7584],[32389484.1508,5846339.5963],[32389495.6469,5846386.0776],[32389508.892,5846414.0663],[32389532.1333,5846452.5506],[32389559.623,5846492.5344],[32389585.863,5846525.0211],[32389611.3532,5846549.511],[32389685.0748,5846608.4865],[32389711.3148,5846642.4726],[32389730.3076,5846663.9638],[32389813.9903,5846754.8872],[32389866.0057,5846811.4032],[32389909.2391,5846852.8861],[32389972.7147,5846908.8629],[32390066.4286,5846987.8302],[32390080.4231,5846994.8272],[32390096.1669,5846999.3252],[32390111.6608,5846999.8248],[32390124.9054,5846996.326],[32390135.4012,5846989.8285],[32390150.1451,5846974.3344],[32390301.0863,5847058.2989],[32390319.8289,5847063.7964],[32390338.3216,5847063.7962],[32390355.8145,5847058.7979],[32390370.5585,5847050.3011],[32390378.8051,5847035.8068],[32390378.8047,5847013.8155],[32390373.0566,5846986.3265],[32390364.0598,5846955.8388],[32390347.3158,5846912.3563],[32390289.0871,5846783.9082]],[[32388991.3314,5845270.0286],[32388993.0804,5845251.0362],[32388987.8322,5845231.544],[32388974.3373,5845215.5505],[32388957.8437,5845203.5555],[32388944.5989,5845197.0583],[32388914.1109,5845187.5625],[32388896.3678,5845179.566],[32388881.8734,5845168.5705],[32388872.6269,5845153.5766],[32388867.3788,5845137.0833],[32388861.8805,5845107.5951],[32388856.6324,5845095.5999],[32388847.3859,5845083.6048],[32388824.3948,5845063.6131],[32388815.3982,5845053.6172],[32388808.6507,5845039.6228],[32388796.9049,5845006.1363],[32388789.9075,5844994.1412],[32388781.6607,5844988.1437],[32388760.669,5844984.1456],[32388750.9228,5844977.6483],[32388746.9242,5844963.1541],[32388747.9235,5844944.1617],[32388753.9208,5844922.6701],[32388763.9165,5844903.1778],[32388788.4063,5844871.6899],[32388800.1514,5844853.1971],[32388817.6439,5844813.7126],[32388820.3926,5844797.2191],[32388816.6439,5844783.7245],[32388808.397,5844773.2288],[32388797.901,5844765.732],[32388784.6562,5844760.2343],[32388768.1628,5844757.2358],[32388750.6697,5844757.7358],[32388734.926,5844762.734],[32388721.6814,5844770.731],[32388712.1854,5844782.7264],[32388705.9381,5844800.2195],[32388701.6901,5844824.21],[32388698.942,5844877.189],[32388701.0656,5844898.0355],[32388708.439,5844932.6668],[32388721.9343,5844980.1477],[32388722.9341,5844994.6419],[32388718.9359,5845008.1366],[32388703.1926,5845039.6243],[32388682.7015,5845086.1061],[32388672.4559,5845114.0951],[32388664.7095,5845145.0829],[32388660.4617,5845181.0686],[32388658.9628,5845220.553],[32388659.963,5845256.5386],[32388662.4623,5845282.0285],[32388667.2106,5845295.523],[32388669.0428,5845296.6602],[32388674.4578,5845300.0211],[32388682.7045,5845298.0218],[32388691.201,5845289.5251],[32388709.6932,5845256.0381],[32388719.9095,5845232.8001],[32388735.1822,5845198.0608],[32388743.1788,5845185.0659],[32388751.1755,5845177.069],[32388759.4222,5845176.0693],[32388767.1692,5845180.5674],[32388773.9167,5845188.5641],[32388785.7145,5845214.8708],[32388795.6587,5845237.0445],[32388806.1547,5845247.0404],[32388824.3976,5845256.5363],[32388843.1402,5845262.0339],[32388859.8836,5845262.0336],[32388875.1275,5845262.0334],[32388887.6226,5845266.0317],[32388905.1758,5845276.5255],[32388943.1011,5845306.5148],[32388950.3482,5845309.5135],[32388967.8412,5845303.0158],[32388979.8363,5845296.0185],[32388987.3332,5845284.5229],[32388991.3314,5845270.0286]],[[32389045.3055,5844962.1504],[32389040.8069,5844935.661],[32389031.5603,5844916.1688],[32389017.0659,5844906.6728],[32388999.073,5844904.6739],[32388982.0798,5844906.6733],[32388969.8348,5844910.6719],[32388960.8384,5844917.1694],[32388939.5972,5844938.6612],[32388928.1018,5844943.6594],[32388915.3569,5844942.1601],[32388889.3642,5844932.1633],[32388876.3722,5844927.1666],[32388864.6268,5844926.1672],[32388852.8815,5844929.1662],[32388843.1355,5844935.6637],[32388837.6378,5844944.6602],[32388836.6384,5844955.1561],[32388838.6377,5844966.6515],[32388844.1357,5844979.6462],[32388854.132,5844993.1407],[32388867.127,5845006.1354],[32388953.0938,5845076.6061],[32388971.3367,5845085.1025],[32388984.8313,5845086.6017],[32388999.8254,5845086.1017],[32389015.0692,5845082.6029],[32389027.5641,5845071.6071],[32389036.3104,5845054.1139],[32389041.558,5845033.622],[32389044.8064,5845013.1301],[32389046.3055,5844989.6394],[32389045.3055,5844962.1504]]],"crs":{"type":"EPSG","properties":{"code":4647}}},"properties":{"FL_NR":14592,"BR":3,"BR_NAME":"GEEST","BGL":6,"BGL_NAME":" Talsandniederungen und Urstromtäler","BL":8,"BL_NAME":"Talsandniederungen","BR_BGL_BL_NAME":"GEEST /  Talsandniederungen und Urstromtäler / Talsandniederungen","TKNR":null,"TKNAME":null,"UP_DATE":"2018-09-06T14:14:16.0000000"}}]}