{"type": "FeatureCollection","features":[{"type":"Feature","geometry":{"type":"Polygon","coordinates":[[[32388784.0337,5846598.9062],[32388807.9248,5846694.4645],[32388832.4165,5846798.9227],[32388847.9112,5846856.3996],[32388860.9066,5846893.8845],[32388873.1519,5846911.8771],[32388887.8963,5846924.372],[32388904.6397,5846932.3686],[32388922.6327,5846938.3659],[32388947.3729,5846943.8634],[32389074.5727,5846968.8517],[32389118.3054,5846979.3469],[32389153.5416,5846990.342],[32389181.7805,5847002.3368],[32389205.7712,5847015.3313],[32389229.7619,5847030.8248],[32389254.5023,5847049.3171],[32389294.9867,5847082.3035],[32389310.9806,5847101.2957],[32389330.2233,5847127.7849],[32389352.9646,5847153.7742],[32389378.7047,5847170.7671],[32389440.6804,5847196.7559],[32389511.1529,5847232.2408],[32389537.1428,5847248.7339],[32389550.3877,5847261.2287],[32389571.6296,5847288.7175],[32389596.62,5847307.2098],[32389631.6063,5847326.2017],[32389668.342,5847343.1944],[32389698.3302,5847354.6894],[32389722.8206,5847366.6843],[32389745.5618,5847382.1778],[32389768.8029,5847401.17],[32389734.8162,5847392.174],[32389690.5836,5847377.6804],[32389646.6009,5847361.1876],[32389612.3643,5847345.6942],[32389552.4879,5847310.2251],[32389428.4358,5847236.7401],[32389269.7476,5847147.278],[32389195.2767,5847107.2949],[32389134.0506,5847078.3073],[32389070.3256,5847053.8179],[32388989.6073,5847027.3296],[32388903.1413,5847002.3407],[32388821.1736,5846982.3498],[32388694.7235,5846955.8621],[32388641.9944,5846948.3659],[32388588.7655,5846944.868],[32388541.2844,5846946.8679],[32388508.5475,5846954.3653],[32388502.6239,5846957.1459],[32388484.0574,5846965.8611],[32388459.5664,5846911.8829],[32388423.3294,5846812.423],[32388381.5947,5846723.9588],[32388375.2934,5846713.2834],[32388321.1173,5846621.5004],[32388275.2101,5846546.9757],[32388278.4686,5846543.8456],[32388283.2059,5846539.2949],[32388290.6461,5846455.6142],[32388294.5682,5846411.502],[32388321.0264,5846204.509],[32388321.7166,5846199.1094],[32388307.1196,5846156.4628],[32388294.2508,5846118.8652],[32388295.2788,5846115.5543],[32388313.1307,5846058.0563],[32388320.2322,5846035.1836],[32388324.0539,5846030.3634],[32388336.9036,5846014.1561],[32388375.3592,5845965.6524],[32388461.8766,5845882.5273],[32388528.7771,5845818.25],[32388519.9679,5845757.967],[32388509.0066,5845682.957],[32388524.0555,5845667.3027],[32388524.7817,5845666.6043],[32388525.2102,5845666.1923],[32388529.1531,5845662.4004],[32388512.9253,5845626.3019],[32388491.741,5845579.1777],[32388453.7744,5845511.725],[32388436.2474,5845480.5861],[32388484.9282,5845475.7972],[32388575.1399,5845470.9195],[32388583.717,5845470.9194],[32388621.4649,5845470.9189],[32388670.2279,5845468.4801],[32388715.359,5845451.5554],[32388723.4407,5845462.4558],[32388736.6856,5845474.4509],[32388763.6751,5845493.9427],[32388773.6713,5845503.4388],[32388780.1688,5845512.935],[32388782.668,5845520.9317],[32388781.4185,5845526.9294],[32388777.4202,5845530.428],[32388770.423,5845531.9275],[32388758.5429,5845531.7603],[32388734.9371,5845531.4282],[32388724.4413,5845535.9266],[32388719.6934,5845548.4217],[32388722.6924,5845563.4157],[32388730.4395,5845574.911],[32388740.5372,5845586.0713],[32388749.4322,5845595.9024],[32388770.4244,5845629.8886],[32388741.186,5845630.8886],[32388727.4415,5845633.3878],[32388712.4476,5845639.3856],[32388695.4545,5845650.3815],[32388682.4599,5845665.8755],[32388678.9616,5845685.3678],[32388687.7083,5845704.3601],[32388705.4515,5845720.8533],[32388728.9424,5845734.8474],[32388886.1308,5845796.3207],[32388782.8494,5845813.6012],[32388723.5357,5845823.5253],[32388688.9596,5845829.3104],[32388684.5944,5845830.5212],[32388654.7234,5845838.8071],[32388616.2389,5845854.8013],[32388576.5051,5845877.2929],[32388464.5506,5845946.267],[32388451.8058,5845958.2624],[32388445.5585,5845970.7575],[32388446.5583,5845984.7519],[32388452.0562,5845996.2473],[32388459.3034,5846001.745],[32388482.7942,5846011.2409],[32388498.2882,5846020.7369],[32388511.2832,5846032.7319],[32388520.2798,5846045.2268],[32388522.5291,5846056.7222],[32388517.5312,5846067.7179],[32388499.039,5846097.7063],[32388493.7914,5846116.199],[32388493.5417,5846132.6924],[32388496.0409,5846145.1874],[32388502.0386,5846155.1834],[32388511.535,5846164.6794],[32388525.5295,5846171.6765],[32388542.5228,5846174.1752],[32388558.7664,5846173.1754],[32388571.0114,5846170.1764],[32388585.7554,5846157.6812],[32388631.7364,5846109.1998],[32388652.4779,5846089.7073],[32388672.7196,5846075.2128],[32388723.1992,5846047.2232],[32388748.439,5846036.727],[32388770.9299,5846029.2297],[32388793.4209,5846025.231],[32388820.91,5846022.7316],[32388857.6453,5846022.2313],[32388908.8644,5846023.874],[32388951.1082,5846025.2288],[32388993.5329,5846018.0534],[32389019.081,5846013.7324],[32389047.5697,5846011.7328],[32389082.3059,5846012.2321],[32389130.037,5846021.7277],[32389189.0139,5846041.7189],[32389248.9904,5846068.2075],[32389300.4703,5846097.1953],[32389380.6892,5846150.1731],[32389412.4269,5846174.1631],[32389436.1678,5846197.6534],[32389452.6616,5846221.1438],[32389464.6572,5846245.1341],[32389472.6543,5846269.1245],[32389479.2832,5846309.7584],[32389484.1508,5846339.5963],[32389495.6469,5846386.0776],[32389508.892,5846414.0663],[32389532.1333,5846452.5506],[32389559.623,5846492.5344],[32389585.863,5846525.0211],[32389611.3532,5846549.511],[32389685.0748,5846608.4865],[32389711.3148,5846642.4726],[32389730.3076,5846663.9638],[32389813.9903,5846754.8872],[32389866.0057,5846811.4032],[32389909.2391,5846852.8861],[32389972.7147,5846908.8629],[32390066.4286,5846987.8302],[32390080.4231,5846994.8272],[32390096.1669,5846999.3252],[32390104.7697,5846999.6026],[32390111.6608,5846999.8248],[32390124.9054,5846996.326],[32390135.4012,5846989.8285],[32390150.1451,5846974.3344],[32390223.6309,5847015.2126],[32390301.0863,5847058.2989],[32390319.8289,5847063.7964],[32390336.8334,5847063.7962],[32390489.209,5847269.3527],[32390327.0787,5847249.2226],[32390265.853,5847244.7252],[32390203.1279,5847242.2271],[32390173.1397,5847237.7293],[32390143.6514,5847230.2327],[32390109.6647,5847214.7393],[32390070.4299,5847190.7494],[32389991.4605,5847132.2738],[32389958.9729,5847100.287],[32389914.4962,5847040.7958],[32389881.2523,5846996.3294],[32389835.0162,5846946.0472],[32389712.8167,5846818.9024],[32389609.657,5846717.9945],[32389449.1679,5846561.0087],[32389360.7018,5846471.0457],[32389316.9686,5846432.0618],[32389311.3082,5846427.2474],[32389273.4853,5846395.0771],[32389240.9979,5846370.5873],[32389215.5079,5846357.5929],[32389187.0191,5846349.5964],[32389158.5303,5846345.5984],[32389111.2991,5846343.1001],[32389063.1242,5846338.546],[32389113.9676,5846291.4727],[32389113.9759,5846291.0654],[32389114.574,5846261.7237],[32389115.0467,5846238.5332],[32389107.8127,5846231.0041],[32389051.5769,5846172.4738],[32389046.8338,5846167.5371],[32388978.7283,5846106.4981],[32388924.0555,5846057.4981],[32388922.9829,5846056.3828],[32388919.1531,5846052.4004],[32388872.8201,5846058.8652],[32388614.2508,5846307.4981],[32388514.5437,5846403.2988],[32388514.5415,5846403.4063],[32388514.1637,5846421.893],[32388513.865,5846436.502],[32388525.3595,5846460.1938],[32388531.26,5846472.3557],[32388533.1863,5846476.3262],[32388548.5147,5846490.3148],[32388588.6431,5846526.9359],[32388698.4939,5846627.1856],[32388699.5882,5846627.2078],[32388723.2528,5846627.6889],[32388752.7713,5846628.2891],[32388784.0337,5846598.9062]]],"crs":{"type":"EPSG","properties":{"code":4647}}},"properties":{"FL_NR":511330,"BKF_SZ_1991_2020":4.2,"BKF_FJZ_1991_2020":4.2,"EIGNUNG":4,"BKF":4.246275}}]}