{"type": "FeatureCollection","features":[{"type":"Feature","geometry":{"type":"Polygon","coordinates":[[[32575205.415,5781691.107],[32574832.773,5781719.473],[32574818.315,5781713.283],[32574704.223,5781666.043],[32574701.554,5781659.825],[32574726.228,5781553.02],[32574749.322,5781451.318],[32574756.059,5781421.909],[32574761.856,5781396.62],[32574770.186,5781360.276],[32574895.654,5781352.827],[32574920.322,5781290.043],[32574826.969,5781110.712],[32574843.386,5781037.686],[32574846.495,5781024.384],[32574853.442,5780995.02],[32574859.398,5780969.844],[32574866.725,5780938.876],[32574868.82,5780930.02],[32574869.463,5780927.301],[32574987.655,5780933.973],[32574997.284,5780934.48],[32575015.323,5780935.572],[32575015.519,5780938.115],[32575016.246,5780946.869],[32575021.912,5780985.83],[32575023.607,5780997.495],[32575029.998,5781019.392],[32575036.926,5781037.964],[32575042.165,5781051.973],[32575158.111,5781303.666],[32575197.507,5781395.979],[32575210.13,5781421.024],[32575222.971,5781445.988],[32575241.428,5781485.914],[32575243.839,5781490.527],[32575245.776,5781498.258],[32575229.802,5781573.858],[32575224.732,5781599.226],[32575218.247,5781629.208],[32575205.415,5781691.107]]],"crs":{"type":"EPSG","properties":{"code":4647}}},"properties":{"FL_NR":3701990,"OGR_FID":649174,"SDE_ID":2127954,"OST":32574952.168,"NORD":5781707.954,"RECHTS":3575054.71,"HOCH":5783582.381,"TK25":3826,"BULAND":null,"KLASSENZEICHEN":"L2Lo","KLASSENZEICHEN_KLARTEXT":"Lehm/hohe bis sehr hohe Leistungsfähigkeit/Lössböden","KLASSENZEICHEN_SEP":"L;2;Lo","AREA":261795.65625,"UP_DATE":"2023-06-15T16:12:50.0000000","FL_PRONUM":868872,"XMIN":32574701,"XMAX":32575245,"YMIN":5780927,"YMAX":5781719,"BODENZ":90,"ACKERZ":"94"}}]}