{"type": "FeatureCollection","features":[{"type":"Feature","geometry":{"type":"Polygon","coordinates":[[[32577303.5602,5782625.4165],[32577207.8494,5782574.4252],[32577188.3575,5782565.4265],[32577164.3675,5782555.4276],[32577139.378,5782547.9278],[32577117.3874,5782544.9265],[32577098.6456,5782545.924],[32577080.4037,5782549.9202],[32577064.1609,5782555.9159],[32577050.1673,5782564.4109],[32577035.6249,5782576.7076],[32577012.9344,5782595.8941],[32577001.6896,5782602.89],[32576986.1964,5782608.3859],[32576935.9681,5782617.3763],[32576894.8769,5782620.633],[32576841.5078,5782624.8628],[32576789.0293,5782631.8554],[32576757.7919,5782641.3496],[32576744.7972,5782649.3459],[32576735.051,5782660.3416],[32576729.3033,5782670.8379],[32576726.5544,5782679.8348],[32576727.304,5782703.3274],[32576730.5527,5782720.3223],[32576742.5478,5782754.3126],[32576775.2845,5782824.2935],[32576790.0285,5782862.2831],[32576799.0247,5782895.274],[32576798.5247,5782919.7669],[32576791.0276,5782939.7606],[32576778.7822,5782956.2551],[32576738.0479,5782998.7399],[32576713.0577,5783028.7289],[32576703.0617,5783043.2235],[32576697.3142,5783058.2182],[32576694.3155,5783073.713],[32576668.5765,5783088.7055],[32576654.5823,5783094.6969],[32576616.4158,5783103.5561],[32576611.6,5783104.6739],[32576576.8646,5783084.1839],[32576569.8675,5783077.1855],[32576569.3668,5783059.5819],[32576568.6161,5783033.1888],[32576566.367,5783020.6971],[32576560.3694,5783011.7007],[32576550.3734,5783002.202],[32576531.131,5782987.7009],[32576519.6357,5782982.6986],[32576460.6612,5782968.7121],[32576442.9189,5782968.256],[32576434.9048,5782969.366],[32576424.1771,5782970.8518],[32576393.4409,5782978.0119],[32576371.3169,5782987.1765],[32576326.2205,5783005.857],[32576295.2335,5783013.2765],[32576246.5037,5783016.2457],[32576209.519,5783010.7282],[32576192.776,5783005.7223],[32576181.5307,5782999.7208],[32576129.0521,5782955.2303],[32576073.8246,5782913.7314],[32576043.8368,5782895.2052],[32576012.3492,5782879.1417],[32575972.1784,5782862.1642],[32575877.7146,5782822.2406],[32575788.4472,5782784.5133],[32575724.2169,5782762.8582],[32575683.7436,5782749.2127],[32575665.2482,5782742.2508],[32575654.0555,5782727.4981],[32575648.0509,5782660.012],[32575644.2508,5782617.3027],[32575639.9756,5782609.0061],[32575633.0594,5782595.584],[32575633.6069,5782568.7791],[32575634.3876,5782530.5549],[32575634.5047,5782524.8223],[32575674.2508,5782387.4981],[32575682.0996,5782359.6644],[32575695.5984,5782311.7949],[32575706.0296,5782258.392],[32575714.0555,5782217.3027],[32575736.2225,5782130.7894],[32575761.6727,5782031.4629],[32575767.3241,5782000.8169],[32575774.0555,5781964.3145],[32575637.3367,5781930.9942],[32575630.1154,5781901.359],[32575621.5359,5781866.1504],[32575572.9375,5781850.3841],[32575544.8367,5781841.2676],[32575540.4032,5781764.146],[32575539.1531,5781742.4004],[32575389.9318,5781747.8096],[32575385.0993,5781742.1066],[32575361.359,5781722.6039],[32575330.6217,5781706.5919],[32575322.3754,5781704.5911],[32575303.6345,5781704.5988],[32575291.6403,5781707.1471],[32575280.396,5781712.2636],[32575269.6517,5781719.4116],[32575249.6621,5781735.6164],[32575231.6713,5781753.5759],[32575211.4594,5781781.3729],[32575198.4364,5781799.2833],[32575186.6906,5781811.7708],[32575094.4735,5781882.1897],[32575068.9846,5781892.6704],[32575044.9957,5781907.6453],[32575035.7502,5781916.6317],[32575028.7537,5781926.6166],[32575020.5067,5781950.9143],[32575019.7569,5781962.3317],[32575021.5066,5781973.2859],[32575025.7553,5781984.7625],[32575033.7523,5781996.253],[32575045.2476,5782008.247],[32575062.3467,5782021.011],[32575030.9115,5782089.4483],[32574978.2937,5782204.002],[32574972.7465,5782209.3314],[32574952.9941,5782228.3084],[32574950.9305,5782230.291],[32574831.0873,5782203.3433],[32574809.4292,5782198.4733],[32574810.0181,5782192.5829],[32574810.0212,5782192.5514],[32574674.5801,5782022.915],[32574632.2586,5781872.7871],[32574647.4579,5781652.849],[32574614.5395,5781497.7505],[32574490.6385,5781320.6721],[32574529.1351,5781189.5973],[32574550.7104,5781157.6109],[32574577.2048,5781113.6423],[32574594.9471,5781078.2474],[32574606.1903,5781040.9482],[32574619.4777,5780978.8802],[32574633.674,5780912.5662],[32574670.6289,5780785.1285],[32574680.8747,5780755.1443],[32574693.12,5780734.1551],[32574712.3627,5780709.6676],[32574734.8543,5780686.1797],[32574744.1037,5780679.1138],[32574765.753,5780824.3015],[32574869.4631,5780927.301],[32574937.3287,5780906.8583],[32574971.8669,5780877.1469],[32574997.7877,5780854.8486],[32575119.3415,5780833.4681],[32575120.5994,5780834.3016],[32575220.1401,5780900.2561],[32575422.9786,5781011.4702],[32575549.399,5781002.9083],[32575685.7977,5781015.3919],[32575858.5668,5780942.3178],[32575858.8754,5780942.1873],[32575871.2025,5780885.9239],[32575879.9679,5780845.9167],[32575823.771,5780683.8701],[32575906.4616,5780501.5646],[32575959.5633,5780508.2694],[32576026.7875,5780513.2808],[32576065.273,5780513.29],[32576100.0102,5780508.3025],[32576120.0028,5780501.8125],[32576139.246,5780491.8251],[32576153.7409,5780479.8379],[32576168.4859,5780463.3542],[32576192.728,5780420.3921],[32576209.137,5780386.2518],[32576310.009,5780446.1902],[32576398.394,5780562.446],[32576322.8372,5780929.6062],[32576255.3521,5781086.0581],[32576110.113,5781250.499],[32575999.8281,5781536.469],[32576063.166,5781777.6472],[32576119.3171,5782044.782],[32576203.3806,5782294.2385],[32576399.9651,5782279.437],[32576624.6296,5781986.4582],[32576652.165,5781807.259],[32576759.3399,5781495.0064],[32576883.0061,5781351.8262],[32577096.9337,5781330.5549],[32577193.8631,5781569.6778],[32577179.8381,5781564.3329],[32577147.3507,5781546.3364],[32577119.1116,5781526.8418],[32577095.3708,5781507.8479],[32577076.1284,5781490.3543],[32577045.8901,5781462.8642],[32577031.3958,5781455.8653],[32577016.9013,5781452.8637],[32577004.1562,5781452.3613],[32576994.16,5781455.8569],[32576988.412,5781463.8508],[32576992.9103,5781481.8409],[32577007.0912,5781506.0301],[32577009.9036,5781510.8274],[32577033.8942,5781544.8126],[32577060.1339,5781578.2987],[32577090.8719,5781613.2851],[32577151.0061,5781677.1793],[32577210.8251,5781740.7387],[32577243.0624,5781781.723],[32577251.809,5781798.7158],[32577234.0665,5781851.6856],[32577227.5694,5781879.1711],[32577223.3217,5781907.6572],[32577220.8233,5781938.6427],[32577220.5741,5781970.1289],[32577223.0737,5782000.1165],[32577250.8163,5782139.065],[32577285.8091,5782357.9937],[32577293.8078,5782422.4742],[32577297.3078,5782471.9594],[32577303.3086,5782584.9274],[32577303.5602,5782625.4165]],[[32576950.1938,5782114.0573],[32576922.9568,5782114.0571],[32576899.2175,5782117.0561],[32576878.9758,5782126.0531],[32576860.9823,5782142.5484],[32576846.4897,5782164.0435],[32576837.4956,5782188.5346],[32576835.4975,5782215.5242],[32576840.4964,5782243.0139],[32576850.493,5782268.5046],[32576863.9879,5782288.9978],[32576882.9803,5782305.4931],[32576907.97,5782319.49],[32576936.458,5782330.4886],[32576965.4456,5782337.4884],[32576990.6848,5782339.4896],[32577011.9255,5782334.9925],[32577031.1652,5782324.4952],[32577050.1582,5782307.9997],[32577066.1514,5782286.5065],[32577074.8961,5782262.5138],[32577077.6432,5782235.0224],[32577075.643,5782205.032],[32577064.8967,5782176.0411],[32577044.9044,5782152.548],[32577021.4138,5782134.5529],[32576999.4227,5782123.5558],[32576976.932,5782117.5569],[32576950.1938,5782114.0573]],[[32574903.5337,5780976.5193],[32574865.0492,5780975.5212],[32574838.0604,5780977.521],[32574811.0718,5780982.0192],[32574790.831,5780994.0128],[32574780.0866,5781014.5011],[32574775.8736,5781038.5003],[32574775.6123,5781061.4887],[32574779.3593,5781080.9453],[32574787.3551,5781097.9154],[32574798.5999,5781113.3995],[32574812.0941,5781127.3933],[32574826.0884,5781138.3969],[32574840.8329,5781144.9167],[32574857.5768,5781146.4457],[32574877.0764,5781142.9405],[32574900.0369,5781135.9364],[32574909.8657,5781131.1464],[32574929.7734,5781121.4444],[32574943.0175,5781111.9492],[32574954.2628,5781098.9557],[32574960.5101,5781081.4643],[32574962.0097,5781059.975],[32574959.261,5781036.9866],[32574953.0137,5781014.9979],[32574943.0179,5780998.0068],[32574929.5233,5780986.5132],[32574915.529,5780979.5173],[32574903.5337,5780976.5193]]],"crs":{"type":"EPSG","properties":{"code":4647}}},"properties":{"FL_NR":444450,"SWRKLASSE":4}}]}