{"type": "FeatureCollection","features":[{"type":"Feature","geometry":{"type":"Polygon","coordinates":[[[32573716.6028,5792207.4094],[32573758.3348,5792111.9468],[32573805.0648,5792018.9831],[32573854.5438,5791928.5184],[32573909.2707,5791839.5531],[32573968.7457,5791748.0886],[32574033.4686,5791661.6221],[32574103.9393,5791577.1547],[32574178.6584,5791498.185],[32574256.1265,5791426.7124],[32574339.5924,5791364.7358],[32574429.0559,5791308.257],[32574522.2681,5791258.7753],[32574572.7472,5791210.2939],[32574621.9769,5791158.3139],[32574665.4588,5791103.8349],[32574701.9433,5791043.8583],[32574716.1869,5790993.878],[32574718.4353,5790940.899],[32574708.9383,5790888.9199],[32574690.1951,5790840.9393],[32574647.4614,5790796.4576],[32574594.732,5790763.9713],[32574534.7555,5790740.4815],[32574475.0291,5790724.9886],[32574599.4784,5790650.0166],[32574718.1799,5790566.0483],[32574830.8837,5790473.5835],[32574934.5909,5790372.1224],[32575018.3061,5790274.66],[32575089.0264,5790166.2021],[32575146.7517,5790049.7476],[32575191.4821,5789928.7951],[32575223.4673,5789784.852],[32575237.7094,5789637.9103],[32575235.7081,5789489.9692],[32575220.7119,5789343.5278],[32575180.9749,5789146.107],[32575122.2455,5788952.6848],[32575050.5213,5788764.2609],[32574970.8003,5788579.3357],[32575099.2504,5788664.3],[32575240.6951,5788732.2709],[32575390.6359,5788771.753],[32575541.5758,5788773.75],[32575690.7658,5788732.7641],[32575830.4591,5788658.7915],[32575956.1576,5788560.8287],[32576064.8626,5788446.3727],[32576185.0623,5788275.439],[32576285.5195,5788091.011],[32576368.7336,5787897.087],[32576437.2034,5787698.665],[32576487.4308,5787520.7351],[32576527.6622,5787340.3064],[32576556.8979,5787158.3784],[32576569.1403,5786975.4511],[32576557.6419,5786770.0331],[32576523.9024,5786567.6142],[32576473.1697,5786368.1943],[32576408.4427,5786173.2729],[32576369.4565,5786058.3192],[32576328.2213,5785944.865],[32576275.7406,5785836.409],[32576208.516,5785739.4486],[32576182.0252,5785645.4864],[32576158.783,5785550.0247],[32576141.5385,5785454.0632],[32576134.0401,5785358.1015],[32576081.5598,5785274.6355],[32576007.0884,5785204.6645],[32575921.3718,5785148.1882],[32575830.6572,5785102.2078],[32575756.1858,5785026.739],[32575681.7143,5784950.2705],[32575609.2421,5784873.802],[32575539.7686,5784794.8345],[32575429.8102,5784642.3968],[32575333.8461,5784480.4627],[32575246.8782,5784312.5308],[32575163.1591,5784144.5989],[32575046.7023,5783922.689],[32574932.9944,5783699.7794],[32574820.5359,5783475.8703],[32574711.0762,5783251.9611],[32574594.37,5783066.0369],[32574459.4213,5782891.6083],[32574311.7277,5782727.6758],[32574155.5377,5782574.2392],[32574016.3413,5782446.2922],[32573872.1469,5782324.8427],[32573719.9559,5782212.8895],[32573561.5176,5782113.4314],[32573422.072,5782036.4641],[32573277.6285,5781968.4933],[32573129.9365,5781911.0183],[32572978.2463,5781868.0376],[32572897.5278,5781819.5581],[32572817.8087,5781767.58],[32572746.0864,5781708.1047],[32572687.6087,5781637.6336],[32572617.6363,5781620.1416],[32572544.6654,5781618.6432],[32572473.6938,5781633.1385],[32572407.4706,5781660.6285],[32572331.752,5781742.0971],[32572283.0229,5781848.0556],[32572251.2872,5781963.51],[32572227.5484,5782079.4641],[32572231.7983,5782189.9201],[32572259.039,5782298.8763],[32572305.2721,5782403.334],[32572364.7498,5782499.7947],[32572442.97,5782590.7573],[32572535.6842,5782669.2247],[32572636.1452,5782738.1958],[32572743.8531,5782794.6717],[32572803.3306,5782876.6382],[32572857.5603,5782963.103],[32572901.0443,5783055.0657],[32572932.2833,5783151.5268],[32572938.7818,5783225.4972],[32572933.2851,5783302.4666],[32572912.7943,5783376.4375],[32572879.3086,5783443.4113],[32572828.0795,5783474.8994],[32572766.1043,5783485.3962],[32572700.1305,5783481.8985],[32572638.155,5783467.4052],[32572556.437,5783426.9225],[32572480.7164,5783374.4445],[32572411.2432,5783313.9696],[32572347.5176,5783249.4962],[32572277.7947,5783200.5167],[32572208.0717,5783152.037],[32572138.5987,5783103.5573],[32572068.8758,5783057.0769],[32572013.8976,5783048.581],[32571955.6712,5783077.0705],[32571903.1928,5783128.051],[32571864.9588,5783182.5298],[32571817.4784,5783227.5126],[32571771.2475,5783273.9947],[32571726.0162,5783321.4765],[32571685.5331,5783372.4567],[32571635.3033,5783389.9505],[32571578.326,5783387.4523],[32571521.5983,5783369.9601],[32571469.6187,5783345.9704],[32571393.1483,5783285.9954],[32571327.6733,5783213.5252],[32571270.195,5783133.0581],[32571217.7147,5783051.5913],[32571178.9793,5782995.6141],[32571142.493,5782940.1368],[32571107.756,5782881.6606],[32571079.2665,5782822.6845],[32571005.5452,5782776.7039],[32570914.5812,5782763.2105],[32570817.3701,5782769.7093],[32570723.4077,5782781.7059],[32570630.1951,5782805.1979],[32570541.9808,5782841.6846],[32570457.5151,5782889.1669],[32570379.0472,5782944.1461],[32570304.0771,5782950.6446],[32570229.1069,5782947.1471],[32570155.1362,5782932.6539],[32570087.4128,5782905.1658],[32570003.6952,5782843.6915],[32569934.2217,5782764.724],[32569874.7441,5782676.2601],[32569822.5136,5782584.7972],[32569731.7989,5782526.3218],[32569635.0867,5782479.3419],[32569533.3767,5782443.8575],[32569429.4177,5782417.8694],[32569336.704,5782373.3884],[32569243.9903,5782328.4076],[32569152.2761,5782283.9267],[32569061.5616,5782236.9467],[32568981.0926,5782168.4751],[32568922.6146,5782077.0124],[32568880.3799,5781972.5546],[32568848.1412,5781867.0971],[32568804.9066,5781741.6476],[32568767.9194,5781615.6983],[32568736.68,5781487.25],[32568711.6881,5781357.8019],[32568667.7033,5781204.3636],[32568624.7182,5781051.925],[32568580.7335,5780899.4863],[32568536.7488,5780747.0477],[32568510.7569,5780594.1089],[32568510.7546,5780436.6717],[32568527.9955,5780278.7343],[32568553.9828,5780123.7957],[32568532.7396,5780006.8426],[32568502.4999,5779891.389],[32568460.2652,5779780.9336],[32568404.036,5779678.4752],[32568386.7913,5779567.5196],[32568373.5449,5779456.0642],[32568366.2962,5779344.1089],[32568368.0439,5779233.1531],[32568382.7863,5779117.6989],[32568411.5232,5779005.2433],[32568450.2562,5778894.2869],[32568497.9856,5778788.8283],[32568543.7163,5778714.8571],[32568600.1929,5778648.3828],[32568666.4157,5778591.9043],[32568740.8854,5778549.4202],[32568803.1098,5778494.4412],[32568866.5838,5778439.962],[32568931.0573,5778386.4824],[32568996.2806,5778335.002],[32569570.7971,5778008.1241],[32569505.0747,5778109.5846],[32569450.3481,5778219.5416],[32569415.3637,5778333.9965],[32569414.6157,5778450.9499],[32569436.8587,5778575.4],[32569462.8501,5778699.8501],[32569489.0915,5778822.8007],[32569513.3336,5778948.2504],[32569535.3268,5779081.6969],[32569557.5699,5779214.6437],[32569578.5635,5779348.0902],[32569599.5571,5779482.0365],[32569604.0566,5779572.5004],[32569597.3106,5779663.4643],[32569577.8197,5779753.4287],[32569546.0836,5779837.8955],[32569544.835,5779901.3702],[32569544.3361,5779965.3448],[32569547.8357,5780029.3192],[32569557.3328,5780092.294],[32569590.0709,5780167.7635],[32569641.5514,5780234.2363],[32569705.0269,5780293.7117],[32569771.7512,5780348.189],[32569853.4694,5780401.6666],[32569941.1851,5780447.647],[32570032.8992,5780484.1311],[32570126.6123,5780515.1175],[32570179.5914,5780532.1099],[32570232.5706,5780549.6022],[32570286.2994,5780563.0961],[32570342.2772,5780567.5935],[32570406.5016,5780567.0928],[32570470.476,5780559.5949],[32570533.7006,5780547.0989],[32570596.6753,5780531.6042],[32570640.9072,5780497.6171],[32570671.3943,5780447.1368],[32570689.6362,5780387.1604],[32570700.1312,5780328.1838],[32570775.3529,5780443.6367],[32570858.5714,5780554.5913],[32570950.0364,5780658.0488],[32571053.2467,5780750.0107],[32571145.9607,5780817.4825],[32571245.422,5780879.4564],[32571349.1315,5780931.4342],[32571458.8383,5780968.9177],[32571531.8095,5780984.9103],[32571606.7798,5780993.4058],[32571680.7503,5780989.9061],[32571750.972,5780970.4129],[32571843.4345,5780919.9317],[32571925.9006,5780852.4574],[32572001.3695,5780774.9872],[32572070.0909,5780692.5191],[32572149.0572,5780541.0783],[32572201.284,5780376.1433],[32572236.2676,5780204.2113],[32572264.5039,5780033.279],[32572297.9874,5779814.3658],[32572324.4736,5779595.4526],[32572344.9623,5779376.5396],[32572358.4537,5779156.627],[32572400.934,5778964.7029],[32572454.1601,5778775.2776],[32572517.3822,5778589.3508],[32572592.5996,5778407.922],[32572655.5728,5778285.4699],[32572732.2905,5778169.515],[32572822.0033,5778065.5552],[32572925.7107,5777978.0886],[32573021.1719,5777925.6081],[32573126.3796,5777894.619],[32573236.5855,5777882.1224],[32573345.5423,5777892.1169],[32573431.2585,5777912.6075],[32573516.2251,5777944.5935],[32573593.9448,5777989.0747],[32573661.4188,5778046.5508],[32573656.9218,5778134.5158],[32573658.1726,5778223.4803],[32573662.6721,5778312.9446],[32573672.9193,5778401.909],[32573683.6659,5778461.885],[32573702.1594,5778522.3606],[32573726.9004,5778579.3375],[32573760.3878,5778631.8161],[32573806.1203,5778677.2974],[32573861.8486,5778713.2822],[32573923.8243,5778739.7708],[32573987.5492,5778760.2617],[32574071.7657,5778756.2621],[32574153.9825,5778726.7727],[32574232.2007,5778683.2889],[32574306.6704,5778634.8072],[32574273.9346,5778716.775],[32574256.4429,5778808.7385],[32574263.6912,5778894.7042],[32574304.426,5778965.1755],[32574388.8934,5779032.6474],[32574479.6081,5779094.1216],[32574572.0722,5779154.0964],[32574658.5387,5779221.5683],[32574758.0004,5779308.5322],[32574856.4625,5779397.4953],[32574953.925,5779486.9582],[32575050.3879,5779579.9198],[32575120.6113,5779673.3815],[32575173.8416,5779780.8379],[32575212.0781,5779896.2914],[32575238.3193,5780013.7442],[32575269.8083,5780116.7027],[32575300.0478,5780221.1606],[32575327.2884,5780326.6182],[32575350.5307,5780433.5752],[32575387.0173,5780512.0434],[32575433.4999,5780585.5135],[32575488.9788,5780653.9854],[32575551.7047,5780714.4604],[32575641.4197,5780769.937],[32575743.1298,5780806.9207],[32575849.8376,5780829.91],[32575957.7948,5780844.4027],[32576060.0042,5780847.4],[32576163.9627,5780839.9015],[32576266.1717,5780823.9064],[32576365.3818,5780796.4159],[32576467.3413,5780802.4121],[32576569.3008,5780811.9068],[32576670.2608,5780826.8994],[32576770.9711,5780849.389],[32576845.9415,5780869.3799],[32576919.9124,5780891.8699],[32576992.6338,5780919.3579],[32577062.3565,5780952.8435],[32577106.3392,5780970.3359],[32577151.0717,5780988.3281],[32577196.0541,5781007.8197],[32577240.0369,5781030.3101],[32577283.7696,5781037.8064],[32577329.0015,5781033.8074],[32577373.9834,5781022.3113],[32577418.2156,5781006.317],[32577455.4502,5780970.8307],[32577481.6891,5780923.849],[32577497.1821,5780869.8703],[32577508.4269,5780815.8917],[32577565.9051,5780894.3595],[32577616.3862,5780977.8255],[32577657.871,5781067.2893],[32577684.1119,5781160.7516],[32577696.6082,5781247.7168],[32577704.8562,5781337.6808],[32577696.3608,5781421.6474],[32577656.8775,5781490.6205],[32577611.6461,5781531.105],[32577567.4143,5781573.0889],[32577521.933,5781613.5734],[32577477.7012,5781655.5573],[32577429.4709,5781686.0459],[32577385.239,5781720.5328],[32577345.0056,5781761.517],[32577311.5196,5781806.4996],[32577285.2809,5781863.977],[32577256.7931,5781920.9547],[32577226.5559,5781977.9325],[32577196.0689,5782034.4104],[32577176.8273,5782084.3907],[32577148.3393,5782133.3716],[32577112.1043,5782172.8564],[32577067.8723,5782198.8467],[32577006.8965,5782193.3498],[32576946.9204,5782194.85],[32576885.9448,5782201.3483],[32576826.7185,5782209.8458],[32576750.7489,5782216.3443],[32576672.5302,5782229.8401],[32576607.3066,5782257.3301],[32576572.0714,5782310.3095],[32576574.5712,5782363.2883],[32576575.3216,5782417.2668],[32576572.8234,5782471.2453],[32576570.5751,5782526.2234],[32576576.3235,5782575.2038],[32576566.8281,5782626.1836],[32576546.5868,5782674.1648],[32576518.0988,5782717.1481],[32576438.8808,5782748.6367],[32576361.6621,5782784.6234],[32576292.4403,5782831.6057],[32576237.9629,5782893.082],[32576214.7229,5782943.0624],[32576198.2302,5782996.5413],[32576188.7348,5783052.5192],[32576185.4869,5783108.9967],[32576187.9869,5783174.9704],[32576198.4836,5783239.9443],[32576218.2267,5783303.9185],[32576247.7158,5783363.3944],[32576288.4504,5783420.8709],[32576336.932,5783482.3457],[32576387.6624,5783522.329],[32576437.6424,5783516.8304],[32576467.8799,5783487.3418],[32576500.1167,5783459.3525],[32576532.3534,5783431.3631],[32576565.5898,5783403.8736],[32576606.8227,5783357.8913],[32576653.0537,5783318.4064],[32576703.2832,5783282.9198],[32576756.5116,5783251.9314],[32576827.7329,5783232.4381],[32576898.9542,5783207.9469],[32576968.1762,5783180.4568],[32577037.3982,5783151.9672],[32577120.6147,5783127.9755],[32577201.8319,5783092.4885],[32577270.054,5783043.0072],[32577317.5341,5782976.0332],[32577353.2685,5782884.0694],[32577389.003,5782791.6057],[32577423.4879,5782699.6419],[32577459.2224,5782607.678],[32577467.9674,5782506.7181],[32577488.4578,5782406.7577],[32577527.1911,5782315.2936],[32577588.6655,5782240.8224],[32577668.1331,5782186.343],[32577752.5987,5782136.8615],[32577840.8131,5782101.3743],[32577932.7763,5782089.8776],[32578014.7437,5782097.8732],[32578096.7112,5782105.369],[32578179.6782,5782110.8656],[32578262.6453,5782117.3618],[32578363.6054,5782143.35],[32578469.5634,5782152.3449],[32578576.5207,5782146.8455],[32578682.7282,5782132.8495],[32578813.9254,5782097.8616],[32578942.3736,5782047.3798],[32579061.825,5781979.4052],[32579166.5321,5781893.9377],[32579249.2476,5781787.479],[32579324.9658,5781674.0231],[32579378.9425,5781552.5708],[32579398.6829,5781425.6211],[32579378.4395,5781326.161],[32579345.2013,5781229.2002],[32579293.7206,5781143.735],[32579221.9983,5781081.261],[32579123.2869,5781037.28],[32579022.5765,5780998.297],[32578920.8665,5780965.8114],[32578816.9075,5780938.8237],[32578744.9364,5780952.3193],[32578670.716,5780956.8186],[32578596.7454,5780951.3219],[32578524.7739,5780936.8287],[32578450.0532,5780907.3415],[32578380.3304,5780868.8579],[32578317.6046,5780817.8791],[32578271.1223,5780757.9037],[32578243.6322,5780684.4334],[32578223.1392,5780606.4648],[32578220.6391,5780529.9953],[32578248.1272,5780465.5206],[32578296.3573,5780417.5391],[32578349.5855,5780375.0552],[32578405.0629,5780335.5702],[32578464.2888,5780301.0831],[32578522.2653,5780277.0918],[32578584.4903,5780262.5967],[32578647.715,5780248.1015],[32578706.6912,5780226.6092],[32578779.1616,5780181.1263],[32578847.3837,5780128.6463],[32578912.8568,5780071.1682],[32578974.3315,5780011.6911],[32579014.0622,5779770.7865],[32579060.2954,5779885.2402],[32579107.5283,5779999.6939],[32579154.7611,5780113.6478],[32579201.9939,5780229.1011],[32579233.2326,5780308.5689],[32579263.7217,5780388.0368],[32579295.2102,5780467.0048],[32579327.6985,5780547.4723],[32579371.4319,5780605.9483],[32579437.1563,5780646.4312],[32579514.8757,5780672.9195],[32579592.8449,5780689.4118],[32579704.8004,5780694.4082],[32579817.0056,5780683.411],[32579928.2109,5780658.9192],[32580038.4166,5780628.9296],[32580156.6191,5780598.44],[32580274.8215,5780566.4511],[32580393.024,5780531.4634],[32580509.477,5780492.4773],[32580681.4084,5780484.478],[32580854.34,5780514.9634],[32581026.0224,5780564.941],[32581194.706,5780623.4153],[32581430.1134,5780704.3796],[32581662.5222,5780794.8402],[32581892.9318,5780892.7978],[32582120.3428,5780997.7527],[32582373.4937,5781118.7009],[32582624.8954,5781245.6466],[32582874.048,5781376.5908],[32583120.9517,5781512.5331],[32583388.0974,5781657.4714],[32583654.2435,5781804.409],[32583920.1397,5781952.846],[32584185.2863,5782103.782],[32584375.4622,5782216.2344],[32584563.8888,5782332.6852],[32584749.0668,5782453.1345],[32584932.2456,5782578.5818],[32585097.681,5782667.0442],[32585267.1147,5782748.0094],[32585439.797,5782822.4772],[32585616.2277,5782888.9482],[32585753.9236,5782940.9254],[32585892.6191,5782991.9031],[32586032.3141,5783038.8823],[32586174.0083,5783082.363],[32586287.7138,5783139.8384],[32586395.172,5783209.8089],[32586496.6328,5783289.7756],[32586592.096,5783377.7391],[32586683.8105,5783447.21],[32586776.2747,5783517.1808],[32586867.7392,5783586.6518],[32586958.4542,5783659.6213],[32587034.9244,5783709.1005],[32587116.6425,5783753.5816],[32587201.3593,5783793.0646],[32587288.3252,5783827.0498],[32587374.0414,5783851.5388],[32587463.0062,5783868.5307],[32587524.2321,5783891.5206],[32587380.2904,5783955.997],[32587245.0946,5783978.9898],[32587109.1489,5783990.987],[32586961.9576,5783991.489],[32586816.0157,5783988.4923],[32586670.0736,5783978.4984],[32586525.1311,5783962.5069],[32586396.1822,5783944.5159],[32586268.4828,5783923.5261],[32586141.533,5783899.5375],[32586016.5823,5783869.5513],[32585914.6228,5783863.5552],[32585811.6639,5783865.0561],[32585710.4543,5783874.0539],[32585610.4944,5783892.548],[32585525.5281,5783884.0526],[32585442.5609,5783870.0594],[32585359.5937,5783851.568],[32585279.8751,5783827.0789],[32585188.9109,5783796.0926],[32585099.1961,5783761.6076],[32585011.4805,5783725.1234],[32584925.7641,5783685.1406],[32584808.8105,5783670.1483],[32584689.6081,5783682.645],[32584570.406,5783710.6356],[32584455.2024,5783745.6233],[32584342.9971,5783746.1247],[32584232.0413,5783745.1267],[32584120.0858,5783740.1303],[32584010.1294,5783730.6357],[32583925.163,5783711.6445],[32583843.4452,5783684.1567],[32583764.726,5783646.6727],[32583693.0039,5783601.1919],[32583630.2783,5783562.7082],[32583567.5527,5783523.2248],[32583508.8255,5783480.7426],[32583453.097,5783434.2619],[32583406.1154,5783409.7724],[32583359.3837,5783387.282],[32583311.4025,5783368.7901],[32583262.4219,5783356.7956],[32583205.195,5783383.2858],[32583184.2038,5783413.2742],[32583172.9588,5783445.2616],[32583147.4695,5783487.745],[32583124.2294,5783531.7278],[32583101.9889,5783576.7102],[32583082.7472,5783622.6921],[32583056.2583,5783659.178],[32583029.0197,5783695.164],[32582998.7822,5783729.1509],[32582967.5451,5783761.6384],[32582932.5593,5783775.6333],[32582893.5748,5783775.1341],[32582852.5909,5783763.6392],[32582815.6054,5783747.6461],[32582742.8838,5783705.1641],[32582675.4099,5783654.6852],[32582611.6845,5783599.2083],[32582549.9583,5783542.2319],[32582462.492,5783463.7644],[32582376.0253,5783384.2974],[32582291.5578,5783304.3305],[32582208.0898,5783222.8641],[32582123.6227,5783168.8869],[32582028.66,5783134.402],[32581927.9498,5783113.4118],[32581827.7396,5783105.9162],[32581739.7748,5783112.9147],[32581653.5594,5783135.407],[32581571.3427,5783170.894],[32581497.1229,5783218.3761],[32581426.6518,5783271.8558],[32581362.1783,5783331.333],[32581303.7026,5783398.3072],[32581254.2233,5783470.779],[32581165.0095,5783517.2617],[32581069.548,5783552.2491],[32580971.3375,5783578.74],[32580872.3772,5783596.2344],[32580756.1735,5783600.2345],[32580641.2192,5783590.2401],[32580526.2647,5783570.2497],[32580414.5588,5783542.7623],[32580293.6067,5783525.7708],[32580172.6546,5783509.7789],[32580051.7026,5783492.7874],[32579931.7501,5783475.7959],[32579802.8014,5783472.7989],[32579674.6027,5783490.7936],[32579547.4038,5783523.2825],[32579423.2039,5783561.2692],[32579314.2473,5783561.2708],[32579205.0407,5783555.7745],[32579097.3334,5783541.7817],[32578991.3753,5783519.792],[32578919.4037,5783503.2996],[32578847.4321,5783483.8085],[32578778.7091,5783460.3188],[32578712.9849,5783429.832],[32578640.0138,5783420.3368],[32578567.0428,5783417.8389],[32578492.8224,5783419.3394],[32578420.8512,5783427.837],[32578330.6376,5783458.826],[32578248.1712,5783510.3067],[32578171.7025,5783573.7825],[32578101.2316,5783642.2562],[32578029.7612,5783719.7264],[32577966.0378,5783803.6938],[32577908.5619,5783891.1598],[32577857.8335,5783983.6238],[32577825.3478,5784074.588],[32577806.6066,5784169.5505],[32577799.8607,5784267.5115],[32577805.3599,5784364.4728],[32577840.8467,5784429.9462],[32577903.5725,5784478.426],[32577979.2928,5784512.9112],[32578058.2616,5784531.9025],[32578144.2273,5784527.403],[32578229.4431,5784506.9099],[32578311.6598,5784473.422],[32578388.8785,5784431.9374],[32578446.355,5784392.4523],[32578501.5824,5784347.9692],[32578551.8116,5784297.9884],[32578593.2943,5784242.5099],[32578659.5175,5784214.0203],[32578728.7397,5784194.527],[32578800.7108,5784183.0305],[32578873.6817,5784180.5305],[32578963.6462,5784201.021],[32579048.3631,5784244.0026],[32579128.0821,5784299.4794],[32579202.5534,5784360.9538],[32579329.2539,5784430.9241],[32579455.7046,5784501.8939],[32579582.1552,5784572.8638],[32579708.8558,5784643.8337],[32579811.316,5784714.804],[32579903.7805,5784801.768],[32579986.2491,5784899.228],[32580062.4702,5785001.6861],[32580108.9527,5785072.1574],[32580150.4373,5785147.6267],[32580181.9259,5785226.095],[32580200.4197,5785308.0621],[32580207.9177,5785371.0369],[32580209.418,5785436.5108],[32580203.1714,5785500.4854],[32580186.6789,5785562.461],[32580163.4388,5785608.9428],[32580134.9508,5785653.9253],[32580098.7158,5785693.4101],[32580058.4823,5785726.3975],[32580019.4981,5785742.8915],[32579977.2651,5785753.8877],[32579934.2822,5785755.3878],[32579893.2985,5785750.3903],[32579813.5797,5785712.4066],[32579742.857,5785658.9289],[32579677.3822,5785596.4547],[32579614.6563,5785532.9809],[32579522.192,5785459.0117],[32579430.7274,5785385.5424],[32579339.2627,5785311.5732],[32579248.5478,5785238.1037],[32579181.8237,5785192.6228],[32579110.1017,5785155.1388],[32579034.3815,5785127.1511],[32578956.4123,5785108.6596],[32578894.4369,5785102.1631],[32578831.462,5785106.6622],[32578771.2362,5785120.1577],[32578715.2589,5785146.1482],[32578679.7739,5785204.6254],[32578676.2764,5785280.5952],[32578691.7714,5785361.0629],[32578713.2639,5785438.032],[32578763.4953,5785530.4944],[32578830.9696,5785612.9606],[32578908.4398,5785687.9296],[32578991.1579,5785757.4007],[32579080.3736,5785842.3655],[32579170.8388,5785926.8306],[32579263.3031,5786009.7962],[32579357.7667,5786090.2627],[32579447.2325,5786193.2204],[32579528.4518,5786302.6756],[32579602.6739,5786418.6284],[32579672.8977,5786537.0802],[32579733.1255,5786663.5289],[32579780.1088,5786796.9751],[32579818.0956,5786933.4202],[32579847.336,5787072.8643],[32579884.8223,5787154.8311],[32579924.0579,5787238.2973],[32579969.5409,5787317.765],[32580023.0207,5787391.235],[32580064.7547,5787433.7174],[32580113.7357,5787469.2026],[32580167.4647,5787494.1919],[32580225.4418,5787506.6861],[32580287.1675,5787524.1782],[32580351.1423,5787539.6711],[32580415.117,5787551.1656],[32580480.0912,5787559.6613],[32580433.8603,5787606.6433],[32580397.3756,5787662.1217],[32580369.8875,5787723.0978],[32580351.3958,5787787.0726],[32580337.9024,5787875.0378],[32580336.1544,5787965.002],[32580344.6523,5788053.9664],[32580362.1467,5788143.4305],[32580391.3865,5788246.3891],[32580432.6216,5788346.8485],[32580482.1033,5788444.309],[32580537.3327,5788538.7705],[32580425.876,5788461.8028],[32580308.4217,5788393.8316],[32580184.7202,5788339.8548],[32580055.771,5788306.8698],[32579946.8143,5788299.3744],[32579837.8577,5788303.3743],[32579731.6503,5788323.8677],[32579636.4388,5788367.8515],[32579562.969,5788428.3285],[32579498.4957,5788499.3012],[32579441.7694,5788575.7716],[32579393.2899,5788658.2394],[32579339.5628,5788762.1988],[32579299.8302,5788871.6558],[32579273.0926,5788986.6104],[32579263.3481,5789102.5644],[32579276.0953,5789255.0035],[32579286.0935,5789406.9428],[32579294.0926,5789560.3816],[32579297.0936,5789713.3206],[32579297.5946,5789799.2864],[32579292.8478,5789886.2518],[32579280.354,5789972.2178],[32579257.6143,5790056.1847],[32579233.3747,5790108.1643],[32579198.1394,5790155.1461],[32579153.6577,5790193.6315],[32579103.678,5790220.1216],[32579034.705,5790189.6348],[32578959.7346,5790172.1429],[32578884.7645,5790168.6454],[32578811.7937,5790180.1419],[32578730.5765,5790213.6297],[32578652.1084,5790258.1132],[32578583.8864,5790313.5921],[32578531.4083,5790382.0656],[32578522.663,5790466.0323],[32578501.1728,5790548.9996],[32578471.6857,5790630.9673],[32578439.9495,5790711.4358],[32578377.2264,5790841.3849],[32578301.2585,5790965.8365],[32578224.291,5791090.2881],[32578157.5694,5791218.7379],[32578083.1018,5791408.6634],[32578025.8775,5791604.0864],[32577978.3993,5791804.0075],[32577937.1687,5792004.928],[32577774.7338,5792037.4175],[32577608.5503,5792053.4136],[32577441.6168,5792056.9147],[32577275.6828,5792051.9191],[32577057.019,5791988.4476],[32576835.3565,5791935.4719],[32576611.4452,5791901.9886],[32576386.5347,5791893.9951],[32576191.3627,5791909.4918],[32575997.1904,5791932.4855],[32575803.7678,5791959.9773],[32575611.5948,5791990.468],[32575377.1888,5792035.9534],[32575145.7819,5792093.9337],[32574914.3749,5792152.4138],[32574681.9682,5792200.8979],[32574441.5643,5792227.8906],[32574199.6608,5792234.8914],[32573957.5071,5792226.3983],[32573716.6028,5792207.4094]],[[32581108.2475,5781111.222],[32581027.2799,5781121.7189],[32580950.0609,5781142.7117],[32580884.8372,5781164.7038],[32580821.6128,5781192.1938],[32580761.3873,5781226.6809],[32580708.1591,5781268.1651],[32580669.9247,5781296.1545],[32580631.6904,5781325.6433],[32580597.4544,5781357.631],[32580567.217,5781394.1169],[32580545.9761,5781434.1013],[32580532.732,5781479.0835],[32580527.2348,5781525.0652],[32580527.9852,5781572.0465],[32580555.725,5781630.5228],[32580606.2056,5781677.5033],[32580668.1815,5781716.9867],[32580730.907,5781751.9719],[32580830.6178,5781785.4571],[32580934.5766,5781805.4476],[32581042.5338,5781813.9427],[32581149.4912,5781817.9396],[32581235.4572,5781835.4314],[32581321.1734,5781854.4226],[32581406.1398,5781873.9136],[32581492.1059,5781896.4034],[32581595.8151,5781930.3883],[32581697.5252,5781970.8707],[32581798.2357,5782016.8509],[32581897.9467,5782064.8304],[32581984.9124,5782085.321],[32582073.8771,5782096.8151],[32582163.8413,5782098.813],[32582253.8054,5782092.3143],[32582339.0214,5782088.8145],[32582424.9871,5782084.8149],[32582510.9527,5782078.3162],[32582597.1683,5782068.8188],[32582663.1422,5782084.3116],[32582724.8681,5782118.797],[32582778.5974,5782167.2769],[32582824.0801,5782222.7541],[32582878.5594,5782293.2252],[32582929.2903,5782368.6944],[32582973.5238,5782447.6623],[32583013.0093,5782529.1292],[32583063.4905,5782620.592],[32583114.9713,5782713.0544],[32583165.2026,5782805.5168],[32583214.6843,5782898.9788],[32583277.1604,5782967.4506],[32583362.8769,5783015.4303],[32583458.5893,5783045.9167],[32583556.5505,5783065.9073],[32583637.5186,5783089.3968],[32583719.2364,5783111.8867],[32583802.2036,5783130.3781],[32583886.1704,5783144.3713],[32583933.1518,5783152.3674],[32583981.1328,5783160.8633],[32584027.8643,5783168.3597],[32584076.8448,5783171.8576],[32584115.0796,5783171.857],[32584153.0645,5783170.3571],[32584191.0493,5783166.3581],[32584229.034,5783159.8602],[32584266.2687,5783123.874],[32584280.7622,5783070.8949],[32584272.015,5783022.9142],[32584254.2714,5782977.9324],[32584230.5302,5782933.4504],[32584205.7895,5782892.4671],[32584170.3029,5782844.9866],[32584130.5681,5782803.0039],[32584086.835,5782762.5207],[32584042.1023,5782726.0359],[32583963.3826,5782654.5655],[32583883.9132,5782583.595],[32583805.4434,5782513.1242],[32583725.7242,5782444.6527],[32583637.5082,5782362.6866],[32583546.7932,5782284.2192],[32583453.3293,5782208.2508],[32583358.8659,5782136.7807],[32583277.1476,5782079.8046],[32583193.4302,5782029.3259],[32583105.9644,5781983.3455],[32583016.9993,5781943.8626],[32582896.2967,5781899.8818],[32582772.5955,5781864.8976],[32582647.6448,5781836.9105],[32582521.9446,5781813.9215],[32582408.2391,5781761.444],[32582301.5307,5781697.4711],[32582200.07,5781623.502],[32582104.6069,5781544.0351],[32581993.9001,5781481.0618],[32581883.4432,5781419.0881],[32581772.7364,5781358.114],[32581661.2799,5781300.1387],[32581564.5678,5781253.6586],[32581466.8561,5781209.6776],[32581367.8949,5781169.1951],[32581268.1841,5781132.2113],[32581189.2153,5781114.7194],[32581108.2475,5781111.222]],[[32577854.372,5786532.6086],[32577765.4074,5786532.6099],[32577676.4429,5786538.109],[32577588.2282,5786549.6058],[32577504.0121,5786572.098],[32577424.7942,5786609.5843],[32577350.5745,5786658.066],[32577282.1025,5786713.545],[32577222.6273,5786786.017],[32577178.8959,5786870.484],[32577148.4094,5786961.4482],[32577127.669,5787055.4111],[32577105.1792,5787139.378],[32577086.4379,5787225.344],[32577070.9453,5787311.31],[32577062.45,5787398.2755],[32577024.7162,5787480.7432],[32576975.2371,5787559.7125],[32576918.7606,5787633.184],[32576857.2861,5787701.6577],[32576831.7973,5787771.6302],[32576813.3057,5787844.6014],[32576803.8106,5787918.5721],[32576804.3115,5787993.5422],[32576839.5486,5788076.0088],[32576904.2739,5788144.4806],[32576985.7422,5788200.9569],[32577069.4596,5788249.9362],[32577147.6784,5788247.4361],[32577223.8975,5788209.9499],[32577293.369,5788151.4721],[32577350.5952,5788085.9974],[32577390.3282,5788000.031],[32577416.0666,5787908.0673],[32577428.5602,5787813.1049],[32577429.3085,5787718.1427],[32577439.803,5787629.178],[32577451.5471,5787540.2132],[32577461.042,5787451.2485],[32577468.7876,5787362.2839],[32577502.2731,5787279.3164],[32577560.7488,5787208.8436],[32577634.2186,5787148.3666],[32577712.6866,5787096.886],[32577821.8924,5787050.4029],[32577939.0954,5787024.4115],[32578061.2965,5787012.4145],[32578182.2483,5787011.4131],[32578279.2099,5787023.9067],[32578375.172,5787049.895],[32578466.8861,5787088.3783],[32578550.3536,5787139.8566],[32578608.0813,5787191.3352],[32578659.8116,5787252.81],[32578699.2969,5787321.2821],[32578726.787,5787395.7521],[32578769.5207,5787444.7319],[32578812.0045,5787494.2116],[32578855.7378,5787541.692],[32578903.4694,5787588.1728],[32578971.4427,5787613.6617],[32579050.4111,5787603.1647],[32579132.6279,5787572.6756],[32579208.8471,5787538.1882],[32579249.3299,5787467.7157],[32579254.0767,5787378.2513],[32579236.5823,5787283.2894],[32579211.3411,5787194.825],[32579161.8596,5787110.8591],[32579099.3834,5787035.8899],[32579025.6618,5786969.4175],[32578946.1926,5786913.9407],[32578872.4711,5786855.4651],[32578797.7501,5786798.4889],[32578721.2797,5786745.0113],[32578642.5604,5786696.5318],[32578563.8412,5786659.0479],[32578481.8734,5786629.061],[32578397.1568,5786606.5712],[32578312.1905,5786592.0782],[32578220.2268,5786573.0871],[32578128.2633,5786559.5939],[32578036.2997,5786548.0998],[32577944.3362,5786539.1047],[32577854.372,5786532.6086]]],"crs":{"type":"EPSG","properties":{"code":4647}}},"properties":{"fl_nr":2158,"NRKART":47,"NRKARTTXT":"47","KLARTEXT":"Pseudogley-Schwarzerden aus Loesslehmen ueb.Geschiebelehmen (Verebnungen und flache Haenge); im Bereich flacher Erhebungen erod. Schwarzerde-Parabraunerden aus Loesslehmen ueb.glazifluviatilen Sanden; in Senken Gleye aus Loesslehmen ueb.Geschiebelehmen","BULAND":null}}]}