{"type": "FeatureCollection","features":[{"type":"Feature","geometry":{"type":"Polygon","coordinates":[[[32577303.5602,5782625.4165],[32577207.8494,5782574.4252],[32577188.3575,5782565.4265],[32577164.3675,5782555.4276],[32577139.378,5782547.9278],[32577117.3874,5782544.9265],[32577098.6456,5782545.924],[32577080.4037,5782549.9202],[32577064.1609,5782555.9159],[32577050.1673,5782564.4109],[32577035.6249,5782576.7076],[32577012.9344,5782595.8941],[32577001.6896,5782602.89],[32576986.1964,5782608.3859],[32576935.9681,5782617.3763],[32576894.8769,5782620.633],[32576841.5078,5782624.8628],[32576789.0293,5782631.8554],[32576757.7919,5782641.3496],[32576744.7972,5782649.3459],[32576735.051,5782660.3416],[32576729.3033,5782670.8379],[32576726.5544,5782679.8348],[32576727.304,5782703.3274],[32576730.5527,5782720.3223],[32576742.5478,5782754.3126],[32576775.2845,5782824.2935],[32576790.0285,5782862.2831],[32576799.0247,5782895.274],[32576798.5247,5782919.7669],[32576791.0276,5782939.7606],[32576778.7822,5782956.2551],[32576738.0479,5782998.7399],[32576713.0577,5783028.7289],[32576703.0617,5783043.2235],[32576697.3142,5783058.2182],[32576694.3155,5783073.713],[32576668.5765,5783088.7055],[32576654.5823,5783094.6969],[32576616.4158,5783103.5561],[32576611.6,5783104.6739],[32576576.8646,5783084.1839],[32576569.8675,5783077.1855],[32576569.3668,5783059.5819],[32576568.6161,5783033.1888],[32576566.367,5783020.6971],[32576560.3694,5783011.7007],[32576550.3734,5783002.202],[32576531.131,5782987.7009],[32576519.6357,5782982.6986],[32576460.6612,5782968.7121],[32576442.9189,5782968.256],[32576434.9048,5782969.366],[32576424.1771,5782970.8518],[32576393.4409,5782978.0119],[32576371.3169,5782987.1765],[32576326.2205,5783005.857],[32576295.2335,5783013.2765],[32576246.5037,5783016.2457],[32576209.519,5783010.7282],[32576192.776,5783005.7223],[32576181.5307,5782999.7208],[32576129.0521,5782955.2303],[32576073.8246,5782913.7314],[32576043.8368,5782895.2052],[32576012.3492,5782879.1417],[32575972.1784,5782862.1642],[32575877.7146,5782822.2406],[32575788.4472,5782784.5133],[32575724.2169,5782762.8582],[32575683.7436,5782749.2127],[32575646.258,5782735.1026],[32575620.2694,5782697.5152],[32575605.7755,5782679.4254],[32575593.2807,5782667.949],[32575579.0362,5782659.5703],[32575558.6579,5782650.5997],[32575510.8113,5782629.5375],[32575487.0712,5782616.0216],[32575464.0811,5782598.9588],[32575425.0139,5782562.3652],[32575401.6072,5782540.4406],[32575377.6179,5782521.3507],[32575352.6295,5782504.1734],[32575327.8914,5782490.4845],[32575306.9009,5782480.9661],[32575290.4085,5782476.9304],[32575276.4155,5782477.8667],[32575262.9224,5782484.7715],[32575251.178,5782495.1916],[32575243.4313,5782507.6831],[32575238.6828,5782520.175],[32575235.6828,5782548.7193],[32575237.9313,5782586.7925],[32575244.68,5782629.6225],[32575252.928,5782664.0946],[32575261.6748,5782680.5867],[32575294.1621,5782726.5665],[32575312.4047,5782747.5581],[32575336.3946,5782768.051],[32575371.16,5782791.8475],[32575411.6123,5782819.5366],[32575468.8384,5782868.02],[32575482.0846,5782916.4947],[32575491.0814,5782934.4862],[32575503.0768,5782953.4777],[32575518.5705,5782973.4693],[32575513.8233,5782984.9617],[32575500.5801,5783003.4482],[32575487.3365,5783016.5188],[32575466.596,5783031.0285],[32575453.352,5783039.0191],[32575413.1202,5783056.1046],[32575361.8927,5783071.3],[32575330.6565,5783074.3759],[32575291.6739,5783074.4133],[32575254.1909,5783072.3939],[32575226.4536,5783068.8532],[32575204.7133,5783060.3258],[32575182.9727,5783046.3112],[32575159.2329,5783028.302],[32575174.2237,5782984.958],[32575178.9705,5782958.9921],[32575181.4683,5782928.9825],[32575181.7173,5782894.9232],[32575179.2177,5782859.3309],[32575159.7238,5782757.1527],[32575151.4763,5782704.6905],[32575152.9743,5782659.6227],[32575160.2187,5782613.105],[32575176.958,5782562.1385],[32575194.4495,5782517.7615],[32575205.1964,5782497.1818],[32575244.6775,5782430.4535],[32575262.9147,5782403.5348],[32575321.8894,5782331.7465],[32575337.6287,5782309.6624],[32575367.3633,5782253.9434],[32575390.6019,5782203.0288],[32575397.3487,5782184.049],[32575411.3436,5782137.5934],[32575414.8427,5782120.6081],[32575416.843,5782089.133],[32575416.0938,5782071.1464],[32575413.8451,5782053.1594],[32575407.8479,5782033.6723],[32575398.8518,5782011.1864],[32575379.6097,5781971.7188],[32575412.843,5781911.5301],[32575427.0847,5781879.7502],[32575433.3305,5781858.5707],[32575433.3293,5781834.5411],[32575430.3299,5781820.5439],[32575423.8324,5781802.5554],[32575413.5868,5781781.5751],[32575400.3428,5781760.096],[32575385.0993,5781742.1066],[32575361.359,5781722.6039],[32575330.6217,5781706.5919],[32575322.3754,5781704.5911],[32575303.6345,5781704.5988],[32575291.6403,5781707.1471],[32575280.396,5781712.2636],[32575269.6517,5781719.4116],[32575249.6621,5781735.6164],[32575231.6713,5781753.5759],[32575211.4594,5781781.3729],[32575198.4364,5781799.2833],[32575186.6906,5781811.7708],[32575094.4735,5781882.1897],[32575068.9846,5781892.6704],[32575044.9957,5781907.6453],[32575035.7502,5781916.6317],[32575028.7537,5781926.6166],[32575020.5067,5781950.9143],[32575019.7569,5781962.3317],[32575021.5066,5781973.2859],[32575025.7553,5781984.7625],[32575033.7523,5781996.253],[32575045.2476,5782008.247],[32575078.7331,5782033.243],[32575101.7228,5782043.7752],[32575154.9511,5782061.4814],[32575176.9421,5782073.0277],[32575194.9345,5782087.5309],[32575211.9276,5782105.0176],[32575226.6714,5782124.4819],[32575238.6662,5782145.4109],[32575269.4034,5782208.1833],[32575248.9195,5782256.7843],[32575220.935,5782311.7581],[32575204.4382,5782338.1922],[32575167.2121,5782388.3134],[32575152.719,5782410.7214],[32575106.2376,5782498.6611],[32575088.2454,5782485.1653],[32575075.501,5782478.6665],[32575048.0138,5782473.6636],[32575034.7702,5782474.6601],[32575033.7426,5782452.4268],[32575033.0255,5782436.911],[32575031.5176,5782404.284],[32575022.5202,5782362.3674],[32575006.0281,5782315.7969],[32574996.0325,5782300.286],[32574983.5377,5782288.7937],[32574955.2988,5782272.8409],[32574939.8048,5782266.3734],[32574904.3195,5782257.4262],[32574887.0774,5782255.3661],[32574867.3368,5782255.2548],[32574843.8483,5782258.248],[32574802.6324,5782266.452],[32574789.8749,5782270.2287],[32574778.6305,5782276.3579],[32574769.8847,5782285.4343],[32574764.6375,5782298.4203],[32574761.889,5782330.8929],[32574764.1379,5782347.3801],[32574769.1359,5782362.3689],[32574779.8816,5782376.8594],[32574812.6178,5782403.8453],[32574843.3549,5782424.3361],[32574908.0778,5782462.3208],[32574894.3335,5782464.8156],[32574878.3404,5782470.3072],[32574863.0976,5782477.8081],[32574851.853,5782486.8495],[32574843.8568,5782499.9186],[32574836.8602,5782518.5169],[32574832.6125,5782538.6049],[32574831.8631,5782556.6585],[32574836.6115,5782573.1807],[32574846.8574,5782590.1857],[32574861.6013,5782605.678],[32574879.3437,5782618.1596],[32574900.5845,5782625.6195],[32574923.0747,5782628.5532],[32574947.5641,5782627.9547],[32574956.3706,5782662.6056],[32574960.8093,5782680.0705],[32574974.0545,5782722.1155],[32574973.805,5782733.6248],[32574970.3071,5782747.1266],[32574964.5602,5782759.1123],[32574957.5638,5782767.0878],[32574939.5726,5782775.5204],[32574927.3287,5782778.967],[32574894.8446,5782784.314],[32574806.8875,5782783.568],[32574754.914,5782776.4031],[32574683.6931,5782707.9268],[32574664.4515,5782685.9354],[32574657.4551,5782672.4421],[32574653.7071,5782660.9484],[32574651.2067,5782640.9901],[32574655.6959,5782555.337],[32574654.9446,5782531.4561],[32574650.9449,5782506.0673],[32574637.9484,5782461.7109],[32574628.9517,5782444.7433],[32574615.4571,5782426.7643],[32574598.2143,5782409.2738],[32574577.4735,5782394.7637],[32574556.233,5782383.2372],[32574536.2421,5782375.1941],[32574517.0012,5782370.6293],[32574497.0109,5782369.0369],[32574478.5202,5782370.4327],[32574465.027,5782373.3523],[32574454.0328,5782377.7887],[32574362.5774,5782336.6262],[32574323.8183,5782321.5635],[32574277.6081,5782303.6052],[32574292.1019,5782222.3225],[32574311.6212,5782162.2033],[32574328.5766,5782109.9808],[32574337.0713,5782070.4531],[32574340.5691,5782040.3484],[32574341.3181,5782016.7526],[32574338.319,5781996.6902],[32574330.5718,5781975.6539],[32574320.0758,5781955.1385],[32574308.5804,5781937.6378],[32574295.0859,5781921.144],[32574191.6302,5781829.2211],[32574118.912,5781786.3467],[32574037.6972,5781731.4937],[32574023.2034,5781719.0097],[32574004.4613,5781697.5099],[32573995.2151,5781682.9952],[32573988.9675,5781665.9579],[32573985.9683,5781647.9074],[32573985.4676,5781628.8623],[32573987.2156,5781609.3564],[32573997.9624,5781565.3973],[32574025.1985,5781487.2794],[32574034.1929,5781471.0465],[32574058.4278,5781437.6085],[32574091.162,5781444.3327],[32574125.8972,5781445.2995],[32574161.385,5781441.6958],[32574196.1218,5781433.286],[32574233.353,5781418.5228],[32574275.0846,5781397.3634],[32574354.7894,5781352.1147],[32574391.0225,5781328.9284],[32574428.2534,5781298.4814],[32574462.986,5781266.5209],[32574492.474,5781236.551],[32574520.7158,5781202.0793],[32574529.1351,5781189.5973],[32574550.7104,5781157.6109],[32574577.2048,5781113.6423],[32574594.9471,5781078.2474],[32574606.1903,5781040.9482],[32574619.4777,5780978.8802],[32574633.674,5780912.5662],[32574670.6289,5780785.1285],[32574680.8747,5780755.1443],[32574693.12,5780734.1551],[32574712.3627,5780709.6676],[32574734.8543,5780686.1797],[32574744.1037,5780679.1138],[32574757.096,5780669.1887],[32574780.3371,5780657.695],[32574808.826,5780647.2011],[32574916.0323,5780615.7244],[32574993.2487,5780601.239],[32575089.3043,5780587.154],[32575160.1709,5780576.7626],[32575194.6482,5780567.7657],[32575284.7765,5780538.0321],[32575331.0988,5780522.7502],[32575370.8354,5780505.751],[32575402.8111,5780485.7541],[32575431.2835,5780461.7605],[32575654.686,5780471.7505],[32575759.6426,5780478.2558],[32575855.3965,5780493.4576],[32575906.4616,5780501.5646],[32575959.5633,5780508.2694],[32576026.7875,5780513.2808],[32576065.273,5780513.29],[32576100.0102,5780508.3025],[32576120.0028,5780501.8125],[32576139.246,5780491.8251],[32576153.7409,5780479.8379],[32576168.4859,5780463.3542],[32576192.728,5780420.3921],[32576199.2265,5780379.4233],[32576199.7266,5780363.9344],[32576198.2275,5780350.9432],[32576190.9803,5780337.4514],[32576181.734,5780326.4576],[32576168.4891,5780317.9616],[32576159.7424,5780316.4613],[32576130.2533,5780321.9524],[32576114.5088,5780328.9442],[32576051.781,5780366.4014],[32576030.7885,5780375.3891],[32575974.5589,5780391.3625],[32575955.0661,5780395.8542],[32575910.5827,5780402.3383],[32575836.861,5780405.8194],[32575896.8389,5780328.8926],[32575917.3317,5780306.9153],[32575935.3253,5780292.931],[32575958.5672,5780277.9487],[32575982.3088,5780265.9638],[32576019.8036,5780255.588],[32576040.038,5780249.9886],[32576058.7812,5780242.4975],[32576073.7759,5780234.006],[32576084.272,5780224.5141],[32576091.2695,5780214.0222],[32576095.7679,5780202.0306],[32576098.0172,5780189.039],[32576095.5181,5780171.5498],[32576085.2721,5780150.5619],[32576067.7788,5780129.5737],[32576043.0385,5780111.5836],[32576015.5491,5780100.0893],[32575990.3089,5780094.0913],[32575967.5676,5780092.5901],[32575948.075,5780094.0868],[32575928.5822,5780097.5815],[32575906.3403,5780104.073],[32575884.5981,5780114.5608],[32575865.6047,5780130.5443],[32575787.6311,5780235.94],[32575765.1392,5780261.4142],[32575748.8954,5780273.9006],[32575733.4013,5780280.3922],[32575716.9077,5780280.3888],[32575697.915,5780273.3902],[32575681.9212,5780263.8941],[32575671.6752,5780254.3993],[32575651.6829,5780230.4133],[32575629.6915,5780217.4188],[32575597.954,5780206.9207],[32575564.4672,5780199.92],[32575526.6006,5780195.4058],[32575463.7577,5780187.9142],[32575444.5154,5780180.917],[32575432.2703,5780171.9218],[32575425.023,5780160.9283],[32575422.2738,5780145.9383],[32575423.5228,5780125.9522],[32575428.7703,5780104.9677],[32575436.517,5780087.4816],[32575461.2569,5780043.5194],[32575468.5041,5780025.535],[32575473.7521,5780007.051],[32575475.5016,5779990.5647],[32575472.5028,5779975.5763],[32575465.7555,5779961.5862],[32575456.2593,5779949.5939],[32575444.5138,5779940.5987],[32575430.7691,5779936.0992],[32575414.2754,5779934.5967],[32575378.5389,5779939.5848],[32575359.5464,5779948.5739],[32575340.554,5779963.5588],[32575324.3105,5779980.5433],[32575313.3153,5779997.0297],[32575306.8182,5780015.5156],[32575301.8208,5780038.4992],[32575296.824,5780077.473],[32575293.8271,5780135.437],[32575290.3293,5780152.427],[32575282.8331,5780165.9193],[32575271.3386,5780179.4122],[32575257.8448,5780189.9072],[32575244.1011,5780196.4046],[32575228.6079,5780197.905],[32575169.1397,5780192.914],[32575123.1761,5780191.9219],[32575097.4451,5780192.4263],[32575072.2104,5780195.4297],[32575044.4713,5780201.932],[32574984.9809,5780223.9333],[32575007.981,5780195.4413],[32575033.977,5780169.9475],[32575066.7043,5780146.9512],[32575175.6257,5780081.4695],[32575226.3526,5780046.9892],[32575268.0842,5780014.5125],[32575283.5774,5779998.0253],[32575375.7906,5779859.1504],[32575464.0106,5779731.78],[32575648.7981,5779456.8918],[32575685.0339,5779395.4155],[32575694.7801,5779375.4234],[32575710.2742,5779332.9409],[32575720.2707,5779292.9579],[32575758.7552,5779242.4757],[32575772.2496,5779232.9781],[32575792.2413,5779226.4783],[32575815.7315,5779223.4764],[32575830.9448,5779225.0927],[32575839.2215,5779225.972],[32575862.9614,5779234.9645],[32575888.2006,5779250.9539],[32575911.6904,5779269.9421],[32575930.6822,5779288.4312],[32575952.1728,5779314.4167],[32575962.4184,5779320.9124],[32575977.9117,5779323.909],[32576011.8974,5779324.4041],[32576033.3882,5779326.4004],[32576066.1242,5779331.3937],[32576099.8598,5779340.3851],[32576124.3492,5779352.3766],[32576175.3272,5779385.3553],[32576229.5536,5779416.3348],[32576265.5381,5779430.8238],[32576281.2813,5779433.3206],[32576297.0246,5779433.3186],[32576310.7687,5779429.3184],[32576320.7646,5779420.8208],[32576325.5126,5779404.827],[32576324.2634,5779381.3372],[32576319.3287,5779362.5535],[32576316.5169,5779351.8508],[32576302.0234,5779319.3667],[32576283.5315,5779288.8822],[32576252.5452,5779244.9055],[32576244.7986,5779228.9135],[32576243.0495,5779211.4213],[32576247.048,5779188.9303],[32576258.7931,5779162.9399],[32576280.0341,5779135.4486],[32576309.0217,5779107.4563],[32576367.3374,5779061.1594],[32576388.9874,5779043.9714],[32576427.2208,5779006.4815],[32576444.9632,5778985.4876],[32576456.2083,5778968.9928],[32576462.9554,5778953.9981],[32576474.2006,5778915.5125],[32576477.1994,5778891.522],[32576477.9491,5778867.5321],[32576475.7002,5778825.0503],[32576470.9523,5778796.0633],[32576465.7047,5778783.0696],[32576445.404,5778745.3502],[32576430.4703,5778717.603],[32576417.4762,5778696.6141],[32576405.4815,5778682.6221],[32576347.0073,5778641.6494],[32576257.7967,5778569.6956],[32576235.8064,5778549.2083],[32576219.8134,5778529.2197],[32576208.8183,5778511.2294],[32576200.572,5778492.7389],[32576187.3276,5778500.7378],[32576165.3374,5778488.247],[32576143.097,5778487.7512],[32576122.606,5778495.2515],[32576104.8636,5778508.249],[32576090.8696,5778526.2435],[32576080.1242,5778548.7355],[32576072.6273,5778572.7263],[32576046.3881,5778678.1843],[32576026.3965,5778710.6733],[32576012.6523,5778726.6685],[32575998.9082,5778737.6658],[32575978.6603,5778748.5292],[32575943.9315,5778767.1618],[32575882.2076,5778800.1571],[32575876.6357,5778804.8382],[32575869.7129,5778810.6544],[32575844.7233,5778836.6467],[32575820.4835,5778857.6409],[32575811.7371,5778868.6374],[32575805.4896,5778882.1323],[32575800.7414,5778898.6255],[32575796.243,5778932.6108],[32575798.095,5778963.0703],[32575800.7403,5779006.5767],[32575799.2407,5779025.5683],[32575794.9923,5779047.559],[32575787.9949,5779069.5501],[32575778.4987,5779090.0422],[32575765.7539,5779107.5361],[32575751.7596,5779120.5321],[32575735.5163,5779132.0292],[32575734.2676,5779076.5548],[32575731.5191,5779038.0727],[32575725.772,5779000.0909],[32575713.0279,5778959.6114],[32575623.068,5778769.7124],[32575569.8415,5778668.7677],[32575547.1016,5778620.7937],[32575530.609,5778571.3194],[32575520.3639,5778517.8459],[32575515.1167,5778463.8719],[32575514.1176,5778413.8952],[32575517.8664,5778369.4151],[32575526.1133,5778331.9311],[32575537.1088,5778301.4432],[32575548.3543,5778279.4514],[32575565.5972,5778254.9595],[32575591.8363,5778222.4696],[32575645.3139,5778162.4872],[32575670.5534,5778139.4929],[32575687.3651,5778126.4929],[32575700.2908,5778116.4979],[32575729.5084,5778095.9212],[32575749.2698,5778082.0042],[32575758.5159,5778071.5072],[32575766.0128,5778058.5117],[32575768.7617,5778046.5166],[32575764.2637,5778038.0212],[32575755.0177,5778032.0258],[32575731.278,5778025.5333],[32575720.5326,5778024.5358],[32575710.037,5778026.5369],[32575701.2908,5778031.5364],[32575691.69,5778043.9486],[32575680.7995,5778058.0282],[32575670.5538,5778066.5262],[32575626.3225,5778092.5229],[32575606.8308,5778102.522],[32575585.8397,5778110.5223],[32575562.8495,5778115.5242],[32575538.8597,5778116.5283],[32575517.119,5778112.5343],[32575500.876,5778102.0421],[32575487.132,5778082.054],[32575472.1385,5778053.5701],[32575459.1442,5778020.088],[32575450.1483,5777985.106],[32575448.8991,5777951.122],[32575455.9449,5777907.9869],[32575461.1445,5777876.1545],[32575461.6445,5777848.1673],[32575468.8919,5777756.7082],[32575478.3884,5777692.7359],[32575479.638,5777670.2461],[32575478.8884,5777648.7561],[32575477.4306,5777647.6351],[32575541.4467,5777639.6321],[32575592.1651,5777624.9066],[32575682.1489,5777582.3673],[32575798.3092,5777476.0204],[32575871.1293,5777368.3699],[32575885.4668,5777326.3242],[32575899.9567,5777283.8318],[32575911.9514,5777253.3427],[32575923.1964,5777231.8498],[32575947.9355,5777194.8607],[32575961.4294,5777178.365],[32575976.6727,5777164.8676],[32575994.4148,5777156.867],[32576015.4054,5777155.3629],[32576039.6447,5777160.8551],[32576073.1297,5777173.8417],[32576121.7806,5777195.4774],[32576177.5831,5777220.2978],[32576199.0735,5777226.7902],[32576239.3906,5777237.2463],[32576349.2558,5777265.7396],[32576422.9725,5777282.2161],[32576452.9589,5777285.2081],[32576499.6876,5777284.1982],[32576519.9283,5777280.1954],[32576539.9192,5777273.194],[32576559.9099,5777262.1942],[32576577.402,5777250.1955],[32576591.3954,5777237.1979],[32576600.6412,5777223.2017],[32576606.6383,5777208.2068],[32576611.1361,5777191.2129],[32576613.8847,5777171.2208],[32576614.6342,5777128.2388],[32576612.1351,5777093.2542],[32576604.8881,5777041.278],[32576606.1374,5777005.2929],[32576618.3816,5776995.7941],[32576634.8739,5776989.2931],[32576660.1124,5776986.2886],[32576695.3461,5776988.7794],[32576735.5775,5776994.268],[32576794.5502,5777006.2496],[32577018.3591,5777070.7714],[32577050.9314,5777080.1617],[32577078.6685,5777084.6537],[32577107.405,5777084.1477],[32577140.1396,5777081.1418],[32577199.8614,5777070.6332],[32577218.8524,5777064.6315],[32577268.3289,5777045.1288],[32577298.5645,5777035.6263],[32577321.3037,5777031.623],[32577342.2939,5777035.617],[32577364.5333,5777037.6115],[32577414.2777,5777032.3024],[32577448.9933,5777028.5973],[32577478.4793,5777027.0919],[32577478.6711,5777027.1056],[32577506.4661,5777029.0853],[32577531.4542,5777035.0778],[32577553.9437,5777043.5699],[32577574.6841,5777056.0607],[32577584.2403,5777064.2139],[32577610.6674,5777090.5397],[32577638.6546,5777123.0214],[32577621.9132,5777176.0037],[32577611.1686,5777197.9972],[32577594.4269,5777220.4916],[32577540.953,5777279.4788],[32577511.9671,5777307.9732],[32577480.4822,5777334.469],[32577445.749,5777358.9661],[32577388.5263,5777395.9628],[32577372.0343,5777408.4612],[32577328.805,5777448.4539],[32577306.3156,5777462.9526],[32577293.8216,5777467.9531],[32577271.832,5777475.4546],[32577262.0866,5777475.4565],[32577250.8418,5777470.9606],[32577222.6048,5777450.4746],[32577205.8154,5777435.5754],[32577180.3741,5777412.9984],[32577125.8991,5777370.0271],[32577109.6567,5777360.0345],[32577076.422,5777344.0481],[32577052.9329,5777335.5564],[32577031.4428,5777333.5619],[32577013.2014,5777338.5636],[32576998.9581,5777349.5622],[32576992.9611,5777368.0559],[32576999.4583,5777395.0434],[32577018.9495,5777430.025],[32577045.4375,5777467.0043],[32577098.6634,5777531.9669],[32577128.6497,5777564.9475],[32577213.3611,5777651.8954],[32577218.859,5777694.8772],[32577218.8591,5777713.3698],[32577202.1178,5777812.3335],[32577199.8691,5777832.3259],[32577200.1191,5777851.3183],[32577203.3677,5777868.8107],[32577212.3106,5777890.5072],[32577218.6111,5777905.7931],[32577221.1099,5777918.7875],[32577219.6107,5777930.7829],[32577214.1134,5777939.2806],[32577205.8673,5777945.2798],[32577127.8121,5777978.9153],[32577088.6718,5777995.7817],[32577072.4294,5778004.2814],[32577049.1902,5778024.2777],[32577049.69,5778032.7743],[32577053.4383,5778042.7695],[32577078.1774,5778090.2458],[32577092.1711,5778129.2276],[32577096.6694,5778171.7098],[32577096.4197,5778197.1997],[32577093.1714,5778220.6908],[32577087.924,5778242.6831],[32577074.1805,5778285.1686],[32577064.4351,5778303.1631],[32577051.691,5778320.1586],[32577021.455,5778352.651],[32577033.6995,5778385.6356],[32577052.4412,5778415.6203],[32577068.6838,5778429.1122],[32577084.9266,5778437.1062],[32577103.1682,5778437.6028],[32577123.409,5778429.6025],[32577144.8991,5778416.6039],[32577163.6404,5778401.6066],[32577175.8847,5778387.1102],[32577186.8795,5778366.6163],[32577194.3759,5778345.6233],[32577197.8741,5778322.132],[32577196.3054,5778285.0581],[32577195.1249,5778257.1581],[32577195.6245,5778236.1663],[32577199.3726,5778211.1755],[32577206.619,5778182.1857],[32577217.3638,5778152.6953],[32577230.8573,5778126.7032],[32577244.6009,5778109.2076],[32577256.8451,5778101.2086],[32577269.0895,5778099.2071],[32577282.8331,5778100.2042],[32577298.5759,5778104.6996],[32577315.0683,5778113.1933],[32577331.5608,5778125.6854],[32577346.554,5778142.1763],[32577374.5415,5778182.6555],[32577389.2848,5778201.1457],[32577405.0277,5778213.6381],[32577421.5201,5778221.1324],[32577436.7631,5778225.1282],[32577450.0069,5778223.6265],[32577460.2521,5778216.1276],[32577467.2487,5778204.6308],[32577471.2467,5778192.135],[32577470.9967,5778178.1404],[32577465.749,5778162.1475],[32577451.5054,5778139.6587],[32577414.5097,5778090.8829],[32577384.0357,5778050.7053],[32577369.0424,5778028.7166],[32577358.2972,5778009.7261],[32577350.5506,5777990.7349],[32577341.5543,5777943.755],[32577336.0564,5777893.2759],[32577335.5564,5777874.2835],[32577338.3046,5777823.8029],[32577341.0528,5777773.3224],[32577379.7853,5777827.2937],[32577394.0289,5777852.2812],[32577403.2749,5777875.2704],[32577410.022,5777898.2602],[32577417.2691,5777937.2436],[32577420.2685,5778010.7144],[32577424.7666,5778028.7066],[32577434.0123,5778041.2001],[32577468.9966,5778079.179],[32577493.9853,5778116.1603],[32577509.4785,5778142.6475],[32577522.9724,5778172.1338],[32577533.9677,5778205.1192],[32577543.0439,5778241.0194],[32577549.2114,5778273.0906],[32577553.8751,5778328.8061],[32577558.7083,5778386.5457],[32577562.2074,5778448.0218],[32577561.4583,5778497.0033],[32577543.9677,5778620.4593],[32577530.9743,5778678.9392],[32577525.2273,5778715.4263],[32577523.9781,5778750.4134],[32577528.9763,5778789.8976],[32577537.4728,5778835.8791],[32577546.7191,5778877.3622],[32577561.4628,5778929.8405],[32577573.708,5779003.8111],[32577569.1127,5778998.6092],[32577547.2197,5778973.8261],[32577533.9757,5778962.3323],[32577506.4881,5778944.8427],[32577487.4967,5778938.348],[32577462.2582,5778934.3532],[32577435.7703,5778935.8565],[32577413.7803,5778942.857],[32577396.5382,5778952.8558],[32577384.044,5778963.3536],[32577375.2981,5778977.8494],[32577368.8011,5778998.3426],[32577365.053,5779020.3347],[32577366.3042,5779140.7888],[32577366.5534,5779164.7797],[32577364.0546,5779180.7739],[32577357.3078,5779198.7681],[32577347.3124,5779214.2636],[32577335.5677,5779222.2622],[32577324.0729,5779222.7636],[32577314.5771,5779218.7664],[32577307.3303,5779211.2702],[32577302.5824,5779199.2755],[32577294.5894,5779148.0302],[32577275.8434,5779027.8448],[32577263.0989,5778976.3665],[32577255.1024,5778954.3762],[32577246.3562,5778936.3844],[32577226.615,5778910.3974],[32577217.619,5778903.9013],[32577201.1264,5778896.4067],[32577170.3904,5778889.4141],[32577147.6506,5778886.4188],[32577105.4197,5778883.9263],[32577080.6808,5778881.4311],[32577040.199,5778881.9372],[32577005.9644,5778887.9402],[32576985.7236,5778895.4403],[32576963.2337,5778908.4387],[32576939.4944,5778929.434],[32576917.7541,5778955.9268],[32576901.0117,5778981.9189],[32576891.516,5779001.9124],[32576889.0171,5779019.9055],[32576891.0162,5779041.8964],[32576897.0136,5779063.3869],[32576915.7877,5779091.3282],[32576929.2493,5779111.363],[32576938.995,5779128.8546],[32576946.7416,5779147.3461],[32576951.4895,5779176.8337],[32576956.4873,5779302.7831],[32576958.7364,5779326.7733],[32576962.2349,5779347.7645],[32576967.9823,5779368.2557],[32576976.4786,5779389.746],[32576988.9731,5779413.7349],[32577006.2155,5779439.2227],[32577027.4561,5779464.2101],[32577052.4451,5779486.6982],[32577077.684,5779505.1877],[32577102.4229,5779518.6794],[32577128.1616,5779527.6726],[32577157.1488,5779533.1669],[32577189.6344,5779533.1629],[32577222.1198,5779528.6605],[32577252.3564,5779519.1604],[32577277.3452,5779506.662],[32577300.5847,5779485.6671],[32577324.324,5779457.6746],[32577350.0623,5779422.6845],[32577368.8039,5779419.1834],[32577388.545,5779417.6815],[32577411.7846,5779419.6778],[32577436.0237,5779425.1727],[32577498.7456,5779444.6576],[32577582.4581,5779475.636],[32577616.4433,5779521.1153],[32577630.9369,5779545.1048],[32577669.1704,5779627.0708],[32577690.9111,5779679.0498],[32577708.1537,5779724.5316],[32577722.6477,5779770.0138],[32577751.1358,5779868.9758],[32577758.8826,5779903.4629],[32577766.13,5779976.9363],[32577771.6284,5780076.4009],[32577767.6307,5780144.3775],[32577753.3877,5780242.8444],[32577705.9528,5780334.6673],[32577691.4158,5780362.8076],[32577649.6844,5780437.7844],[32577613.4505,5780507.2628],[32577598.4573,5780549.2491],[32577594.709,5780569.742],[32577589.7113,5780621.2243],[32577588.9616,5780647.2152],[32577590.9609,5780677.2046],[32577601.2065,5780728.6858],[32577637.5205,5780782.1043],[32577652.9343,5780802.6569],[32577679.4229,5780831.1456],[32577743.3954,5780890.6218],[32577726.6528,5780941.1054],[32577715.9075,5780963.5983],[32577638.191,5781090.0584],[32577613.4516,5781128.0462],[32577582.4646,5781170.5327],[32577554.9763,5781201.5229],[32577530.4866,5781217.5182],[32577506.9966,5781228.0153],[32577482.2571,5781235.5135],[32577452.4859,5781356.9861],[32577420.7493,5781439.9499],[32577387.5112,5781513.4068],[32577361.2296,5781555.3895],[32577337.7783,5781592.8512],[32577331.2806,5781605.8421],[32577394.0071,5781604.856],[32577371.7644,5781660.319],[32577338.742,5781766.0272],[32577322.2815,5781818.719],[32577303.2894,5781921.6632],[32577294.0428,5781885.6791],[32577286.0459,5781863.6886],[32577251.809,5781798.7158],[32577234.0665,5781851.6856],[32577227.5694,5781879.1711],[32577223.3217,5781907.6572],[32577220.8233,5781938.6427],[32577220.5741,5781970.1289],[32577223.0737,5782000.1165],[32577250.8163,5782139.065],[32577285.8091,5782357.9937],[32577293.8078,5782422.4742],[32577297.3078,5782471.9594],[32577303.3086,5782584.9274],[32577303.5602,5782625.4165]],[[32575996.6521,5779466.843],[32575976.4107,5779465.3463],[32575952.1708,5779467.3484],[32575885.4489,5779477.8522],[32575850.2135,5779486.8527],[32575825.2238,5779498.3507],[32575807.9809,5779513.346],[32575796.2355,5779531.8391],[32575785.9893,5779561.3269],[32575776.4917,5779600.3104],[32575763.1459,5779669.8024],[32575761.3825,5779692.3008],[32575763.1319,5779716.2963],[32575768.3862,5779739.7888],[32575777.3876,5779761.2795],[32575793.1327,5779780.2691],[32575813.6237,5779795.7591],[32575839.1106,5779810.2482],[32575867.3428,5779812.7383],[32575897.5867,5779813.2255],[32575933.8597,5779810.7094],[32575973.4012,5779803.6968],[32576012.1414,5779793.1964],[32576044.6279,5779781.198],[32576066.119,5779771.2],[32576082.3624,5779760.203],[32576100.1051,5779744.7079],[32576116.3484,5779727.7135],[32576126.8442,5779711.7193],[32576134.0914,5779690.7275],[32576141.5886,5779661.2396],[32576147.5864,5779628.2532],[32576149.8358,5779598.266],[32576147.0873,5779574.2768],[32576139.5906,5779555.7858],[32576128.5955,5779541.2935],[32576115.851,5779528.8005],[32576099.1082,5779515.3086],[32576056.3766,5779487.8261],[32576016.6436,5779472.338],[32575996.6521,5779466.843]],[[32576906.7572,5778382.6593],[32576897.0117,5778380.6618],[32576882.7681,5778381.664],[32576867.7749,5778385.1652],[32576854.0312,5778392.1648],[32576821.0462,5778413.6619],[32576788.8108,5778438.6574],[32576742.5816,5778479.6488],[32576697.1021,5778522.639],[32576666.8656,5778553.6314],[32576651.3726,5778573.126],[32576640.6274,5778591.6202],[32576634.1303,5778613.1125],[32576630.382,5778639.602],[32576629.8822,5778669.5898],[32576632.3811,5778699.5769],[32576639.9969,5778741.711],[32576651.6225,5778806.0297],[32576658.8016,5778889.2353],[32576661.3681,5778918.9816],[32576664.6167,5778942.4714],[32576669.8643,5778959.4636],[32576678.1107,5778971.9572],[32576688.3562,5778979.4525],[32576699.8511,5778980.9502],[32576710.5963,5778973.4516],[32576720.0922,5778955.9572],[32576727.5888,5778931.4661],[32576732.8365,5778902.9769],[32576742.5821,5778826.0069],[32576747.2247,5778779.2277],[32576755.826,5778692.5592],[32576766.8211,5778644.0772],[32576782.0642,5778596.0942],[32576801.3055,5778553.6083],[32576822.5457,5778518.1191],[32576844.036,5778488.6273],[32576864.5267,5778465.1333],[32576908.2568,5778419.6441],[32576914.7538,5778409.1472],[32576915.7533,5778398.1514],[32576912.7545,5778388.6558],[32576906.7572,5778382.6593]],[[32577352.0566,5778706.4566],[32577337.813,5778701.4608],[32577313.574,5778701.9645],[32577305.0779,5778692.9692],[32577272.5924,5778649.4912],[32577253.1011,5778630.5019],[32577233.6099,5778619.0095],[32577215.6181,5778613.0148],[32577199.1256,5778611.5181],[32577184.6323,5778613.0199],[32577168.1398,5778618.5205],[32577147.3993,5778629.0198],[32577126.4089,5778643.0177],[32577108.667,5778659.0143],[32577096.4227,5778675.5098],[32577089.426,5778692.5041],[32577086.6773,5778708.9982],[32577087.6769,5778726.491],[32577095.1736,5778744.9825],[32577110.4168,5778764.9723],[32577129.9081,5778783.9617],[32577150.3988,5778798.9526],[32577207.1234,5778832.4307],[32577228.8636,5778842.9232],[32577252.6028,5778848.9172],[32577276.8419,5778845.4149],[32577300.8309,5778835.9149],[32577323.5704,5778822.4166],[32577342.3118,5778802.4213],[32577355.0557,5778775.9295],[32577361.5526,5778747.4394],[32577361.0526,5778721.9493],[32577352.0566,5778706.4566]],[[32576950.1938,5782114.0573],[32576922.9568,5782114.0571],[32576899.2175,5782117.0561],[32576878.9758,5782126.0531],[32576860.9823,5782142.5484],[32576846.4897,5782164.0435],[32576837.4956,5782188.5346],[32576835.4975,5782215.5242],[32576840.4964,5782243.0139],[32576850.493,5782268.5046],[32576863.9879,5782288.9978],[32576882.9803,5782305.4931],[32576907.97,5782319.49],[32576936.458,5782330.4886],[32576965.4456,5782337.4884],[32576990.6848,5782339.4896],[32577011.9255,5782334.9925],[32577031.1652,5782324.4952],[32577050.1582,5782307.9997],[32577066.1514,5782286.5065],[32577074.8961,5782262.5138],[32577077.6432,5782235.0224],[32577075.643,5782205.032],[32577064.8967,5782176.0411],[32577044.9044,5782152.548],[32577021.4138,5782134.5529],[32576999.4227,5782123.5558],[32576976.932,5782117.5569],[32576950.1938,5782114.0573]],[[32576411.4731,5779726.6798],[32576394.2305,5779723.1832],[32576376.9879,5779723.685],[32576361.4944,5779728.1849],[32576345.751,5779739.1821],[32576312.0151,5779773.1715],[32576266.7825,5779933.1079],[32576283.7751,5779949.0993],[32576303.0168,5779961.5919],[32576327.2565,5779969.586],[32576352.4957,5779971.0828],[32576372.9871,5779970.0811],[32576392.4789,5779966.0809],[32576430.1343,5779867.0438],[32576460.7016,5779786.6488],[32576451.7056,5779765.6587],[32576441.2102,5779748.667],[32576427.7161,5779734.6744],[32576411.4731,5779726.6798]],[[32576671.7858,5781158.473],[32576648.7947,5781152.9714],[32576629.0523,5781153.4669],[32576590.3174,5781162.4531],[32576574.5736,5781170.4451],[32576563.0783,5781183.9347],[32576556.5811,5781205.9206],[32576555.5818,5781229.9065],[32576560.83,5781250.8953],[32576572.3257,5781270.8859],[32576590.5686,5781291.8769],[32576611.0606,5781310.8694],[32576629.5533,5781323.3652],[32576646.2966,5781331.3633],[32576661.2906,5781334.8636],[32576689.5292,5781335.3679],[32576716.2685,5781332.3743],[32576730.5128,5781328.8789],[32576746.5065,5781321.3865],[32576761.2507,5781311.3954],[32576772.4962,5781299.405],[32576779.7435,5781284.9157],[32576784.7417,5781266.9282],[32576786.4912,5781247.9407],[32576784.4921,5781229.952],[32576775.4958,5781215.4593],[32576757.2528,5781202.9633],[32576722.0276,5781184.6266],[32576671.7858,5781158.473]],[[32576301.2784,5777687.5679],[32576285.0355,5777685.0723],[32576272.2913,5777686.0746],[32576257.7978,5777691.5752],[32576238.8063,5777701.075],[32576219.5649,5777713.0739],[32576203.8219,5777726.0715],[32576194.326,5777739.5675],[32576189.5781,5777754.562],[32576187.3292,5777785.549],[32576189.0784,5777800.5421],[32576193.8263,5777816.0344],[32576201.8227,5777830.0266],[32576212.8179,5777841.5194],[32576231.0597,5777856.5092],[32576238.8063,5777860.5059],[32576261.2963,5777864.9994],[32576272.7912,5777864.4973],[32576307.5257,5777856.9935],[32576327.7667,5777854.4905],[32576341.7603,5777849.4897],[32576355.5043,5777839.9911],[32576364.9999,5777827.4945],[32576371.747,5777810.5005],[32576376.9946,5777788.5088],[32576377.2443,5777765.5185],[32576369.7477,5777744.0294],[32576356.0038,5777724.0408],[32576338.2618,5777707.0518],[32576319.2703,5777694.5611],[32576301.2784,5777687.5679]],[[32574903.5337,5780976.5193],[32574865.0492,5780975.5212],[32574838.0604,5780977.521],[32574811.0718,5780982.0192],[32574790.831,5780994.0128],[32574780.0866,5781014.5011],[32574775.8736,5781038.5003],[32574775.6123,5781061.4887],[32574779.3593,5781080.9453],[32574787.3551,5781097.9154],[32574798.5999,5781113.3995],[32574812.0941,5781127.3933],[32574826.0884,5781138.3969],[32574840.8329,5781144.9167],[32574857.5768,5781146.4457],[32574877.0764,5781142.9405],[32574900.0369,5781135.9364],[32574909.8657,5781131.1464],[32574929.7734,5781121.4444],[32574943.0175,5781111.9492],[32574954.2628,5781098.9557],[32574960.5101,5781081.4643],[32574962.0097,5781059.975],[32574959.261,5781036.9866],[32574953.0137,5781014.9979],[32574943.0179,5780998.0068],[32574929.5233,5780986.5132],[32574915.529,5780979.5173],[32574903.5337,5780976.5193]],[[32577327.5735,5781005.6019],[32577296.5866,5781000.6051],[32577269.5981,5781001.1062],[32577249.1068,5781005.6055],[32577232.8636,5781013.6033],[32577219.6181,5781026.5993],[32577207.8546,5781046.097],[32577200.59,5781068.0957],[32577200.8346,5781088.0923],[32577206.5818,5781105.0874],[32577215.5785,5781120.082],[32577229.0731,5781131.0771],[32577247.316,5781139.0721],[32577267.0602,5781143.567],[32577310.5427,5781145.5789],[32577331.5665,5781146.5516],[32577350.0632,5781145.0504],[32577368.3056,5781139.5518],[32577382.7996,5781129.5547],[32577393.2952,5781117.0589],[32577398.5429,5781104.5631],[32577399.0428,5781088.069],[32577395.7943,5781066.5769],[32577388.2975,5781045.0849],[32577376.3027,5781027.0918],[32577356.0613,5781014.5973],[32577327.5735,5781005.6019]]],"crs":{"type":"EPSG","properties":{"code":4647}}},"properties":{"FL_NR":35662,"BR":4,"BR_NAME":"BERGVORLAND","BGL":10,"BGL_NAME":" Lössbörde","BL":10,"BL_NAME":"Lehmgebiete","BR_BGL_BL_NAME":"BERGVORLAND /  Lössbörde / Lehmgebiete","TKNR":null,"TKNAME":null,"UP_DATE":"2018-09-06T14:14:17.0000000"}}]}