{"type": "FeatureCollection","features":[{"type":"Feature","geometry":{"type":"MultiPolygon","coordinates":[[[[32587046.1811,5783895.6914],[32587042.8588,5783886.0683],[32587041.0107,5783866.9183],[32587044.0896,5783845.3717],[32587052.7115,5783828.1425],[32587069.9557,5783805.9965],[32587100.1333,5783780.1667],[32587142.0124,5783748.1907],[32587168.495,5783731.0731],[32587203.0675,5783719.7434],[32587204.6206,5783719.3372],[32587237.9965,5783745.1269],[32587404.8254,5783772.3345],[32587442.2818,5783739.372],[32587545.2741,5783794.4171],[32587562.1366,5783805.0094],[32587596.6745,5783826.7046],[32587613.6946,5783839.2944],[32587661.6916,5783887.6315],[32587677.1966,5783906.5617],[32587046.1811,5783895.6914]]],[[[32568342.1177,5777812.9604],[32568366.1699,5777814.4938],[32568387.5649,5777815.8578],[32568418.0241,5777814.4793],[32568431.6841,5777807.5174],[32568432.0652,5777807.2183],[32568458.4249,5777786.5314],[32568492.4143,5777757.0514],[32568537.4139,5777715.216],[32568585.3918,5777670.6117],[32568613.136,5777650.6259],[32568640.8804,5777634.6377],[32568668.6247,5777622.147],[32568696.119,5777613.154],[32568724.3629,5777607.6586],[32568753.6067,5777604.6615],[32568784.3497,5777603.6631],[32568848.9355,5777604.5807],[32568890.0715,5777605.1652],[32568919.8116,5777603.6671],[32568982.2866,5777594.6751],[32569023.7668,5777585.6825],[32569072.9902,5777572.6925],[32569123.9601,5777557.2044],[32569169.182,5777541.2161],[32569209.1574,5777523.7289],[32569278.1739,5777482.698],[32569286.1162,5777477.9762],[32569332.6629,5777450.3037],[32569352.866,5777438.2928],[32569488.3832,5777347.8335],[32569531.2058,5777315.5266],[32569579.0816,5777279.4074],[32569616.3276,5777257.4365],[32569651.5716,5777242.9568],[32569712.7955,5777221.4726],[32569767.7539,5777204.468],[32569837.4492,5777185.9632],[32569856.439,5777178.9511],[32569962.3841,5777136.5127],[32570104.3171,5777075.417],[32570138.7362,5777060.6011],[32570196.4357,5777034.1273],[32570250.6466,5777014.6421],[32570317.1104,5776994.1493],[32570468.0712,5776982.1179],[32570557.5688,5776976.5857],[32570602.822,5776972.5676],[32570641.0766,5776966.5523],[32570676.3328,5776956.0398],[32570693.9748,5776948.8246],[32570710.5885,5776942.0299],[32570807.8711,5776893.8228],[32570859.0411,5776868.4661],[32570889.0818,5776858.4604],[32570915.567,5776849.6389],[32570961.0388,5776834.4934],[32570971.6208,5776830.9688],[32571069.8145,5776792.4967],[32571092.5545,5776802.9896],[32571103.7998,5776809.9848],[32571125.7517,5776832.3654],[32571141.5356,5776848.4576],[32571162.9743,5776865.5199],[32571242.3902,5776847.9689],[32571261.4623,5776840.6793],[32571274.7913,5776832.7595],[32571408.8258,5776738.0079],[32571423.181,5776719.2983],[32571439.4425,5776689.3512],[32571453.0134,5776656.7593],[32571460.3159,5776636.8835],[32571479.6489,5776584.2635],[32571494.0241,5776552.1096],[32571506.2991,5776530.8576],[32571519.2162,5776516.8673],[32571529.2502,5776499.4744],[32571564.7514,5776497.0633],[32571647.4905,5776494.5818],[32571682.3225,5776493.5371],[32571712.5125,5776490.031],[32571765.8763,5776473.0977],[32571788.1598,5776466.0268],[32571879.6225,5776492.5017],[32571938.0985,5776487.5057],[32571962.0889,5776487.0075],[32571993.3267,5776492.006],[32572029.6216,5776500.878],[32572085.2914,5776516.496],[32572333.5725,5776597.1438],[32572500.6096,5776651.4016],[32572647.1463,5776694.8342],[32572778.4947,5776725.7608],[32572913.4119,5776752.7036],[32572955.3964,5776757.1937],[32572994.6321,5776759.1856],[32573053.3605,5776756.676],[32573068.8556,5776654.226],[32573071.1053,5776601.7525],[32573070.6056,5776566.2707],[32573067.6071,5776532.2886],[32573052.3634,5776437.3399],[32573053.1133,5776409.354],[32573057.8617,5776388.3637],[32573068.8579,5776375.868],[32573086.8512,5776377.3639],[32573107.0937,5776388.3544],[32573130.5848,5776406.3409],[32573147.0787,5776423.8289],[32573167.321,5776436.8185],[32573194.5609,5776444.8093],[32573222.5505,5776446.8029],[32573245.0422,5776444.7996],[32573265.0348,5776440.7977],[32573280.7788,5776445.7922],[32573293.2741,5776452.2865],[32573302.5205,5776461.78],[32573324.512,5776504.754],[32573341.5059,5776483.7613],[32573355.2509,5776458.2715],[32573365.2474,5776422.7875],[32573382.7974,5776344.4678],[32573403.9774,5776352.6029],[32573422.6944,5776357.7071],[32573467.3373,5776364.2],[32573518.8537,5776364.4729],[32573569.3176,5776358.8301],[32573597.6139,5776352.5812],[32573610.0385,5776344.8731],[32573621.4805,5776334.2174],[32573709.4276,5776298.5097],[32573776.7247,5776279.4917],[32573706.1943,5776241.5148],[32573607.3522,5776216.8059],[32573480.5457,5776160.4496],[32573506.1964,5776151.8952],[32573537.1847,5776144.3926],[32573571.4216,5776139.8879],[32573616.9043,5776136.3803],[32573699.1229,5776132.8649],[32573813.8286,5776141.8365],[32573837.5693,5776144.8299],[32573895.2967,5776156.312],[32573890.2996,5776087.8535],[32573885.3015,5776019.3813],[32573885.9172,5776014.8663],[32573886.0889,5776013.608],[32573989.9885,5775981.1378],[32573996.7582,5775955.888],[32574146.6986,5776013.8266],[32574176.6866,5776022.3158],[32574216.6705,5776030.8026],[32574322.8778,5776050.769],[32574348.8674,5776053.2618],[32574371.8581,5776053.2566],[32574391.1003,5776050.2536],[32574436.332,5776032.2519],[32574464.0708,5776018.2521],[32574505.3039,5776027.2382],[32574541.0392,5776032.2275],[32574573.0261,5776032.7198],[32574701.2232,5776021.195],[32574738.7609,5776018.8656],[32574838.6659,5776012.666],[32574857.658,5775978.6773],[32574870.6525,5775962.182],[32574886.396,5775946.6854],[32574921.6311,5775921.6885],[32574950.6189,5775905.1891],[32574978.607,5775883.6922],[32574988.8527,5775873.1945],[32575000.3479,5775866.1949],[32575014.8417,5775862.693],[32575033.3338,5775868.1858],[32575040.1391,5775871.9742],[32575053.0754,5775879.1758],[32575100.7292,5775912.6491],[32575127.0438,5775931.1332],[32575206.0099,5775994.0844],[32575338.9525,5776129.4887],[32575355.9451,5776144.9773],[32575376.6861,5776161.9644],[32575399.1763,5776177.4518],[32575420.4171,5776188.9412],[32575478.8915,5776189.9262],[32575525.1213,5776196.4117],[32575545.6123,5776202.4038],[32575554.8583,5776210.8976],[32575554.6084,5776219.8936],[32575550.6102,5776226.3917],[32575543.6132,5776230.8914],[32575533.8675,5776232.8929],[32575467.8963,5776238.4067],[32575460.6495,5776240.4076],[32575452.1533,5776245.4075],[32575444.4067,5776252.4062],[32575439.1589,5776260.4038],[32575488.3874,5776278.8832],[32575516.3752,5776284.8735],[32575583.5958,5776291.3539],[32575651.8157,5776293.336],[32575686.0505,5776292.8277],[32575766.5148,5776288.3097],[32575860.7227,5776279.2901],[32575946.1843,5776278.7689],[32575989.165,5776281.7567],[32576029.8967,5776288.2436],[32576055.1352,5776298.7326],[32576059.1335,5776310.2265],[32576058.8837,5776322.721],[32576052.8865,5776338.7154],[32576042.3913,5776352.7119],[32576030.1469,5776362.2107],[32575996.662,5776373.714],[32575972.6728,5776378.7177],[32575916.4481,5776384.7291],[32575849.478,5776363.2553],[32575821.4905,5776356.2654],[32575793.7529,5776352.7739],[32575760.0179,5776351.2829],[32575724.7835,5776351.7914],[32575692.5478,5776354.2983],[32575665.8096,5776359.3027],[32575642.5699,5776366.805],[32575600.0886,5776384.8074],[32575577.8484,5776390.8101],[32575554.6086,5776391.3156],[32575489.9715,5776384.72],[32575450.6981,5776382.9946],[32575428.6337,5776386.0086],[32575409.5782,5776394.0365],[32575396.5401,5776403.0658],[32575353.4141,5776460.2416],[32575323.459,5776487.3277],[32575296.4706,5776499.8283],[32575271.4814,5776504.3322],[32575231.4985,5776504.3416],[32575156.5306,5776492.8648],[32575127.5429,5776490.3729],[32575103.0533,5776490.8784],[32575084.811,5776498.3791],[32575071.8165,5776510.8763],[32575063.8199,5776523.3724],[32575061.3209,5776530.3697],[32575055.9972,5776523.6142],[32575009.343,5776464.4128],[32574990.8509,5776444.9264],[32574973.6082,5776430.4372],[32574947.6192,5776412.9515],[32574935.6243,5776407.4569],[32574893.6419,5776398.471],[32574868.294,5776403.5462],[32574856.1575,5776405.9762],[32574855.4077,5776442.4591],[32574858.4064,5776461.4494],[32574864.154,5776477.4405],[32574876.6486,5776503.4252],[32574880.397,5776516.4182],[32574880.3969,5776533.4102],[32574875.6489,5776552.9021],[32574867.4022,5776571.3952],[32574857.4063,5776584.3913],[32574845.6612,5776589.3916],[32574828.7885,5776586.3624],[32574801.1797,5776581.4056],[32574781.6878,5776582.9093],[32574759.197,5776588.4116],[32574735.2069,5776599.4119],[32574710.7169,5776616.4092],[32574689.9754,5776638.4033],[32574672.549,5776664.4254],[32574653.49,5776692.8853],[32574641.245,5776700.3844],[32574624.252,5776705.8855],[32574604.0103,5776707.3892],[32574581.7693,5776702.3965],[32574563.5268,5776692.4053],[32574551.5318,5776678.9145],[32574543.785,5776663.4236],[32574532.7897,5776634.4401],[32574527.5419,5776624.9458],[32574519.5452,5776617.4513],[32574505.8008,5776610.9574],[32574486.8085,5776605.9639],[32574446.325,5776601.4751],[32574374.6036,5776662.9606],[32574337.9095,5776696.9881],[32574309.3792,5776723.445],[32574275.8923,5776757.4355],[32574260.1485,5776776.4294],[32574132.1978,5776946.3717],[32574030.7363,5777087.8213],[32573931.7735,5777229.2692],[32573901.7846,5777277.2505],[32573839.0577,5777385.707],[32573792.0747,5777474.67],[32573766.334,5777530.1462],[32573743.3421,5777585.6217],[32573737.2995,5777603.4328],[32573727.7395,5777631.6115],[32573710.8328,5777693.1133],[32573707.0767,5777715.6125],[32573708.836,5777735.1082],[32573711.9392,5777741.7343],[32573740.4146,5777842.0168],[32573729.0144,5777870.8343],[32573715.1582,5777888.3356],[32573712.507,5777889.8502],[32573714.9827,5778045.11],[32573722.9946,5778243.9253],[32573725.9043,5778316.1303],[32573728.6264,5778330.8502],[32573732.9133,5778341.3204],[32573733.8143,5778394.4348],[32573748.1676,5778394.1049],[32573772.9078,5778403.0998],[32573784.6532,5778411.0944],[32573822.3887,5778442.5724],[32573867.6215,5778494.5342],[32573877.6179,5778513.5196],[32573899.6102,5778573.4733],[32573891.5362,5778601.1369],[32573903.1949,5778628.5224],[32573912.323,5778642.413],[32573947.8426,5778653.9138],[32573966.5849,5778652.9155],[32573985.5772,5778654.4157],[32574035.1944,5778666.6709],[32574068.5443,5778674.9081],[32574082.5388,5778674.9102],[32574097.5329,5778672.4147],[32574113.0269,5778666.4226],[32574126.5217,5778654.4359],[32574135.2684,5778632.9572],[32574139.0172,5778608.9801],[32574139.767,5778588.4991],[32574126.2744,5778395.6718],[32574127.5239,5778379.1859],[32574132.0224,5778362.2004],[32574107.0318,5778323.7287],[32574099.0349,5778305.7421],[32574094.5365,5778287.7554],[32574092.0372,5778266.271],[32574092.5366,5778244.7858],[32574096.7846,5778226.797],[32574106.7799,5778210.8051],[32574122.2687,5778196.8091],[32574141.2312,5778185.3074],[32574161.6953,5778178.3004],[32574183.6758,5778176.2896],[32574207.423,5778178.2762],[32574232.185,5778182.2615],[32574289.9964,5778197.2271],[32574305.2624,5778203.2182],[32574339.3785,5778220.5026],[32574343.6667,5778222.6752],[32574363.7693,5778222.4093],[32574379.6406,5778219.3135],[32574401.8687,5778209.0793],[32574439.2323,5778200.6549],[32574479.0318,5778157.2138],[32574589.519,5778105.8366],[32574655.1912,5778071.811],[32574807.6182,5778000.3885],[32574808.9151,5777976.2308],[32574831.5936,5777949.1652],[32574896.0383,5777949.5737],[32574946.7689,5777989.1746],[32574968.5991,5778034.6731],[32574989.4259,5778061.1673],[32575016.8838,5778060.2592],[32575040.9359,5778054.4472],[32575249.4403,5777950.6131],[32575261.5863,5777942.5811],[32575275.7987,5777928.9929],[32575301.843,5777894.4144],[32575312.7693,5777879.9079],[32575329.9617,5777861.9325],[32575345.9788,5777850.6878],[32575367.6092,5777838.501],[32575415.5277,5777818.1113],[32575417.1639,5777781.2072],[32575412.6664,5777691.7497],[32575415.4153,5777666.261],[32575419.4137,5777652.2667],[32575425.1613,5777641.2706],[32575431.9085,5777634.7722],[32575439.9052,5777631.772],[32575447.9017,5777631.2706],[32575457.3977,5777634.2672],[32575477.4306,5777647.6351],[32575541.4467,5777639.6321],[32575592.1651,5777624.9066],[32575682.1489,5777582.3673],[32575798.3092,5777476.0204],[32575871.1293,5777368.3699],[32575885.4668,5777326.3242],[32575899.9567,5777283.8318],[32575911.9514,5777253.3427],[32575923.1964,5777231.8498],[32575947.9355,5777194.8607],[32575961.4294,5777178.365],[32575976.6727,5777164.8676],[32575994.4148,5777156.867],[32576015.4054,5777155.3629],[32576039.6447,5777160.8551],[32576073.1297,5777173.8417],[32576121.7806,5777195.4774],[32576177.5831,5777220.2978],[32576199.0735,5777226.7902],[32576239.3906,5777237.2463],[32576349.2558,5777265.7396],[32576422.9725,5777282.2161],[32576452.9589,5777285.2081],[32576499.6876,5777284.1982],[32576519.9283,5777280.1954],[32576539.9192,5777273.194],[32576559.9099,5777262.1942],[32576577.402,5777250.1955],[32576591.3954,5777237.1979],[32576600.6412,5777223.2017],[32576606.6383,5777208.2068],[32576611.1361,5777191.2129],[32576613.8847,5777171.2208],[32576614.6342,5777128.2388],[32576612.1351,5777093.2542],[32576604.8881,5777041.278],[32576606.1374,5777005.2929],[32576605.1377,5776991.7989],[32576608.636,5776976.8045],[32576615.6326,5776963.3086],[32576625.8778,5776954.31],[32576651.3661,5776943.8086],[32576667.6086,5776940.3063],[32576687.5992,5776940.3017],[32576707.84,5776942.7961],[32576732.559,5776948.5584],[32576752.8192,5776953.2813],[32576852.7728,5776957.7567],[32576877.3839,5776949.5568],[32576917.6323,5776932.1117],[32576940.8933,5776919.8886],[32576968.2685,5776905.5036],[32576988.906,5776898.3598],[32577015.0998,5776893.5973],[32577052.4062,5776892.4067],[32577088.3963,5776895.0055],[32577104.0,5776890.8192],[32577128.1433,5776890.2227],[32577217.6012,5776897.2],[32577269.0769,5776899.188],[32577451.2406,5776898.1493],[32577477.2282,5776900.1431],[32577484.3003,5776901.5445],[32577507.4639,5776906.1344],[32577536.4503,5776915.1247],[32577539.9213,5776916.8787],[32577559.1896,5776926.6154],[32577604.4188,5776972.5878],[32577623.9173,5776994.5212],[32577674.8865,5777063.5378],[32577703.3736,5777106.0154],[32577742.356,5777169.483],[32577759.0984,5777191.971],[32577776.8402,5777207.9613],[32577783.1607,5777210.2727],[32577797.3305,5777215.4546],[32577822.6124,5777212.763],[32577832.8624,5777212.6226],[32577858.2625,5777220.4543],[32577871.3858,5777228.4976],[32577875.7534,5777235.3275],[32577875.5437,5777235.4324],[32577882.2914,5777242.5763],[32577909.5281,5777271.4123],[32577922.034,5777283.0543],[32577924.0214,5777284.9045],[32577936.5156,5777293.8988],[32577950.0093,5777301.3934],[32577965.0023,5777305.3893],[32577978.9158,5777304.5917],[32577982.4939,5777304.3866],[32577993.2112,5777301.0001],[32578039.4233,5777312.6514],[32578221.2471,5777421.2151],[32578211.3877,5777450.793],[32578207.1402,5777482.7816],[32578208.3903,5777515.2692],[32578218.3863,5777552.2537],[32578235.8787,5777593.2357],[32578254.1206,5777628.7197],[32578266.6152,5777650.7096],[32578318.7812,5777729.1233],[32578349.0785,5777776.1512],[32578373.5678,5777818.1324],[32578389.8108,5777851.1181],[32578404.3046,5777885.1037],[32578414.8003,5777916.091],[32578419.7984,5777942.5806],[32578419.5491,5777972.5698],[32578415.5518,5778011.5562],[32578408.5558,5778053.042],[32578399.0609,5778089.0301],[32578352.5858,5778243.4805],[32578322.6015,5778333.9517],[32578302.862,5778402.4297],[32578294.3669,5778451.9131],[32578292.1184,5778485.9014],[32578294.8678,5778516.89],[32578304.114,5778547.8777],[32578319.6073,5778573.8666],[32578338.349,5778595.3567],[32578361.3385,5778612.8478],[32578389.076,5778625.8399],[32578417.063,5778633.8338],[32578441.8016,5778636.8299],[32578466.2902,5778635.8275],[32578493.7774,5778631.3261],[32578556.9984,5778650.3126],[32578580.7376,5778661.3063],[32578596.4805,5778670.8014],[32578617.2211,5778689.7928],[32578625.9674,5778700.7881],[32578634.9636,5778718.2812],[32578654.5967,5778777.3137],[32578672.1987,5778830.2392],[32578680.6951,5778843.7339],[32578692.19,5778851.7301],[32578704.4344,5778855.7276],[32578715.4293,5778857.2261],[32578740.6676,5778856.2242],[32578753.9115,5778853.224],[32578778.6499,5778844.225],[32578794.6424,5778840.7248],[32578811.6345,5778839.7238],[32578827.1274,5778842.7214],[32578842.1207,5778849.218],[32578871.6076,5778871.2084],[32578883.3525,5778883.7032],[32578893.3482,5778899.1973],[32578902.5944,5778920.1896],[32578906.8431,5778946.6804],[32578904.095,5778976.1708],[32578891.6024,5779044.6489],[32578889.6041,5779078.1379],[32578892.1035,5779105.1288],[32578897.1017,5779125.6217],[32578902.5995,5779140.6163],[32578910.0964,5779152.6118],[32578921.3415,5779164.6071],[32579009.553,5779240.5767],[32579013.8015,5779263.0691],[32579024.7974,5779301.556],[32579045.0391,5779339.5425],[32579060.0328,5779361.0349],[32579077.7753,5779382.0271],[32579122.7364,5779430.6797],[32579205.7207,5779520.4774],[32579219.465,5779538.9711],[32579229.4609,5779558.9644],[32579237.4579,5779581.457],[32579250.7015,5779566.9611],[32579261.6963,5779551.9655],[32579270.6917,5779534.9705],[32579284.1549,5779489.0059],[32579289.4317,5779470.9902],[32579296.1782,5779456.4945],[32579305.9235,5779443.4983],[32579316.2179,5779436.9262],[32579329.6753,5779389.8227],[32579331.8202,5779391.0622],[32579384.0894,5779421.0473],[32579385.2961,5779421.7369],[32579336.6469,5779500.7944],[32579334.4125,5779510.9763],[32579326.1667,5779532.9696],[32579312.9234,5779558.4619],[32579287.1859,5779597.9502],[32579281.2741,5779605.2789],[32579269.4444,5779619.9439],[32579312.6769,5779694.9192],[32579333.4184,5779723.4099],[32579356.4086,5779744.4029],[32579384.8963,5779762.3968],[32579444.6204,5779790.887],[32579479.1053,5779800.8836],[32579520.8369,5779807.8811],[32579586.8078,5779813.8792],[32579613.7959,5779817.878],[32579697.0096,5779835.8733],[32579729.7455,5779843.8713],[32579755.2343,5779841.8723],[32579780.9729,5779843.8723],[32579828.2027,5779856.8695],[32579861.1732,5779893.787],[32579874.1841,5779908.3554],[32579909.9196,5779942.3463],[32579946.9042,5779968.8398],[32579998.1328,5779996.8347],[32580023.3723,5780006.8331],[32580051.8631,5780012.3435],[32580091.0754,5780015.0412],[32580161.0751,5780019.857],[32580191.3126,5780026.855],[32580219.0513,5780038.8514],[32580246.5403,5780054.347],[32580308.2661,5780092.8361],[32580374.7407,5780140.3232],[32580452.4621,5780216.3026],[32580475.2037,5780239.2965],[32580522.6871,5780298.2806],[32580564.9222,5780346.7681],[32580604.1584,5780384.7588],[32580672.8843,5780437.747],[32580711.6208,5780463.2417],[32580757.105,5780488.2374],[32580802.5892,5780510.234],[32580842.5754,5780526.7319],[32580881.8119,5780540.231],[32581066.9997,5780593.2302],[32581136.7266,5780595.2358],[32581165.9671,5780594.2388],[32581198.0965,5780590.1005],[32581278.4304,5780579.7536],[32581298.6739,5780580.7553],[32581317.9179,5780584.2561],[32581355.656,5780596.2561],[32581406.1402,5780618.2543],[32581454.8753,5780647.2503],[32581471.1202,5780661.7474],[32581493.1505,5780687.5602],[32581513.3573,5780711.2364],[32581529.1024,5780726.7332],[32581565.0913,5780755.7279],[32581581.5863,5780766.2262],[32581603.0797,5780777.225],[32581674.1766,5780809.326],[32581715.7307,5780828.0881],[32581761.2808,5780856.216],[32581778.809,5780869.7621],[32581783.2741,5780873.2129],[32581856.751,5780941.1987],[32581912.8386,5780996.1314],[32581965.4664,5781047.6755],[32582075.1807,5781144.1547],[32582106.4205,5781165.6505],[32582146.4075,5781187.6469],[32582228.1309,5781229.1404],[32582282.863,5781253.6369],[32582322.5205,5781259.1239],[32582418.8748,5781272.4556],[32582478.0506,5781280.6432],[32582521.0365,5781291.1429],[32582525.5767,5781292.524],[32582563.7664,5781304.1415],[32582600.079,5781317.6338],[32582606.4833,5781320.4125],[32582637.0047,5781333.655],[32582794.2313,5781403.6767],[32582859.7083,5781435.1633],[32582973.1509,5781472.3091],[32583009.6519,5781486.328],[32583157.6386,5781552.812],[32583200.386,5781575.7556],[32583231.8678,5781595.2474],[32583262.7876,5781617.7381],[32583306.049,5781654.3913],[32583320.1948,5781671.9445],[32583358.5537,5781719.5432],[32583383.2874,5781747.0319],[32583406.2762,5781769.0201],[32583429.7695,5781786.2308],[32583453.014,5781798.7572],[32583470.2711,5781805.8315],[32583474.753,5781807.6688],[32583523.1616,5781820.4479],[32583561.2479,5781830.502],[32583583.7478,5781837.7564],[32583637.7139,5781861.0992],[32583667.4801,5781876.2528],[32583687.442,5781889.7606],[32583701.6845,5781904.2568],[32583741.3742,5781951.9224],[32583766.618,5781987.3707],[32583786.8871,5782012.488],[32583810.9023,5782035.1102],[32583836.8822,5782054.6113],[32583865.6282,5782072.6085],[32583899.8702,5782088.6134],[32583967.4426,5782107.9764],[32584144.2996,5782158.655],[32584155.4275,5782162.1604],[32584258.4516,5782194.6141],[32584320.9241,5782218.1063],[32584343.9137,5782232.5936],[32584387.3886,5782265.0452],[32584401.3796,5782277.5238],[32584420.5319,5782298.7116],[32584445.5999,5782326.4439],[32584463.0893,5782343.4168],[32584485.0772,5782359.3908],[32584515.3127,5782376.8644],[32584593.2835,5782412.8307],[32584757.4902,5782474.349],[32584808.472,5782497.3473],[32584824.2163,5782508.3429],[32584834.9625,5782521.3375],[32584871.553,5782573.2399],[32584912.1807,5782620.311],[32584985.6645,5782692.3074],[32585031.1517,5782702.0686],[32585100.3798,5782710.9092],[32585126.621,5782716.5237],[32585153.1117,5782727.0835],[32585179.8514,5782747.0671],[32585205.5899,5782773.0474],[32585227.0787,5782799.5283],[32585287.0406,5782879.8128],[32585383.7398,5782998.5461],[32585414.9714,5783032.6429],[32585441.4698,5783058.1453],[32585467.2093,5783072.6449],[32585497.4472,5783083.1427],[32585527.435,5783090.1401],[32585575.5437,5783094.7114],[32585622.1458,5783099.1396],[32585642.887,5783103.1418],[32585662.1289,5783110.1454],[32585681.1208,5783119.651],[32585697.6138,5783130.1579],[32585709.6087,5783141.165],[32585734.0981,5783171.6861],[32585757.5877,5783197.7093],[32585783.3265,5783215.7321],[32585819.3111,5783234.761],[32585840.5521,5783242.2751],[32585864.0425,5783248.2881],[32585889.6362,5783253.3298],[32585920.0145,5783259.314],[32585977.7512,5783278.8501],[32585999.4935,5783287.3996],[32586043.7291,5783311.0733],[32586067.4713,5783325.1793],[32586112.4546,5783355.3512],[32586129.1976,5783362.3888],[32586178.1758,5783373.4417],[32586215.6577,5783383.9347],[32586253.6386,5783397.3855],[32586283.8731,5783412.8184],[32586308.3611,5783431.7511],[32586332.1027,5783453.201],[32586362.088,5783486.0669],[32586381.3307,5783518.195],[32586399.8268,5783555.636],[32586406.1951,5783577.5458],[32586414.569,5783606.3561],[32586427.0633,5783634.3404],[32586447.5562,5783668.3206],[32586460.3012,5783680.3126],[32586475.0451,5783686.7612],[32586492.288,5783690.1732],[32586518.9988,5783692.8975],[32586544.5163,5783695.5001],[32586584.2496,5783692.9588],[32586669.7261,5783677.1619],[32586689.4552,5783673.5157],[32586706.9478,5783672.5134],[32586723.9409,5783673.9947],[32586738.4349,5783677.4646],[32586748.6807,5783682.427],[32586755.1782,5783688.8817],[32586759.1768,5783697.3251],[32586759.6768,5783705.7703],[32586746.9328,5783735.0866],[32586741.5822,5783763.6743],[32586738.1877,5783781.8111],[32586733.6899,5783796.7278],[32586727.1929,5783810.1528],[32587030.3872,5783895.4193],[32579651.2865,5783768.3011],[32568262.4637,5783598.296],[32568342.1177,5777812.9604]]]],"crs":{"type":"EPSG","properties":{"code":4647}}},"properties":{"FL_NR":2125,"BR":4,"BR_NAME":"BERGVORLAND","TKNR":3926,"TKNAME":"Bad Salzdetfurth","UP_DATE":"2018-09-06T14:12:10.0000000"}}]}