{"type": "FeatureCollection","features":[{"type":"Feature","geometry":{"type":"Polygon","coordinates":[[[32557092.5088,5803979.1123],[32556988.6912,5804121.4678],[32556976.2253,5804140.9478],[32556965.3178,5804171.3366],[32556954.4102,5804200.9461],[32556940.3862,5804228.218],[32556911.5588,5804272.6324],[32556874.1611,5804327.9554],[32556844.944,5804367.6945],[32556831.6989,5804381.72],[32556824.6348,5804387.6073],[32556805.2087,5804406.6542],[32556672.1867,5804603.595],[32556505.2484,5804842.9927],[32556424.1053,5804964.7123],[32556308.9099,5805137.5122],[32556180.8703,5805338.515],[32556174.9008,5805347.886],[32555951.4473,5805690.1962],[32546288.0103,5805590.1208],[32546283.2841,5805522.3049],[32546281.0344,5805509.8101],[32546276.036,5805499.3151],[32546268.2887,5805491.3197],[32546245.0473,5805479.3286],[32546230.053,5805475.3329],[32546208.2978,5805470.4751],[32545945.9062,5805411.8854],[32545908.1687,5805395.392],[32545882.9261,5805377.8959],[32545867.4296,5805359.8978],[32545859.93,5805342.8982],[32545857.9287,5805327.8986],[32545859.1768,5805315.8995],[32545862.9242,5805305.4011],[32545866.6582,5805285.4044],[32545871.4028,5805271.9077],[32545879.1533,5805256.4123],[32545890.1566,5805239.9201],[32545905.6643,5805223.4312],[32545941.9115,5805195.8343],[32545965.3935,5805177.9562],[32545980.3841,5805164.4589],[32546004.6229,5805137.9628],[32546044.8541,5805080.4636],[32546104.5756,5804984.4352],[32546111.4834,5804976.8259],[32546146.8063,5804937.9159],[32546206.5213,5804879.9218],[32546240.4947,5804851.4281],[32546274.729,5804826.9341],[32546307.4761,5804810.4385],[32546337.732,5804799.4414],[32546391.981,5804784.9419],[32546442.2116,5804779.9282],[32546492.4431,5804782.4148],[32546546.4227,5804790.9072],[32546636.8867,5804810.8988],[32546673.877,5804816.3932],[32546716.1331,5804819.8885],[32546764.906,5804821.3845],[32546879.9886,5804814.8883],[32546988.9851,5804805.3679],[32547108.6801,5804793.359],[32547144.9139,5804787.8556],[32547169.4034,5804789.3509],[32547207.6373,5804794.8418],[32547251.8686,5804794.8322],[32547274.1091,5804790.3282],[32547294.8502,5804781.3253],[32547366.3196,5804741.3121],[32547423.0457,5804715.2957],[32547453.0331,5804705.2855],[32547483.0206,5804698.2748],[32547513.0081,5804695.2635],[32547544.9949,5804696.751],[32547657.1981,5804713.7085],[32547696.6813,5804717.6956],[32547735.1644,5804717.186],[32547772.1474,5804711.1808],[32547806.1147,5804697.6991],[32547815.8972,5804690.0265],[32547829.4183,5804679.4216],[32547859.2875,5804655.9946],[32547883.8943,5804636.695],[32547938.3378,5804596.2004],[32547950.0648,5804589.6992],[32547975.8182,5804581.3257],[32547997.7508,5804574.1945],[32548018.0251,5804565.7051],[32548040.0226,5804553.2109],[32548064.2623,5804536.2183],[32548090.5009,5804512.2299],[32548145.726,5804454.7601],[32548199.4501,5804391.7951],[32548248.4243,5804324.3327],[32548269.912,5804289.8513],[32548288.9002,5804254.37],[32548316.8813,5804193.9004],[32548335.1174,5804146.9228],[32548341.8615,5804125.4327],[32548367.4262,5804031.0474],[32548388.5647,5803953.0039],[32548397.8065,5803929.0123],[32548403.3023,5803919.5154],[32548422.289,5803894.0227],[32548454.7678,5803861.0305],[32548476.7545,5803844.0333],[32548502.2397,5803829.5347],[32548531.2239,5803818.0342],[32548560.7086,5803810.5321],[32548592.6327,5803804.3473],[32548661.4078,5803791.0232],[32548682.1471,5803784.0226],[32548701.1369,5803774.0237],[32548718.3773,5803760.5266],[32548734.6181,5803744.0312],[32548764.851,5803707.0443],[32548792.8359,5803665.0636],[32548819.9013,5803618.954],[32548848.5634,5803570.1241],[32548868.3075,5803542.1432],[32548915.7953,5803485.1811],[32548941.0395,5803458.6982],[32548966.2837,5803435.2131],[32548990.2781,5803415.7252],[32549011.5231,5803401.7338],[32549037.1443,5803388.3815],[32549064.2596,5803374.2505],[32549092.7527,5803356.2612],[32549117.2477,5803332.7747],[32549128.4959,5803317.7832],[32549144.4944,5803287.3003],[32549168.241,5803249.3212],[32549182.4884,5803230.3317],[32549197.2351,5803214.3405],[32549212.2311,5803203.3466],[32549229.226,5803195.8509],[32549293.2053,5803174.8637],[32549314.4484,5803165.8692],[32549333.1923,5803155.3756],[32549347.9377,5803142.3833],[32549357.6852,5803125.8928],[32549372.9319,5803083.4173],[32549383.1791,5803060.4308],[32549396.4249,5803037.4449],[32549413.6687,5803016.9583],[32549435.4103,5803000.4701],[32549462.8992,5802988.9802],[32549496.6351,5802984.9873],[32549474.1758,5802975.5024],[32549425.256,5802954.8427],[32549411.3178,5802948.9564],[32549366.4407,5802930.0041],[32549361.9946,5802885.849],[32549359.2155,5802858.2491],[32549357.5818,5802842.0239],[32549344.4527,5802711.6344],[32549240.9979,5802608.1812],[32549246.4163,5802322.1359],[32549247.4628,5802266.887],[32549454.6232,5802266.9496],[32549470.12,5802090.3944],[32549475.1183,5802059.869],[32549483.1153,5802033.3433],[32549493.3611,5802010.8204],[32549505.356,5801991.8023],[32549518.1005,5801975.2907],[32549521.9863,5801970.9957],[32549540.3701,5801950.6765],[32549553.8345,5801935.7946],[32549562.5801,5801923.7991],[32549574.5732,5801897.3096],[32549580.3188,5801873.3193],[32549582.5664,5801856.3262],[32549587.0633,5801844.8306],[32549606.0506,5801813.3417],[32549621.3323,5801792.6682],[32549632.2831,5801777.8536],[32549675.5697,5801725.0984],[32549703.2365,5801691.3798],[32549714.9788,5801674.3849],[32549724.7222,5801656.8905],[32549731.2174,5801639.8962],[32549731.5078,5801637.7001],[32549733.4649,5801622.9024],[32549729.9655,5801607.4087],[32549720.2194,5801594.4148],[32549704.2267,5801584.4207],[32549684.2362,5801576.9259],[32549661.2475,5801571.4307],[32549627.38,5801566.0963],[32549569.2936,5801556.9473],[32549549.8031,5801548.9527],[32549529.0627,5801535.4603],[32549508.072,5801517.9695],[32549470.5878,5801479.9885],[32549447.5484,5801453.5378],[32549443.5989,5801449.0036],[32549340.6017,5801584.0491],[32549303.7515,5801632.3655],[32549273.9577,5801671.4299],[32549230.9913,5801611.5943],[32549225.4314,5801603.8514],[32549212.2333,5801585.4715],[32549231.07,5801559.9927],[32549256.2064,5801525.9926],[32549228.8565,5801516.378],[32549214.6623,5801511.3881],[32549201.5081,5801506.7638],[32549124.02,5801479.5235],[32549111.7795,5801549.4945],[32549104.5331,5801616.4744],[32549103.2833,5801651.9808],[32549105.0318,5801718.5084],[32549103.2821,5801746.0242],[32549099.5332,5801769.539],[32549094.5349,5801788.0511],[32549080.0404,5801821.5711],[32549058.4465,5801797.2735],[32549044.0586,5801781.0841],[32549015.2683,5801748.6892],[32549008.071,5801740.5908],[32548972.0881,5801700.1027],[32548846.6431,5801572.1435],[32548782.1713,5801500.6632],[32548760.4308,5801473.1688],[32548730.4442,5801424.6731],[32548717.9498,5801399.673],[32548662.7246,5801271.1715],[32548646.7316,5801239.176],[32548634.9866,5801221.6808],[32548620.243,5801204.1873],[32548601.2511,5801186.6955],[32548577.5112,5801169.2058],[32548537.3888,5801144.2051],[32548504.5422,5801123.7381],[32548492.5473,5801114.2432],[32548481.0522,5801102.2481],[32548469.3073,5801086.2528],[32548439.3201,5801037.7666],[32548394.5889,5800970.2936],[32548313.1222,5800853.8489],[32548308.2954,5800854.9293],[32548277.3881,5800861.8477],[32548191.1742,5800876.3733],[32548056.229,5800886.4494],[32547962.5165,5800893.4468],[32547931.5292,5800894.9445],[32547870.3045,5800891.4397],[32547819.0762,5800884.939],[32547784.0933,5800878.4171],[32547760.0208,5800875.1161],[32547605.6797,5800853.952],[32547700.3774,5800792.4548],[32547756.3513,5800759.4955],[32547779.5917,5800748.0031],[32547823.3241,5800734.5086],[32547845.0654,5800730.5074],[32547883.0503,5800726.5002],[32547909.7896,5800725.992],[32547955.7711,5800732.9743],[32548015.9968,5800739.4471],[32548075.9722,5800742.9211],[32548099.2126,5800741.4138],[32548134.1978,5800734.911],[32548270.3826,5800703.4151],[32548515.749,5800641.9177],[32548610.4477,5800615.9178],[32548626.439,5800607.4194],[32548635.9333,5800595.9227],[32548639.9303,5800582.9271],[32548640.1792,5800569.4323],[32548637.9294,5800556.9373],[32548630.4316,5800536.4458],[32548637.4069,5800534.8779],[32548699.3983,5800520.9439],[32548745.3771,5800513.9413],[32548766.8674,5800512.4394],[32548784.8596,5800513.4369],[32548797.854,5800517.4339],[32548806.6002,5800523.9304],[32548811.848,5800531.4269],[32548814.597,5800538.9239],[32548815.3469,5800551.9189],[32548842.1503,5800546.674],[32548844.8821,5800546.1394],[32548871.5724,5800540.9167],[32548898.3805,5800535.6709],[32548901.106,5800535.1376],[32548927.7989,5800529.9144],[32548930.4476,5800514.4229],[32548932.2153,5800504.0844],[32548935.7461,5800483.4345],[32548936.6307,5800478.2609],[32548938.8073,5800465.531],[32548941.0452,5800452.4428],[32548947.2935,5800428.4514],[32548956.2908,5800403.4604],[32548979.2832,5800357.9762],[32549009.5221,5800311.4913],[32549021.7661,5800359.4717],[32549031.0107,5800420.4463],[32549037.7558,5800488.9185],[32549044.9993,5800623.8652],[32549046.7481,5800728.3251],[32549046.7507,5800829.7867],[32549047.0154,5800835.0759],[32549050.0022,5800894.7617],[32549057.0031,5800958.7366],[32549071.0016,5801027.7087],[32549082.2489,5801061.1946],[32549096.9943,5801092.6809],[32549113.7385,5801121.6678],[32549131.7316,5801147.1559],[32549149.7244,5801168.1458],[32549166.4673,5801183.6379],[32549181.2105,5801193.1326],[32549192.4549,5801195.6303],[32549200.7,5801189.6317],[32549207.6952,5801177.1357],[32549212.9408,5801158.1422],[32549216.9369,5801134.6507],[32549219.9311,5801076.6725],[32549216.6792,5801012.6971],[32549211.4303,5800979.7102],[32549203.4328,5800947.2235],[32549193.1866,5800915.2368],[32549181.1913,5800884.7498],[32549155.7017,5800832.2728],[32549124.9646,5800784.2947],[32549120.9664,5800772.7995],[32549119.7169,5800762.3036],[32549120.7165,5800753.3069],[32549124.7149,5800739.3118],[32549128.4633,5800734.8132],[32549192.9373,5800704.8175],[32549293.648,5800664.8234],[32549337.1307,5800645.8211],[32549358.8723,5800635.3136],[32549399.3573,5800610.2991],[32549417.1011,5800595.7964],[32549433.5956,5800578.7983],[32549449.8406,5800557.8066],[32549478.8317,5800512.8372],[32549503.9884,5800466.0388],[32549507.5712,5800459.3737],[32549542.1446,5800429.3766],[32549563.1683,5800408.3814],[32549585.3841,5800382.3938],[32549606.1262,5800352.4741],[32549623.6224,5800319.0231],[32549635.3703,5800282.9909],[32549680.7533,5800087.4887],[32549682.2078,5800081.2229],[32549686.0903,5800064.498],[32549722.82,5800097.9803],[32549761.5569,5800141.9586],[32549764.4745,5800146.8363],[32549775.3086,5800164.9485],[32549781.567,5800185.9406],[32549776.582,5800203.4355],[32549752.3503,5800237.9268],[32549728.3389,5800281.4135],[32549717.3358,5800305.9061],[32549700.3409,5800359.4753],[32549694.8408,5800388.9933],[32549687.8388,5800452.4015],[32549681.3684,5800552.2757],[32549679.5526,5800580.3031],[32549717.8474,5800574.2985],[32549770.5511,5800570.2995],[32549799.5384,5800571.3354],[32549827.777,5800574.8747],[32549853.5169,5800582.895],[32549869.643,5800590.0782],[32549924.2386,5800614.3974],[32549968.503,5800636.3303],[32550020.9487,5800662.317],[32550113.6588,5800713.7159],[32550149.3929,5800737.1888],[32550181.9976,5800765.2866],[32550209.1163,5800788.6568],[32550228.1079,5800800.6483],[32550246.1005,5800809.1424],[32550262.8453,5800813.1383],[32550277.093,5800811.6368],[32550287.8435,5800803.1383],[32550294.3456,5800787.6432],[32550301.2857,5800744.0492],[32550305.3267,5800718.6656],[32550311.0509,5800692.6731],[32550320.0107,5800664.6799],[32550332.9629,5800636.1864],[32550351.1781,5800606.1939],[32550375.9388,5800575.7079],[32550390.4752,5800561.6652],[32550404.9357,5800547.6959],[32550435.4252,5800524.6668],[32550466.4116,5800505.1393],[32550496.8983,5800488.6208],[32550543.5488,5800467.26],[32550576.6265,5800452.1141],[32550614.9965,5800429.6205],[32550657.5727,5800400.6272],[32550678.7841,5800382.631],[32550698.7995,5800362.6593],[32550716.2146,5800340.6844],[32550730.1229,5800316.1816],[32550739.6582,5800289.1847],[32550744.9141,5800261.6927],[32550747.1558,5800235.6985],[32550747.0937,5800210.7042],[32550744.4865,5800186.2109],[32550739.3626,5800162.7186],[32550723.3702,5800116.2367],[32550673.6239,5800016.2822],[32550649.1329,5799962.8071],[32550632.3888,5799913.829],[32550628.8899,5799892.338],[32550628.8896,5799872.8457],[32550631.8881,5799853.8529],[32550637.1357,5799835.3594],[32550653.785,5799793.803],[32550666.3729,5799762.3838],[32550668.122,5799750.8881],[32550668.6214,5799722.8991],[32550664.1225,5799674.4187],[32550646.6448,5799639.4669],[32550615.6403,5799577.4645],[32550654.6241,5799535.4751],[32550709.8514,5799482.4874],[32550741.0886,5799455.4932],[32550772.8256,5799431.9975],[32550803.0632,5799414.4996],[32550926.0134,5799354.004],[32550990.4872,5799327.0043],[32551022.4744,5799316.5034],[32551054.2116,5799308.5014],[32551086.6986,5799302.4985],[32551119.9352,5799298.4948],[32551182.6602,5799293.9864],[32551248.1341,5799292.9762],[32551261.098,5799296.7472],[32551315.1077,5799312.4577],[32551355.5917,5799322.4473],[32551384.3304,5799331.9388],[32551431.0621,5799350.4241],[32551441.4503,5799326.6462],[32551455.3015,5799294.9416],[32551469.5457,5799281.9443],[32551479.2917,5799277.9443],[32551502.0326,5799272.9425],[32551532.6869,5799270.9382],[32551548.0141,5799269.936],[32551559.7595,5799267.435],[32551583.7497,5799258.4346],[32551606.9903,5799245.9355],[32551627.232,5799231.4378],[32551636.2282,5799221.4401],[32551653.9707,5799192.4484],[32551670.4636,5799154.96],[32551691.2044,5799098.9782],[32551704.6983,5799054.4931],[32551725.9385,5798967.0231],[32551735.434,5798917.5406],[32551737.4329,5798900.5468],[32551736.4331,5798887.0522],[32551732.4345,5798873.558],[32551718.4396,5798846.071],[32551695.6981,5798808.0895],[32551691.1998,5798797.0945],[32551689.9501,5798785.0993],[32551692.4489,5798771.604],[32551697.4466,5798757.1087],[32551711.9404,5798728.1174],[32551730.9323,5798695.6266],[32551733.6811,5798686.6297],[32551737.4289,5798643.6456],[32551737.4284,5798611.158],[32551737.4283,5798605.1603],[32551762.9179,5798587.1629],[32551795.6544,5798558.6682],[32551811.8976,5798540.1724],[32551825.8917,5798519.6778],[32551836.6371,5798497.1846],[32551843.1341,5798474.6921],[32551848.3407,5798444.4401],[32551853.6289,5798413.7136],[32551858.8766,5798396.2194],[32551867.6229,5798380.7238],[32551880.8674,5798367.2266],[32551900.6093,5798356.2274],[32551922.8503,5798346.7271],[32552016.0625,5798310.7245],[32552063.793,5798284.726],[32552109.0242,5798247.2322],[32552158.3737,5798196.1097],[32552178.9952,5798174.7474],[32552211.4819,5798153.2498],[32552228.9747,5798145.2497],[32552252.2168,5798137.2204],[32552299.4463,5798126.7441],[32552330.0655,5798124.0485],[32552396.1575,5798118.23],[32552415.3997,5798113.7283],[32552433.3924,5798107.2275],[32552457.132,5798092.979],[32552498.3658,5798068.2306],[32552526.6588,5798053.8286],[32552569.0869,5798032.2314],[32552668.2963,5797978.7337],[32552721.2746,5797945.2367],[32552781.9995,5797899.7428],[32552811.4873,5797874.2471],[32552835.7272,5797850.7515],[32552855.2191,5797828.7561],[32552871.4622,5797807.7611],[32552895.452,5797769.7709],[32552914.4438,5797734.2808],[32552937.9337,5797685.2948],[32552982.9141,5797583.3247],[32553017.8987,5797498.3499],[32553039.8891,5797449.864],[32553061.8796,5797401.378],[32553088.6185,5797377.382],[32553127.8523,5797347.8858],[32553151.3425,5797333.8867],[32553175.8326,5797322.3865],[32553203.0721,5797314.8842],[32553239.0637,5797309.8796],[32553289.5517,5797300.3739],[32553316.0453,5797294.3712],[32553361.7843,5797280.3682],[32553377.2805,5797271.3686],[32553387.7778,5797259.3712],[32553394.2759,5797245.3751],[32553397.5249,5797229.3806],[32553398.2741,5797196.3926],[32553394.2736,5797120.9212],[32553387.5246,5797087.9346],[32553375.027,5797051.9502],[32553366.2787,5797033.4586],[32553354.781,5797014.9676],[32553340.7842,5796996.9768],[32553311.0408,5796965.9938],[32553275.7987,5796936.5112],[32553293.5436,5796878.5293],[32553313.2877,5796799.5549],[32553323.7841,5796731.5781],[32553330.0317,5796665.6014],[32553331.2807,5796619.1183],[32553329.2806,5796568.6374],[32553323.0315,5796511.6596],[32553308.784,5796423.195],[32553307.5749,5796401.6034],[32553307.4646,5796399.6334],[32553297.7847,5796226.7697],[32553298.034,5796155.2962],[32553300.7829,5796107.8132],[32553305.7814,5796066.8274],[32553314.4257,5796024.5272],[32553325.265,5795971.4857],[32553329.2745,5795951.8655],[32553336.8048,5795959.3322],[32553390.7593,5796012.8312],[32553447.7454,5796072.2985],[32553497.7333,5796132.7667],[32553539.9161,5796189.2942],[32553544.7222,5796195.7347],[32553533.9756,5796248.2173],[32553526.9781,5796305.6974],[32553524.9791,5796339.6853],[32553524.9796,5796376.6717],[32553528.7297,5796447.6448],[32553536.4787,5796510.1203],[32553546.4771,5796565.5981],[32553597.7182,5796782.0091],[32553608.4753,5796890.5435],[32553610.3517,5796909.4758],[32553612.6526,5796932.6907],[32553619.2172,5796998.9254],[32553630.7183,5797187.8539],[32553719.6927,5797005.9049],[32553767.6785,5796898.9355],[32553797.6693,5796818.4597],[32553815.6634,5796757.9785],[32553824.4103,5796709.9946],[32553824.9093,5796670.5089],[32553822.4096,5796652.0162],[32553813.1612,5796613.032],[32553787.1661,5796533.066],[32553743.6748,5796406.1204],[32553720.4294,5796326.154],[32553705.932,5796259.1813],[32553695.9336,5796202.7039],[32553686.4349,5796131.2319],[32553683.4348,5796065.7565],[32553688.1826,5796001.2793],[32553694.6803,5795957.794],[32553713.1726,5795938.8002],[32553740.9175,5795910.3028],[32553787.1546,5795862.8117],[32553808.1496,5795899.2944],[32553831.8938,5795931.7781],[32553846.1403,5795947.7696],[32553862.1363,5795962.2614],[32553878.3822,5795974.254],[32553910.124,5795990.7421],[32553926.8696,5795996.2371],[32553964.1099,5796003.2277],[32554009.8476,5796008.2176],[32554091.0757,5796009.2028],[32554131.0648,5796006.6966],[32554149.8095,5796003.1945],[32554184.2998,5795990.6931],[32554200.2952,5795981.6934],[32554230.7861,5795958.6965],[32554245.7816,5795944.699],[32554273.773,5795913.7054],[32554298.5153,5795880.2132],[32554320.0084,5795845.2221],[32554338.2523,5795807.7325],[32554388.8634,5795689.106],[32554402.2302,5795657.7759],[32554402.2276,5795543.3174],[32554409.4732,5795450.3498],[32554420.4685,5795386.8709],[32554428.7154,5795355.8807],[32554465.7039,5795333.8823],[32554498.4434,5795308.3859],[32554513.9384,5795293.3886],[32554539.9296,5795258.8966],[32554562.6718,5795221.9062],[32554580.6653,5795182.9172],[32554587.4128,5795163.4231],[32554591.9109,5795142.9297],[32554594.1025,5795106.6012],[32554591.659,5795062.4588],[32554585.16,5795025.4733],[32554580.1612,5795007.4806],[32554567.4144,5794974.4947],[32554550.4189,5794940.51],[32554540.9214,5794921.5186],[32554522.9261,5794881.5362],[32554509.4294,5794840.5534],[32554503.1804,5794800.569],[32554497.6809,5794742.0911],[32554498.6797,5794698.6068],[32554501.4286,5794690.1093],[32554510.9253,5794673.1139],[32554534.1673,5794639.6219],[32554553.1609,5794620.1257],[32554573.4043,5794607.6266],[32554609.1427,5794596.6245],[32554643.6316,5794591.6203],[32554673.8719,5794592.1148],[32554719.6073,5794597.6052],[32554764.0927,5794597.0979],[32554799.3311,5794591.5939],[32554818.8244,5794586.5925],[32554864.5588,5794571.0906],[32554882.5525,5794559.5918],[32554888.5504,5794552.0935],[32554895.7974,5794531.5997],[32554900.2952,5794502.6094],[32554903.2931,5794466.6219],[32554904.2919,5794427.6358],[32554902.5414,5794388.1503],[32554897.542,5794348.1656],[32554882.5452,5794269.1965],[32554844.8449,5794105.1418],[32554838.5555,5794077.773],[32554876.0426,5794070.7693],[32554893.5366,5794069.2669],[32554933.023,5794068.7605],[32554953.2661,5794070.7565],[32554994.502,5794079.7466],[32555015.9945,5794086.2407],[32555037.4873,5794094.2344],[32555079.7229,5794115.72],[32555099.7162,5794129.7119],[32555118.4599,5794145.7032],[32555136.454,5794165.1934],[32555153.6985,5794187.6827],[32555185.1886,5794239.1594],[32555198.9344,5794266.6474],[32555220.9279,5794319.6252],[32555228.6759,5794344.1153],[32555251.8948,5794338.7603],[32555295.9008,5794328.6111],[32555363.1253,5794313.107],[32555391.4146,5794248.5014],[32555405.1243,5794217.1919],[32555412.0874,5794201.2899],[32555424.8477,5794172.1487],[32555424.8431,5794020.2028],[32555423.5933,5794010.2066],[32555419.8444,5794000.7105],[32555413.3466,5793991.2148],[32555403.85,5793982.2194],[32555391.1046,5793973.7242],[32555374.6107,5793966.2293],[32555354.3682,5793959.7345],[32555297.6392,5793948.7467],[32555255.6546,5793943.7547],[32555065.9479,5793924.793],[32555025.9869,5793920.7988],[32555018.2396,5793919.3006],[32555010.992,5793915.803],[32555005.244,5793910.8058],[32555001.9949,5793904.3087],[32555001.9948,5793896.8113],[32555006.2431,5793888.3138],[32555016.2393,5793878.3157],[32555032.4833,5793868.3167],[32555121.9501,5793821.8192],[32555168.5981,5793798.6819],[32555214.2913,5793776.0182],[32555241.9048,5793762.322],[32555239.9048,5793735.332],[32555241.1539,5793718.8378],[32555244.9021,5793702.3431],[32555252.149,5793686.8475],[32555264.1442,5793674.8501],[32555281.6374,5793667.3501],[32555321.3722,5793657.8476],[32555375.6011,5793640.3459],[32555424.8316,5793618.8465],[32555452.8203,5793602.8482],[32555474.5613,5793584.3517],[32555492.0539,5793564.8563],[32555514.0443,5793535.8636],[32555527.6596,5793515.9964],[32555535.2431,5793504.9306],[32555565.7718,5793460.3834],[32555676.5237,5793415.4888],[32555700.2154,5793405.8851],[32555714.4593,5793397.8861],[32555742.447,5793377.8897],[32555772.9335,5793352.395],[32555779.3866,5793355.8676],[32555854.6499,5793396.3694],[32555901.6302,5793417.3565],[32555920.6221,5793422.8524],[32555932.454,5793422.9804],[32555966.3519,5793423.3472],[32555995.5889,5793421.8446],[32556055.2548,5793412.9838],[32556073.0535,5793410.3406],[32556092.6327,5793406.6207],[32556112.5351,5793402.8393],[32556118.2812,5793395.7516],[32556175.7534,5793324.8607],[32556191.0041,5793303.9056],[32556200.4908,5793290.8704],[32556209.7361,5793281.8726],[32556233.7243,5793265.3763],[32556260.9608,5793251.3788],[32556274.2043,5793246.8793],[32556299.4419,5793242.8785],[32556333.4253,5793243.8754],[32556376.3367,5793248.6479],[32556426.8098,5793257.6433],[32556482.2766,5793271.1368],[32556510.259,5793280.1327],[32556563.2255,5793300.6235],[32556609.6971,5793322.114],[32556660.1687,5793349.6021],[32556685.6558,5793369.5936],[32556697.6502,5793381.0888],[32556749.3793,5793438.0652],[32556785.3656,5793483.0466],[32556828.3492,5793544.5215],[32556926.4596,5793696.3003],[32556945.774,5793726.1801],[32557011.5299,5793827.9058],[32557051.5147,5793893.879],[32557064.7598,5793918.369],[32557080.9625,5793954.089],[32557118.49,5794036.8212],[32557143.4806,5794081.8029],[32557171.22,5794118.7878],[32557214.2035,5794165.2685],[32557229.6974,5794178.7629],[32557263.6842,5794204.2521],[32557305.9176,5794228.2418],[32557334.1565,5794242.2357],[32557432.6176,5794286.2165],[32557634.7877,5794366.6808],[32557729.5004,5794409.1775],[32557749.9924,5794420.6782],[32557770.2346,5794434.6781],[32557926.4236,5794548.6726],[32557896.6858,5794565.1625],[32557883.1913,5794570.6584],[32557854.2029,5794579.1506],[32557840.4584,5794579.6481],[32557792.9774,5794572.1415],[32557680.7719,5794549.1263],[32557593.5566,5794533.1158],[32557578.0629,5794532.6163],[32557556.9478,5794534.928],[32557536.3297,5794540.6139],[32557525.3341,5794546.1119],[32557516.088,5794552.1098],[32557509.3408,5794559.1072],[32557505.3425,5794566.6042],[32557503.5933,5794574.6011],[32557503.5936,5794595.0931],[32557509.8414,5794619.5833],[32557515.5893,5794632.578],[32557523.8362,5794645.5727],[32557541.214,5794667.6915],[32557554.0746,5794684.0607],[32557567.8193,5794705.0576],[32557576.0951,5794720.8241],[32557578.3154,5794725.0541],[32557635.0166,5794730.3002],[32557675.7766,5794734.0714],[32557789.4811,5794742.0907],[32557885.6925,5794742.6073],[32557932.4239,5794740.1158],[32557960.8519,5794735.8498],[32557974.6569,5794733.1248],[32558008.893,5794720.1342],[32558039.8804,5794702.1444],[32558080.6137,5794672.1598],[32558219.3096,5794779.646],[32558239.3017,5794793.6442],[32558299.2783,5794829.6404],[32558438.9735,5794904.1328],[32558483.2061,5794922.1317],[32558543.4322,5794939.1322],[32558550.3409,5794911.606],[32558552.3314,5794903.6752],[32558557.2492,5794884.0816],[32558561.2246,5794868.2424],[32558567.5043,5794843.2222],[32558574.4182,5794815.6752],[32558732.4885,5794904.4357],[32558758.2344,5794918.8927],[32558836.5655,5794963.1497],[32558847.5609,5794952.1542],[32558870.3017,5794937.1609],[32558882.7966,5794932.1636],[32558909.5359,5794927.1673],[32558940.2736,5794925.67],[32558980.0077,5794926.6726],[32559027.4888,5794930.1747],[32559073.7205,5794936.1758],[32559093.7125,5794940.1757],[32559109.956,5794945.6749],[32559139.5066,5794957.4659],[32559365.5074,5795047.6429],[32559391.8451,5795058.1519],[32559426.6568,5795070.9291],[32559500.8022,5795098.1431],[32559572.5238,5795121.638],[32559623.5037,5795133.636],[32559810.9293,5795161.1338],[32559889.9904,5795174.3414],[32559895.4568,5795175.2546],[32560053.3333,5795201.6287],[32560292.4889,5795267.6132],[32560360.2122,5795290.6072],[32560469.9189,5795331.5959],[32560498.5757,5795342.5934],[32560512.8959,5795348.089],[32560541.5607,5795359.0895],[32560555.8852,5795364.5867],[32560715.4954,5795437.4212],[32560738.8134,5795448.0619],[32560832.8544,5795498.5735],[32560961.2263,5795567.525],[32561168.0015,5795683.6354],[32561186.0366,5795693.7627],[32561298.5943,5795756.9671],[32561385.9653,5795815.1028],[32561424.0454,5795840.4408],[32561433.7917,5795863.932],[32561447.2866,5795883.4251],[32561456.7829,5795892.4221],[32561468.2785,5795899.9197],[32561480.7736,5795905.4182],[32561494.2683,5795908.4178],[32561524.7561,5795908.9194],[32561562.2411,5795901.9245],[32561609.2222,5795888.9326],[32561636.4612,5795879.4381],[32561664.4499,5795865.9453],[32561691.9389,5795850.4534],[32561717.1787,5795834.4616],[32561767.1464,5795798.2894],[32561772.4063,5795794.4817],[32561901.8553,5795841.9722],[32561939.8404,5795857.4688],[32562001.5661,5795886.9616],[32562026.0565,5795902.4573],[32562052.0465,5795921.4518],[32562159.005,5796007.4257],[32562182.2459,5796024.4208],[32562202.2381,5796036.9175],[32562219.7312,5796043.9161],[32562235.9747,5796045.9168],[32562251.7184,5796043.4192],[32562266.9624,5796038.4227],[32562290.3324,5796027.3084],[32562313.1937,5796016.436],[32562329.937,5796010.4401],[32562365.6726,5796000.9475],[32562404.1573,5795993.9542],[32562447.9073,5795989.9214],[32562493.1219,5795990.4647],[32562532.1064,5795996.4663],[32562544.3516,5795999.9662],[32562553.0982,5796004.4651],[32562561.8448,5796011.4632],[32562563.5941,5796014.962],[32562614.324,5796020.965],[32562660.3057,5796022.9693],[32562704.788,5796019.4758],[32562738.2746,5796008.4843],[32562750.7696,5796001.9885],[32562760.5156,5795993.9929],[32562767.7626,5795985.4974],[32562772.5105,5795976.0019],[32562775.0094,5795966.0065],[32562775.2593,5795955.5109],[32562773.7598,5795944.5154],[32562767.4782,5795924.5995],[32562756.0164,5795906.0296],[32562740.5224,5795892.0336],[32562727.6991,5795885.522],[32562675.5478,5795859.0399],[32562633.0381,5795841.8828],[32562609.8237,5795836.5419],[32562595.8293,5795835.041],[32562563.0922,5795835.5372],[32562546.099,5795838.534],[32562511.1131,5795847.5264],[32562474.8776,5795851.021],[32562437.6424,5795850.0175],[32562399.9073,5795845.5155],[32562362.672,5795837.5151],[32562325.9365,5795827.0158],[32562257.2135,5795801.02],[32562189.74,5795770.0265],[32562121.2668,5795735.5345],[32562058.2914,5795701.0432],[32562008.311,5795668.5523],[32561989.0685,5795653.5568],[32561959.5799,5795623.5667],[32561940.837,5795598.0757],[32561931.0907,5795580.5822],[32561929.5902,5795482.6229],[32561922.8617,5795362.9283],[32561922.3416,5795353.6764],[32561889.6035,5795265.7107],[32561878.6075,5795239.2208],[32561856.116,5795192.7386],[32561813.6321,5795123.7641],[32561767.7297,5795054.3606],[32561761.4019,5795044.7931],[32561864.8613,5795084.7855],[32561878.6059,5795090.7841],[32561914.342,5795111.2788],[32561955.076,5795138.7708],[32561991.8118,5795166.7624],[32562022.0501,5795193.7537],[32562069.786,5795232.1456],[32562150.0003,5795292.724],[32562198.4815,5795324.2156],[32562227.7201,5795345.2096],[32562413.6478,5795483.6702],[32562426.2888,5795471.1023],[32562457.8797,5795439.694],[32562470.7246,5795448.4317],[32562476.7691,5795452.5434],[32562485.7346,5795458.6422],[32562491.0476,5795462.2564],[32562502.6688,5795470.1618],[32562505.3269,5795471.97],[32562519.6056,5795481.683],[32562713.5299,5795605.1529],[32562720.3998,5795608.7135],[32562753.0851,5795625.6538],[32562761.637,5795630.0861],[32562768.5084,5795633.6474],[32562833.4819,5795580.6786],[32562879.2133,5795538.7028],[32562899.9549,5795517.2149],[32562927.1937,5795481.7341],[32562941.6876,5795454.2481],[32562948.6691,5795436.6769],[32562956.1813,5795411.2689],[32562961.179,5795381.7826],[32562968.3635,5795237.6192],[32562969.174,5795221.3549],[32563006.6587,5795176.8802],[32563038.0411,5795145.7262],[32563041.8943,5795141.901],[32563064.4049,5795130.7862],[32563065.7305,5795130.1317],[32563081.1081,5795122.5389],[32563103.6195,5795111.4237],[32563115.6146,5795095.9325],[32563125.1105,5795069.4459],[32563132.3573,5795035.4625],[32563141.6028,5794962.4971],[32563145.3506,5794902.0253],[32563163.5933,5794898.0299],[32563188.5834,5794900.0329],[32563202.0781,5794905.5325],[32563215.3229,5794915.53],[32563227.0685,5794930.5248],[32563259.0563,5794982.0064],[32563288.795,5795025.4911],[32563273.552,5795107.9513],[32563265.0569,5795167.2474],[32563244.4325,5795406.2919],[32563242.3179,5795430.8015],[32563245.6715,5795428.3192],[32563294.2968,5795392.3265],[32563330.2823,5795371.8412],[32563348.275,5795364.8472],[32563388.7589,5795355.8576],[32563432.7414,5795351.3665],[32563482.7215,5795349.3755],[32563517.9562,5795228.4359],[32563534.9487,5795158.9702],[32563540.1066,5795129.9373],[32563560.4367,5794992.5507],[32563565.6841,5794932.0795],[32563565.683,5794831.1262],[32563561.9327,5794661.7049],[32563534.9415,5794482.2851],[32563518.3937,5794392.8473],[32563507.2008,5794332.3519],[32563467.2142,5794092.9605],[32563592.8571,5794094.482],[32563606.8402,5794094.6513],[32563634.7414,5794094.9892],[32563676.6312,5794095.4964],[32563677.361,5794046.3399],[32563678.3563,5793979.3015],[32563679.5442,5793899.2924],[32563679.6216,5793894.0813],[32563680.1392,5793859.2161],[32563682.4842,5793701.2652],[32563683.5878,5793626.93],[32563685.3714,5793506.7907],[32563665.0547,5793499.8741],[32563626.2458,5793486.662],[32563601.6543,5793478.2901],[32563603.0935,5793462.7794],[32563604.1081,5793451.845],[32563606.1521,5793429.8156],[32563605.9021,5793417.3219],[32563603.153,5793403.8282],[32563598.1548,5793390.834],[32563595.4307,5793385.7264],[32563586.1593,5793368.3433],[32563575.1636,5793352.8493],[32563567.1665,5793330.8591],[32563556.4206,5793307.8689],[32563528.9309,5793258.3894],[32563496.4433,5793209.4088],[32563462.7062,5793165.4256],[32563445.4629,5793146.932],[32563408.4772,5793118.94],[32563375.74,5793101.943],[32563352.4991,5793092.4437],[32563330.2568,5792988.494],[32563282.0238,5792788.5909],[32563248.7868,5792768.5956],[32563236.5415,5792759.5982],[32563194.3079,5792723.6099],[32563086.0995,5792602.6553],[32563051.3628,5792566.1688],[32563018.8754,5792534.68],[32562984.6387,5792508.688],[32562965.896,5792497.6905],[32562945.6539,5792488.1921],[32562898.1726,5792473.1919],[32562847.9423,5792464.1878],[32562804.9593,5792459.6828],[32562772.8695,5792458.1779],[32562751.4805,5792457.1748],[32562722.2419,5792451.1729],[32562704.2489,5792426.1833],[32562682.5071,5792389.6992],[32562672.011,5792368.7087],[32562663.5141,5792346.719],[32562658.266,5792325.7296],[32562655.5167,5792286.2505],[32562656.7659,5792269.26],[32562660.0145,5792253.2692],[32562665.0124,5792240.2773],[32562672.0095,5792229.7842],[32562680.7559,5792221.7901],[32562691.5017,5792217.7942],[32562708.7449,5792223.794],[32562729.4868,5792237.2903],[32562759.4597,5792263.6488],[32562793.712,5792293.7708],[32562858.187,5792341.756],[32562918.4136,5792380.7455],[32562966.3282,5792406.6996],[32563035.6177,5792444.2319],[32563051.3616,5792455.2287],[32563063.8568,5792466.7247],[32563096.0937,5792436.2469],[32563139.3261,5792389.2802],[32563162.5666,5792360.7998],[32563184.0577,5792329.8206],[32563202.8,5792297.3418],[32563231.538,5792235.3811],[32563252.2792,5792185.9121],[32563268.7722,5792140.4403],[32563271.5769,5792147.6121],[32563284.0165,5792179.4214],[32563307.7577,5792231.3969],[32563322.7521,5792259.884],[32563339.2459,5792286.3723],[32563356.989,5792310.3623],[32563417.7157,5792378.8358],[32563459.6996,5792422.8194],[32563496.4353,5792458.3067],[32563525.4241,5792483.2983],[32563555.9124,5792514.7867],[32563585.1512,5792550.7726],[32563597.1466,5792568.2654],[32563606.6431,5792584.7581],[32563616.3894,5792613.2446],[32563624.6367,5792661.72],[32563627.2614,5792689.0859],[32563628.1357,5792698.2012],[32563738.8421,5792719.7098],[32563786.8231,5792731.2123],[32563854.2966,5792756.2113],[32563923.5196,5792788.7066],[32563817.81,5792647.2628],[32563744.8379,5792546.3037],[32563700.1049,5792474.3346],[32563670.8659,5792419.859],[32563646.375,5792365.3843],[32563636.8784,5792338.8971],[32563629.881,5792312.4104],[32563621.6337,5792256.9394],[32563619.1342,5792207.9659],[32563619.3836,5792173.9847],[32563667.865,5792220.4677],[32563716.0963,5792260.4543],[32563742.586,5792278.9488],[32563769.0756,5792294.9449],[32563800.3134,5792310.4419],[32563881.0318,5792346.4366],[32564024.7254,5792405.4301],[32564115.2127,5792498.9188],[32564205.6557,5792592.3618],[32564267.382,5792673.8295],[32564320.1118,5792737.8051],[32564401.3303,5792812.7803],[32564427.3202,5792833.2742],[32564452.3105,5792848.2709],[32564478.0504,5792859.2698],[32564532.2791,5792875.7709],[32564558.0189,5792878.774],[32564591.2556,5792876.7809],[32564681.7227,5793161.1514],[32564630.4944,5793298.0725],[32564586.7629,5793403.5111],[32564561.0235,5793454.4806],[32564530.0364,5793504.9494],[32564513.0433,5793528.9341],[32564476.3084,5793572.4054],[32564456.8163,5793590.8924],[32564434.8252,5793606.3805],[32564410.0852,5793618.8695],[32564384.0955,5793627.8601],[32564335.8648,5793639.3452],[32564300.379,5793643.8362],[32564314.6238,5793690.8154],[32564386.3475,5793903.7235],[32564458.3176,5793773.3019],[32564518.5426,5793670.3646],[32564537.2849,5793642.8818],[32564586.5148,5793578.9231],[32564665.238,5793485.5461],[32564674.9786,5793473.9923],[32564816.223,5794015.356],[32564875.6566,5794243.1542],[32564894.1502,5794322.6198],[32564904.1468,5794375.5964],[32564905.5571,5794416.1987],[32564906.6465,5794447.5627],[32564910.3952,5794470.0527],[32564918.1424,5794496.5417],[32564931.1375,5794527.0299],[32564950.6301,5794563.0167],[32564996.3628,5794638.9901],[32565059.8386,5794739.4558],[32565109.3197,5794809.9329],[32565124.5637,5794826.9281],[32565143.5564,5794844.4238],[32565189.5385,5794879.417],[32565240.5186,5794911.9124],[32565289.9991,5794937.4107],[32565323.9555,5794953.7927],[32565339.3311,5794961.2105],[32565361.7536,5794972.0281],[32565395.7076,5794988.409],[32565396.4583,5795079.8668],[32565397.9578,5795093.8606],[32565401.2067,5795105.8558],[32565407.2043,5795115.8525],[32565415.4511,5795125.3498],[32565459.4341,5795160.8426],[32565481.6754,5795183.8367],[32565505.1664,5795217.3261],[32565527.6579,5795258.312],[32565546.9006,5795302.2958],[32565561.3954,5795346.2787],[32565582.6378,5795432.2438],[32565597.5859,5795509.9304],[32565551.1295,5795510.7215],[32565461.5282,5795508.3654],[32565420.2336,5795506.0195],[32565382.0555,5795491.9878],[32565354.0062,5795475.621],[32565336.0858,5795454.5817],[32565324.3984,5795429.6482],[32565320.1129,5795407.8327],[32565323.2285,5795320.5748],[32565334.135,5795161.6421],[32565327.9007,5795050.2307],[32565307.6429,5795047.8891],[32565302.9682,5795065.0282],[32565300.9223,5795070.5806],[32565281.153,5795131.2465],[32565265.9622,5795378.2157],[32565257.3921,5795425.7387],[32565242.5889,5795465.4695],[32565224.7993,5795494.8529],[32565200.5157,5795519.9973],[32565181.0374,5795534.017],[32565163.1172,5795542.5833],[32565131.9516,5795550.3679],[32565069.6204,5795562.8205],[32564974.9445,5795579.6678],[32564792.2465,5795622.7542],[32564769.015,5795629.9895],[32564504.7441,5795712.2937],[32564282.6894,5795787.045],[32564225.7301,5795809.1763],[32564130.3678,5795846.2288],[32563977.3529,5795910.7004],[32563784.4305,5796000.4321],[32563623.149,5796084.5501],[32563480.8676,5796165.1537],[32563358.6321,5796236.4382],[32563186.2424,5796351.4131],[32563003.3461,5796481.0363],[32562790.6378,5796646.8344],[32562447.0279,5796945.8565],[32562337.6529,5797049.2737],[32562315.7045,5797042.0268],[32562264.2249,5797030.5275],[32562219.7426,5797028.5251],[32562171.5118,5797034.5194],[32562061.7708,5797052.692],[32562047.8114,5797055.0036],[32562034.3169,5797068.4976],[32562026.0702,5797073.9951],[32562002.0799,5797083.9899],[32561979.1084,5797089.5627],[32561966.0915,5797092.7205],[32561934.1071,5797100.4798],[32561920.3626,5797101.9785],[32561903.3693,5797101.4778],[32561881.878,5797099.4774],[32561505.7771,5797034.9857],[32561482.037,5797077.4692],[32561452.7993,5797134.947],[32561427.3103,5797195.9239],[32561419.8135,5797222.4139],[32561415.5655,5797245.9052],[32561411.8175,5797288.3896],[32561414.5669,5797324.3766],[32561418.8154,5797339.3712],[32561424.8132,5797352.3666],[32561442.8062,5797374.359],[32561478.2926,5797411.3464],[32561500.534,5797438.8369],[32561509.7805,5797452.8321],[32561516.7779,5797467.3271],[32561522.026,5797480.3225],[32561528.5236,5797504.3138],[32561530.773,5797526.8058],[32561528.2744,5797553.2961],[32561508.3312,5797643.8868],[32561501.5364,5797674.7517],[32561494.2899,5797718.7357],[32561492.5408,5797738.2287],[32561493.7908,5797776.7149],[32561496.2901,5797796.208],[32561503.0377,5797835.1942],[32561512.4896,5797875.2081],[32561325.8718,5798062.2373],[32561300.7354,5798063.8906],[32561252.3998,5798067.0699],[32561221.403,5798069.1087],[32561195.4982,5798071.8882],[32561039.7258,5798088.6023],[32560921.7731,5798097.6003],[32560903.2804,5798094.6015],[32560888.0365,5798086.1046],[32560875.7912,5798073.6091],[32560866.5447,5798058.1145],[32560860.047,5798040.1207],[32560856.5482,5798021.1273],[32560855.7983,5798002.6337],[32560857.7973,5797985.1396],[32560862.2952,5797965.6463],[32560904.0268,5797830.6926],[32560925.5181,5797816.1975],[32560941.2616,5797802.2022],[32560950.2578,5797786.7076],[32560964.5011,5797697.7386],[32560970.7451,5797646.0359],[32560975.2457,5797608.7698],[32560985.491,5797561.7863],[32561007.7312,5797486.8128],[32561001.3483,5797484.246],[32560960.4997,5797467.8195],[32560904.5219,5797450.8254],[32560869.0359,5797442.3285],[32560699.1454,5797407.302],[32560585.3985,5797383.8506],[32560502.6813,5797374.8546],[32560486.1879,5797371.356],[32560474.6925,5797366.8577],[32560467.4453,5797361.8595],[32560463.1969,5797356.8613],[32560460.9477,5797348.3643],[32560458.1987,5797339.3675],[32560458.9483,5797333.3696],[32560461.947,5797325.3722],[32560468.4443,5797316.3752],[32560479.6897,5797306.3786],[32560499.8924,5797293.1282],[32560571.9021,5797245.8988],[32560620.7672,5797210.1702],[32560632.682,5797201.4585],[32560654.6183,5797185.4196],[32560677.1091,5797166.4262],[32560686.6052,5797156.4296],[32560700.3495,5797134.9372],[32560703.3481,5797123.4412],[32560697.1005,5797112.945],[32560689.3535,5797104.448],[32560680.357,5797097.9503],[32560669.8611,5797093.4518],[32560657.8658,5797090.9528],[32560644.6211,5797089.9532],[32560629.6272,5797091.4526],[32560613.1338,5797094.4517],[32560583.3958,5797106.4476],[32560544.2057,5797134.2297],[32560524.17,5797148.4332],[32560509.4259,5797156.4304],[32560493.9322,5797162.4284],[32560477.9386,5797165.4275],[32560462.1949,5797165.9275],[32560429.9577,5797162.429],[32560358.4861,5797146.4353],[32560299.5093,5797124.4436],[32560176.8897,5797073.3089],[32560117.3311,5797048.4719],[32560090.0918,5797034.9769],[32560073.3483,5797020.9819],[32560065.6013,5797006.9867],[32560064.6015,5796993.9911],[32560068.5997,5796982.9948],[32560076.0966,5796973.4981],[32560084.5931,5796967.4999],[32560101.0895,5796963.3223],[32560201.0463,5796938.009],[32560194.2987,5796919.0156],[32560186.3018,5796910.0187],[32560175.3061,5796905.5204],[32560162.4032,5796902.2059],[32560156.5796,5796900.7099],[32560155.3304,5796900.389],[32560152.2579,5796899.5997],[32560148.0669,5796898.5231],[32560089.3404,5796896.0245],[32560042.1093,5796900.5234],[32559993.129,5796912.5198],[32559927.6554,5796941.5107],[32559908.9131,5796947.509],[32559889.9207,5796952.0076],[32559848.4374,5796957.0065],[32559817.2495,5796958.0066],[32559770.4686,5796959.5067],[32559755.2247,5796964.0054],[32559747.9777,5796970.5034],[32559747.478,5796978.0008],[32559751.7264,5796985.9981],[32559767.4702,5796999.9932],[32559802.3538,5797016.1172],[32559818.6339,5797023.6422],[32559834.5434,5797030.9959],[32559995.6305,5797105.4543],[32560043.1119,5797134.4437],[32560104.0881,5797178.4278],[32560088.0947,5797199.9208],[32560072.1014,5797221.4138],[32560056.1081,5797242.9068],[32560040.1148,5797264.3998],[32560011.113,5797284.2361],[32560005.6764,5797287.9545],[32559982.109,5797304.0738],[32559973.8208,5797309.7426],[32559914.4161,5797350.3736],[32559907.457,5797351.5602],[32559794.2144,5797370.8694],[32559729.2405,5797376.3692],[32559556.5596,5797381.8714],[32559525.3221,5797380.8724],[32559482.0894,5797376.3748],[32559460.0981,5797370.877],[32559453.8505,5797367.8781],[32559462.5858,5797394.366],[32559406.1576,5797359.8832],[32559358.5156,5797325.4762],[32559350.3913,5797328.393],[32559337.6464,5797326.3938],[32559322.4025,5797319.3964],[32559305.909,5797309.3998],[32559236.4361,5797261.9161],[32559186.2056,5797214.4318],[32559136.4747,5797156.4508],[32559059.6465,5797050.7263],[32558984.2829,5796947.0172],[32558965.2901,5796923.0247],[32558953.5446,5796911.5282],[32559013.0205,5796880.5382],[32559065.9987,5796848.0486],[32559097.2359,5796819.0578],[32559112.9793,5796799.564],[32559127.9731,5796778.0709],[32559141.2174,5796753.5787],[32559152.4626,5796727.587],[32559160.459,5796700.0959],[32559165.2067,5796671.6051],[32559164.7066,5796641.6147],[32559159.2083,5796609.6249],[32559149.7117,5796577.6351],[32559137.4661,5796545.6453],[32559123.7213,5796515.6548],[32559095.4819,5796465.1707],[32559083.4864,5796446.6766],[32559047.0004,5796398.6914],[32558927.0464,5796252.7355],[32558869.5694,5796247.7354],[32558801.8463,5796234.2376],[32558766.1104,5796221.7403],[32558736.662,5796207.1356],[32558705.6342,5796191.7475],[32558672.6472,5796179.25],[32558655.6539,5796175.2505],[32558638.4109,5796173.2503],[32558620.9178,5796173.2496],[32558584.9322,5796178.2464],[32558527.7055,5796195.2384],[32558486.2222,5796210.7315],[32558404.5055,5796247.7158],[32558362.0228,5796263.2085],[32558314.2919,5796272.7027],[32558289.552,5796274.7005],[32558244.57,5796275.6971],[32558224.0782,5796273.6961],[32558204.0862,5796270.1958],[32558184.8437,5796264.196],[32558165.8513,5796255.697],[32558146.8587,5796243.699],[32558128.116,5796228.7018],[32558093.8792,5796190.7099],[32558067.1393,5796153.2182],[32558049.896,5796124.7248],[32558045.3423,5796114.464],[32558008.4113,5796031.2476],[32557988.9187,5796004.7532],[32557960.4298,5795979.2574],[32557942.9367,5795967.2589],[32557923.4443,5795956.7596],[32557902.2026,5795948.2596],[32557879.9616,5795941.7588],[32557838.478,5795932.756],[32557789.6233,5795927.0014],[32557783.2501,5795926.2507],[32557724.274,5795943.7377],[32557673.5445,5795955.2271],[32557649.5543,5795958.7226],[32557628.8126,5795959.2193],[32557591.3276,5795954.7147],[32557572.0852,5795950.7127],[32557534.1003,5795937.7099],[32557499.114,5795919.7087],[32557483.3702,5795908.7089],[32557469.1258,5795896.2096],[32557444.1353,5795866.2132],[32557433.6394,5795850.2155],[32557417.3955,5795817.721],[32557408.3987,5795789.7267],[32557407.8987,5795776.2303],[32557410.6474,5795760.7348],[32557424.6413,5795727.7464],[32557434.887,5795713.2523],[32557446.632,5795700.258],[32557459.3767,5795691.2629],[32557472.3715,5795686.2667],[32557488.615,5795684.2703],[32557531.8476,5795683.7783],[32557611.3158,5795688.2908],[32557601.3194,5795664.2958],[32557598.3205,5795652.7984],[32557596.071,5795626.8052],[32557598.07,5795613.3092],[32557602.3182,5795601.3132],[32557615.0628,5795581.8208],[32557638.553,5795562.83],[32557639.8405,5795562.7923],[32557645.3272,5795557.5954],[32557654.0466,5795549.3363],[32557681.7851,5795517.3499],[32557697.2785,5795492.3595],[32557702.0264,5795479.8638],[32557704.7752,5795466.8678],[32557706.2742,5795441.3753],[32557704.9538,5795414.707],[32557703.7745,5795390.889],[32557701.0254,5795373.8934],[32557693.7779,5795350.8987],[32557671.786,5795294.4107],[32557639.7978,5795223.425],[32557632.9675,5795226.3395],[32557598.8145,5795240.9126],[32557571.3256,5795249.4051],[32557548.214,5795253.0902],[32557518.0971,5795257.8923],[32557470.8662,5795269.3797],[32557434.8808,5795282.8685],[32557335.6713,5795326.835],[32557322.474,5795328.1319],[32557313.6827,5795328.9958],[32557296.0855,5795330.725],[32557291.6923,5795331.1567],[32557282.8904,5795332.0216],[32557269.6979,5795333.318],[32557241.1712,5795334.8493],[32557187.8807,5795337.7098],[32557129.3876,5795340.8496],[32557102.2652,5795342.3055],[32556974.3156,5795263.3393],[32556899.3451,5795220.8578],[32556718.1674,5795135.3955],[32556634.2107,5795100.4111],[32556596.7329,5795087.9169],[32556564.503,5795079.9207],[32556533.0232,5795074.9234],[32556422.8434,5795062.4308],[32556382.967,5795058.6014],[32556285.509,5795049.2423],[32556242.2774,5795040.2601],[32556218.2887,5795031.2648],[32556193.5501,5795019.7704],[32556168.5613,5795003.7776],[32556143.5723,5794982.7867],[32556119.0828,5794956.7975],[32556083.605,5794961.0681],[32555749.2462,5795001.316],[32555720.2582,5795005.3177],[32555704.5147,5795008.8182],[32555689.5211,5795014.3179],[32555675.527,5795022.3167],[32555663.2822,5795032.3145],[32555653.0369,5795044.8113],[32555645.5403,5795059.3071],[32555641.2926,5795076.3016],[32555640.7935,5795095.7948],[32555643.5431,5795115.2877],[32555648.2918,5795131.7814],[32555660.038,5795157.2712],[32555676.0322,5795177.2624],[32555694.2745,5795166.7641],[32555713.2664,5795160.7642],[32555724.262,5795159.2635],[32555747.2526,5795161.7602],[32555769.9935,5795169.7551],[32555791.235,5795181.2488],[32555810.7274,5795195.7419],[32555838.2153,5795224.0805],[32555853.2112,5795244.7208],[32555860.4585,5795256.7159],[32555866.2065,5795270.2107],[32555870.2053,5795283.7057],[32555872.205,5795298.7002],[32555870.4563,5795313.6953],[32555864.7093,5795329.1904],[32555855.7137,5795344.6858],[32555835.2233,5795370.6788],[32555817.2316,5795388.6743],[32555921.1921,5795526.6172],[32555955.9284,5795567.6002],[32555981.9177,5795588.5908],[32555996.9114,5795597.5865],[32556013.1544,5795606.0824],[32556048.639,5795620.075],[32556068.1303,5795626.0715],[32556109.6116,5795635.5653],[32556154.8406,5795638.5614],[32556202.3181,5795637.0591],[32556250.0449,5795632.0581],[32556299.6705,5795624.7112],[32556467.573,5795589.2215],[32556517.5412,5795619.7082],[32556540.2768,5795637.7007],[32556549.0214,5795647.1968],[32556555.7672,5795658.1923],[32556564.512,5795679.6836],[32556568.7597,5795703.674],[32556519.5414,5795719.1689],[32556474.8205,5795736.1632],[32556432.0979,5795756.6561],[32556412.86,5795768.1519],[32556393.3719,5795780.6474],[32556336.9048,5795822.6321],[32556260.2993,5795889.9703],[32556220.5698,5795921.4616],[32556175.8422,5795949.9543],[32556152.8534,5795960.952],[32556130.1143,5795968.4507],[32556084.8853,5795970.9526],[32556031.6593,5795966.4578],[32555998.1741,5795961.4619],[32555920.9574,5795941.9743],[32555881.7238,5795928.4821],[32555807.504,5795896.9994],[32555742.0299,5795864.0169],[32555674.9475,5795825.6063],[32555626.8238,5795798.0513],[32555581.5502,5795772.9677],[32555449.1386,5795699.6056],[32555439.0032,5795709.1507],[32555406.3603,5795739.8921],[32555386.5541,5795758.5446],[32555376.4179,5795768.0904],[32555380.917,5795788.5826],[32555384.9166,5795820.5709],[32555385.1688,5795889.0469],[32555392.417,5795912.5377],[32555404.9135,5795944.0251],[32555422.6581,5795977.0115],[32555433.6545,5795990.5056],[32555446.1503,5796002.4999],[32555474.6403,5796021.49],[32555523.6872,5796045.1429],[32555559.6094,5796062.4664],[32555576.3534,5796074.9603],[32555583.1011,5796083.9564],[32555587.8497,5796094.4524],[32555590.0992,5796107.4476],[32555590.3501,5796134.9381],[32555588.6012,5796147.9337],[32555585.8527,5796159.9298],[32555581.1049,5796170.9265],[32555574.6078,5796179.4242],[32555566.1113,5796186.4227],[32555554.8659,5796191.4221],[32555531.1251,5796194.9233],[32555519.8794,5796194.9246],[32555499.137,5796188.4291],[32555489.8902,5796182.4322],[32555481.1432,5796173.4362],[32555456.4012,5796138.4513],[32555446.1547,5796127.4563],[32555434.4087,5796117.4611],[32555421.6631,5796109.4654],[32555407.4182,5796103.969],[32555391.6738,5796100.9718],[32555374.1802,5796100.9739],[32555307.2044,5796105.9802],[32555282.7132,5796105.9833],[32555258.9714,5796103.987],[32555237.229,5796099.4913],[32555218.7352,5796091.9963],[32555204.4897,5796081.0021],[32555191.4937,5796065.5091],[32555115.7885,5795963.6587],[32555109.768,5795955.5589],[32555072.7794,5795925.5747],[32555053.0353,5795902.0858],[32555045.7873,5795889.0914],[32555040.5385,5795875.0972],[32555032.7901,5795843.1096],[32555026.0406,5795791.129],[32555025.6242,5795786.7998],[32555024.7907,5795778.1338],[32555022.2908,5795752.1434],[32555020.0854,5795740.8541],[32555016.0418,5795720.1556],[32555010.5421,5795671.1738],[32554965.3059,5795634.6936],[32554937.0646,5795615.7046],[32554924.5684,5795609.2088],[32554897.8269,5795600.216],[32554864.8373,5795593.7233],[32554826.3495,5795589.7307],[32554736.494,5795591.3036],[32554600.4198,5795593.7656],[32554559.1822,5795596.2716],[32554544.6867,5795599.2729],[32554533.6901,5795603.773],[32554525.9426,5795610.272],[32554521.4441,5795618.2699],[32554519.9449,5795628.2666],[32554521.1947,5795640.262],[32554525.1939,5795653.2567],[32554531.9422,5795665.2512],[32554541.4396,5795677.2453],[32554566.9326,5795698.2335],[32554599.6732,5795716.2216],[32554618.1678,5795724.2157],[32554661.4051,5795738.7035],[32554761.9397,5795765.4744],[32554773.7789,5795768.627],[32554820.8568,5795781.1631],[32554844.5995,5795789.1566],[32554863.0939,5795798.1506],[32554877.3397,5795807.645],[32554887.8366,5795818.1396],[32554895.3345,5795830.1343],[32554900.5832,5795842.6291],[32554906.8322,5795871.6178],[32554907.5824,5795886.1125],[32554905.0836,5795899.1083],[32554899.5857,5795910.1051],[32554891.8384,5795919.103],[32554882.0918,5795927.1017],[32554858.3497,5795938.6012],[32554816.3632,5795947.6042],[32554721.8929,5795957.6153],[32554706.8975,5795960.6166],[32554674.6576,5795970.6181],[32554624.6733,5795993.118],[32554644.1683,5796020.605],[32554660.1642,5796048.5924],[32554679.9097,5796099.0712],[32554700.4047,5796140.5531],[32554734.6462,5796203.5253],[32554743.1441,5796221.0178],[32554748.143,5796235.5118],[32554767.3866,5796217.0155],[32554795.6272,5796196.0187],[32554812.3717,5796187.0195],[32554829.866,5796180.5192],[32554847.3605,5796178.0175],[32554864.3552,5796179.0146],[32554881.1,5796182.011],[32554934.0836,5796196.998],[32554976.8201,5796206.9883],[32555025.0546,5796213.4794],[32555081.286,5796216.4705],[32555105.2782,5796220.466],[32555169.757,5796238.451],[32555198.7474,5796250.4431],[32555223.9892,5796266.4342],[32555235.2357,5796276.9291],[32555254.7296,5796298.919],[32555269.4751,5796320.4097],[32555279.4725,5796343.9002],[32555284.1641,5796376.4571],[32555287.9715,5796402.8785],[32555297.2192,5796431.8673],[32555311.9649,5796458.8561],[32555332.2085,5796482.3455],[32555344.9543,5796491.8407],[32555375.4439,5796507.8316],[32555437.4779,5796528.8639],[32555475.6582,5796541.8088],[32555496.6507,5796550.3036],[32555532.3879,5796568.2937],[32555561.1275,5796587.2843],[32555605.8616,5796623.7673],[32555678.3355,5796691.7373],[32555735.8204,5796914.1563],[32555771.0616,5797068.6007],[32555781.8101,5797153.0712],[32555787.0132,5797218.8888],[32555795.5606,5797327.0111],[32555809.0578,5797409.4822],[32555815.5563,5797438.9718],[32555832.8011,5797500.4499],[32555851.9483,5797560.1076],[32555891.0328,5797681.8852],[32555899.2808,5797725.3701],[32555904.5304,5797776.8525],[32555905.5316,5797826.8357],[32555872.306,5798135.2338],[32555866.5068,5798177.0784],[32555863.4157,5798199.3822],[32555861.7868,5798211.1351],[32555857.0661,5798245.1976],[32555854.0271,5798266.0328],[32555834.8302,5798397.6476],[32555874.5697,5798598.0787],[32555898.0626,5798690.0471],[32555923.8007,5798782.9642],[32555927.5531,5798796.5106],[32555942.2969,5798796.5101],[32555968.7855,5798802.5073],[32556008.5185,5798819.5006],[32556033.2579,5798833.9951],[32556061.2459,5798853.9879],[32556091.4831,5798880.9785],[32556122.4697,5798911.468],[32556182.0166,5798977.6656],[32556229.245,5799036.6615],[32556286.4663,5799113.156],[32556421.1424,5799276.6493],[32556496.1002,5799365.1464],[32556491.353,5799369.1443],[32556487.6052,5799375.1418],[32556484.8568,5799384.1391],[32556484.3571,5799395.6361],[32556487.8554,5799410.6333],[32556496.3507,5799428.631],[32556511.5923,5799450.6293],[32556532.081,5799476.1279],[32556642.7699,5799602.9513],[32556652.5179,5799614.1203],[32556781.061,5799770.4579],[32556835.4394,5799836.5943],[32556895.6128,5799907.744],[32556896.9734,5799909.3528],[32556908.1612,5799922.5813],[32556908.6615,5799955.5726],[32556915.6594,5800004.5604],[32556923.1568,5800033.5536],[32556934.4027,5800064.0467],[32556950.1468,5800094.5403],[32556976.5425,5800140.1783],[32556982.3699,5800150.2538],[32557029.3667,5800231.5112],[32556958.8988,5800469.439],[32556940.2656,5800512.5253],[32556923.6617,5800550.919],[32556900.1738,5800605.2308],[32556888.4298,5800632.387],[32556836.201,5800636.8801],[32556789.2201,5800634.8751],[32556747.2377,5800619.8738],[32556712.6576,5800601.2297],[32556705.5062,5800597.3739],[32556693.2619,5800594.3729],[32556667.5241,5800593.369],[32556628.2935,5800597.3615],[32556627.2936,5800568.369],[32556624.0448,5800539.876],[32556615.0488,5800503.8839],[32556601.8051,5800460.3929],[32556599.1557,5800459.5672],[32556560.0765,5800447.3884],[32556522.5963,5800438.3832],[32556489.5012,5800431.0199],[32556452.8835,5800422.8729],[32556430.3956,5800417.8696],[32556389.6675,5800410.3632],[32556359.4336,5800407.3579],[32556344.272,5800407.9046],[32556321.6965,5800408.7186],[32556221.5045,5800412.3314],[32556183.0228,5800410.3259],[32556168.7794,5800407.8243],[32556148.2887,5800400.3232],[32556140.2921,5800395.3233],[32556108.5136,5800372.9895],[32556097.7864,5800363.3851],[32556082.2749,5800349.497],[32556076.5276,5800345.9982],[32556070.5301,5800344.9985],[32556064.283,5800345.9982],[32556049.0401,5800357.4944],[32556033.2975,5800376.9881],[32556015.8057,5800402.9796],[32556015.8077,5800500.4478],[32555984.9132,5800546.5879],[32555978.7214,5800555.8351],[32555954.0108,5800592.7397],[32555923.1008,5800638.9029],[32555924.2915,5800643.2248],[32555925.1894,5800646.4839],[32555929.8484,5800663.3947],[32555920.2706,5800697.2142],[32555918.861,5800702.1916],[32555910.6966,5800731.0201],[32555907.873,5800740.9903],[32555901.1125,5800764.8618],[32555898.4647,5800804.0431],[32555896.6974,5800830.1953],[32555893.1685,5800882.4158],[32555892.2851,5800895.4881],[32555890.5202,5800921.6038],[32555887.8716,5800960.7978],[32555886.6007,5800961.8872],[32555858.4037,5801056.4349],[32555834.8955,5801062.265],[32555856.1374,5801113.2481],[32555861.1356,5801129.2428],[32555865.884,5801157.2336],[32555862.8858,5801189.7231],[32555855.8895,5801233.2089],[32555847.1437,5801274.6954],[32555839.3974,5801302.6863],[32555829.9016,5801318.6812],[32555815.1579,5801333.6764],[32555795.4162,5801347.6719],[32555773.7959,5801358.4107],[32555758.1816,5801366.1664],[32555745.437,5801374.1639],[32555722.1966,5801393.6578],[32555701.9551,5801417.6503],[32555685.2121,5801445.6414],[32555678.465,5801461.6362],[32555673.7172,5801478.6308],[32555667.72,5801512.6197],[32555665.2215,5801549.6076],[32555469.0472,5801556.1107],[32555429.312,5801558.1113],[32555410.3191,5801560.6112],[32555393.0755,5801564.6106],[32555378.331,5801571.1091],[32555366.8354,5801579.6067],[32555359.3383,5801591.1031],[32555356.8393,5801606.5981],[32555361.8384,5801660.58],[32555369.8363,5801717.061],[32555374.5847,5801733.0555],[32555381.5824,5801746.0509],[32555390.8291,5801756.5471],[32555414.5705,5801770.5416],[32555447.0117,5801781.3547],[32555495.5404,5801797.5301],[32555566.0139,5801829.5178],[32555524.5303,5801870.5053],[32555500.7897,5801897.9969],[32555481.7973,5801924.9885],[32555422.8206,5802018.9592],[32555339.3535,5802176.4101],[32555300.8685,5802242.3896],[32555273.379,5802278.8787],[32555247.1388,5802304.871],[32555213.2596,5802332.9578],[32555209.1531,5802336.3622],[32555196.5178,5802367.2032],[32555173.8449,5802422.5449],[32555164.9204,5802444.3283],[32555161.9739,5802448.9537],[32555156.1161,5802458.1489],[32555154.0178,5802461.4426],[32555145.1779,5802475.3188],[32555118.7031,5802548.0738],[32555060.9341,5802706.8282],[32555054.6993,5802723.9621],[32555028.2243,5802796.7176],[32555015.9314,5802808.5464],[32554981.9915,5802841.205],[32554983.862,5802843.886],[32554996.9864,5802862.6972],[32555023.4774,5802892.686],[32555041.4711,5802909.6796],[32555062.9636,5802926.673],[32555136.4374,5802969.156],[32555193.9165,5802996.6448],[32555223.1558,5803005.1411],[32555246.897,5803006.14],[32555282.6336,5803004.6394],[32555309.6235,5803008.1374],[32555341.3615,5803019.6329],[32555439.8244,5803066.6154],[32555470.3127,5803079.1108],[32555491.5545,5803082.6093],[32555516.8176,5803084.9411],[32555548.4083,5803087.857],[32555572.7728,5803090.1059],[32555776.1895,5803218.1481],[32556042.0809,5803385.5154],[32556044.03,5803378.368],[32556044.8655,5803375.3041],[32556046.5789,5803369.0207],[32556051.0819,5803352.508],[32556067.3897,5803352.509],[32556110.5563,5803352.5118],[32556130.0822,5803376.3155],[32556137.0724,5803384.8371],[32556181.2597,5803438.7051],[32556200.767,5803462.486],[32556192.6887,5803506.1882],[32556192.3098,5803508.2379],[32556189.772,5803521.9671],[32556231.7537,5803542.9647],[32556272.2359,5803559.4639],[32556325.4626,5803576.9645],[32556358.2844,5803585.7487],[32556407.6766,5803598.9677],[32556456.9053,5803616.4684],[32556477.8963,5803627.4674],[32556496.1385,5803640.9654],[32556522.1275,5803670.4592],[32556550.8655,5803712.4491],[32556562.8605,5803724.9465],[32556577.8542,5803736.4443],[32556597.5959,5803746.9429],[32556645.5758,5803768.4399],[32556666.317,5803774.4395],[32556688.5578,5803775.9403],[32556740.0362,5803774.4433],[32556748.5327,5803776.443],[32556765.2759,5803786.4404],[32556775.2719,5803795.9377],[32556798.2628,5803822.43],[32556820.7542,5803854.4203],[32556830.5003,5803863.9175],[32556844.2449,5803873.9146],[32556890.7263,5803896.9079],[32556959.199,5803926.3992],[32557035.4185,5803957.8893],[32557092.5088,5803979.1123]],[[32556349.8604,5793761.946],[32556319.6971,5793760.1962],[32556294.9592,5793762.1973],[32556276.9683,5793769.1964],[32556265.2243,5793779.6936],[32556258.7277,5793792.6896],[32556257.2289,5793807.1847],[32556259.7282,5793821.1796],[32556266.2255,5793833.6748],[32556275.4712,5793843.6706],[32556316.452,5793868.6588],[32556422.5746,5793923.8806],[32556461.0515,5793942.3724],[32556529.0085,5793973.3588],[32556615.4546,5794005.844],[32556722.8989,5794043.3269],[32556817.6112,5794071.8136],[32556846.3497,5794077.3108],[32556862.8431,5794076.3109],[32556872.8391,5794072.3122],[32556877.5871,5794066.3145],[32556877.5869,5794058.3177],[32556874.0882,5794048.8215],[32556867.8406,5794038.3258],[32556850.847,5794017.8342],[32556816.3604,5793983.8484],[32556757.1334,5793931.8702],[32556721.8973,5793903.882],[32556684.6642,5793877.3932],[32556647.1837,5793853.4035],[32556610.7046,5793834.9117],[32556573.9772,5793819.4186],[32556496.7763,5793792.9306],[32556419.8235,5793773.4399],[32556383.5936,5793766.4435],[32556349.8604,5793761.946]],[[32553875.891,5800383.8008],[32553862.261,5800343.6708],[32553860.5116,5800347.1698],[32553839.2686,5800389.6575],[32553818.526,5800441.6415],[32553808.0299,5800472.6318],[32553790.2872,5800541.1096],[32553780.0424,5800603.5885],[32553778.2941,5800632.5784],[32553778.795,5800659.5687],[32553781.7953,5800686.0588],[32553787.5449,5800711.049],[32553796.0437,5800736.0389],[32553807.2916,5800759.5292],[32553820.5391,5800780.0201],[32553835.5358,5800797.512],[32553851.7821,5800812.5046],[32553869.2779,5800824.9979],[32553887.2736,5800835.4919],[32553924.0144,5800850.9818],[32553962.7543,5800860.9736],[32554033.1519,5800871.7945],[32554040.7337,5800872.9599],[32553998.949,5800748.358],[32553983.4959,5800702.2768],[32553969.2247,5800659.7201],[32553939.4995,5800571.0795],[32553912.2392,5800490.8186],[32553909.1999,5800481.8702],[32553875.891,5800383.8008]],[[32550050.8169,5801658.8503],[32550007.8355,5801624.8683],[32549969.3964,5801648.1339],[32549868.9801,5801708.9117],[32549840.1691,5801726.3499],[32549843.6519,5801747.5866],[32549844.278,5801751.4042],[32549847.1365,5801768.8344],[32549851.2122,5801793.6852],[32549851.6819,5801796.5501],[32549852.6292,5801802.3262],[32549855.1691,5801817.8131],[32549937.9547,5801851.4753],[32549959.6189,5801860.2843],[32549978.1101,5801866.2797],[32549982.8142,5801867.1861],[32549998.8498,5801870.2758],[32550021.0867,5801841.2841],[32550028.5826,5801833.2862],[32550039.0771,5801827.2872],[32550066.8134,5801819.2868],[32550095.2941,5801813.8865],[32550114.291,5801810.2845],[32550129.0342,5801805.7845],[32550140.2789,5801798.7858],[32550146.0262,5801788.2891],[32550147.5253,5801775.2941],[32550145.2762,5801760.7999],[32550140.0284,5801745.8064],[32550132.2817,5801731.3128],[32550123.2857,5801718.8187],[32550113.5397,5801708.8237],[32550050.8169,5801658.8503]]],"crs":{"type":"EPSG","properties":{"code":4647}}},"properties":{"FL_NR":1222,"BR":3,"BR_NAME":"GEEST","TKNR":3724,"TKNAME":"Hannover","UP_DATE":"2018-09-06T14:12:10.0000000"}}]}