{"type": "FeatureCollection","features":[{"type":"Feature","geometry":{"type":"Polygon","coordinates":[[[32552324.3097,5805316.1468],[32552348.8789,5805353.5303],[32552370.3706,5805392.503],[32552388.8637,5805430.9759],[32552404.538,5805456.8082],[32552413.7201,5805477.0087],[32552434.8308,5805533.1556],[32552450.615,5805575.136],[32552466.517,5805611.5261],[32552483.2547,5805654.2793],[32552153.259,5805650.8618],[32552151.1128,5805629.8903],[32552141.4716,5805572.0432],[32552127.6985,5805514.1961],[32552109.2411,5805453.7121],[32552099.7445,5805430.2272],[32552088.9987,5805409.241],[32552077.2533,5805390.7515],[32552065.2582,5805374.7583],[32552041.5181,5805351.2577],[32552019.5277,5805336.7441],[32552005.7838,5805330.7316],[32551990.5407,5805326.7166],[32551959.5549,5805323.697],[32551945.5616,5805326.6973],[32551933.8173,5805332.7057],[32551925.3216,5805343.2206],[32551876.8464,5805437.7241],[32551875.0025,5805435.8491],[32551853.3,5805413.6268],[32551847.6093,5805407.7396],[32551798.5891,5805357.0269],[32551793.9446,5805352.222],[32551761.5516,5805318.7105],[32551746.6517,5805303.2961],[32551736.1561,5805288.3052],[32551734.1568,5805279.8116],[32551735.6559,5805271.8185],[32551741.903,5805265.3255],[32551753.6476,5805259.8335],[32551771.6394,5805257.3398],[32551797.3776,5805257.3195],[32551848.166,5805261.6183],[32551485.5034,5804984.2968],[32551274.7439,5805004.3725],[32551040.5614,5804643.0739],[32550562.1719,5804756.8247],[32550538.7533,5804709.9895],[32550425.01,5804699.9551],[32550398.2453,5804586.2122],[32550284.5034,5804689.921],[32550408.2878,5805031.1491],[32549966.6968,5805088.0275],[32549909.8226,5804907.3773],[32549678.9882,5804746.8022],[32549548.5183,5804776.9126],[32549472.9198,5804824.1632],[32549442.1794,5804836.0477],[32549417.442,5804849.0457],[32549353.2249,5804890.0361],[32549311.4961,5804920.0269],[32549264.0199,5804958.513],[32549213.7947,5805002.9949],[32549162.5695,5805051.4734],[32549021.1347,5805188.4073],[32548983.6515,5805220.8913],[32548954.4143,5805241.881],[32548879.9467,5805279.8629],[32548778.7404,5805328.3416],[32548671.0384,5805373.8256],[32548623.8075,5805389.3215],[32548531.8473,5805412.3226],[32548482.1186,5805422.3272],[32548377.9132,5805437.3436],[32548269.9592,5805445.8671],[32548163.0046,5805448.8944],[32548111.2767,5805453.9065],[32548061.5478,5805461.4171],[32547889.1218,5805492.9464],[32547819.1516,5805497.9585],[32547740.7567,5805509.708],[32547735.6874,5805510.4678],[32547693.2056,5805518.9709],[32547595.2476,5805541.9743],[32547526.2771,5805561.4746],[32547523.1187,5805561.1376],[32547442.0625,5805552.4889],[32547382.3376,5805551.4932],[32547292.8752,5805557.9916],[32547235.3989,5805565.9914],[32547207.6604,5805571.4923],[32547155.6818,5805588.9935],[32547135.8734,5805598.9013],[32546288.0103,5805590.1208],[32546283.2841,5805522.3049],[32546281.0344,5805509.8101],[32546276.036,5805499.3151],[32546268.2887,5805491.3197],[32546245.0473,5805479.3286],[32546230.053,5805475.3329],[32546208.2978,5805470.4751],[32545945.9062,5805411.8854],[32545940.9025,5805361.8914],[32545940.1401,5805332.8974],[32545942.389,5805303.4055],[32545948.8953,5805277.9164],[32545960.6515,5805260.4266],[32545979.1511,5805253.4319],[32546001.8923,5805253.9317],[32546048.1132,5805257.4295],[32546070.6045,5805261.4262],[32546091.8464,5805266.9224],[32546111.0893,5805274.9178],[32546128.0832,5805284.9128],[32546142.0784,5805297.4073],[32546170.8188,5805328.8936],[32546207.5563,5805362.3771],[32546229.0486,5805377.3684],[32546252.79,5805389.8599],[32546279.0301,5805399.8513],[32546307.5192,5805405.3431],[32546398.7339,5805416.8137],[32546485.9497,5805429.7782],[32546542.6773,5805442.7512],[32546616.1479,5805451.7159],[32546664.8782,5805454.6923],[32546755.5744,5805456.4255],[32546844.0551,5805458.1164],[32546901.5319,5805460.5987],[32547063.4672,5805471.0591],[32547192.6652,5805475.0339],[32547244.1439,5805473.5335],[32547261.6807,5805472.3695],[32547477.7953,5805458.0255],[32547668.4637,5805427.0145],[32547782.4149,5805402.5047],[32547830.3942,5805389.4997],[32547873.6256,5805373.9953],[32547917.3567,5805354.9907],[32547961.0877,5805332.9857],[32548086.5339,5805264.4655],[32548161.002,5805228.4507],[32548207.8698,5805209.2332],[32548395.1548,5805132.4396],[32548446.3784,5805113.4426],[32548495.3558,5805097.4474],[32548509.9932,5805093.522],[32548540.087,5805085.4517],[32548606.8089,5805072.4574],[32548653.1628,5805069.4963],[32548685.0259,5805067.4608],[32548729.5069,5805060.9648],[32548786.4825,5805045.4738],[32548840.7088,5805025.4851],[32548897.1838,5805001.4982],[32548903.3326,5805010.2956],[32548907.4271,5805016.1538],[32548915.6269,5805027.8857],[32548917.6742,5805030.8149],[32548921.7747,5805036.6817],[32548927.9218,5805045.4767],[32548945.5942,5805036.7202],[32548953.7655,5805032.6714],[32548963.263,5805027.9655],[32548979.6167,5805019.8625],[32548996.2018,5805011.6447],[32549011.6342,5805003.9981],[32549015.6293,5804927.036],[32549015.3759,5804859.5688],[32549013.375,5804827.0843],[32549009.6248,5804798.5977],[32548997.1256,5804731.1295],[32548996.3742,5804708.6397],[32548998.3712,5804684.1505],[32549003.8661,5804655.1629],[32549014.1081,5804621.1767],[32549029.3469,5804580.6919],[32549080.9699,5804462.2747],[32549099.2936,5804420.2422],[32549129.0185,5804344.2618],[32549141.7564,5804304.7719],[32549152.7449,5804263.2827],[32549160.9844,5804220.2945],[32549166.7253,5804177.3071],[32549169.9678,5804135.3203],[32549170.9617,5804094.3344],[32549167.4537,5804017.3646],[32549163.9516,5803982.38],[32549154.2002,5803919.9107],[32549128.4553,5803789.4891],[32549153.1959,5803796.4859],[32549175.1876,5803798.9856],[32549194.1805,5803796.9883],[32549210.1747,5803791.4931],[32549223.4201,5803782.5002],[32549234.1665,5803771.5084],[32549241.9145,5803759.0173],[32549247.4132,5803745.5266],[32549249.9132,5803731.0364],[32549249.4143,5803716.5459],[32549245.9165,5803703.0545],[32549239.6696,5803690.0628],[32549231.1733,5803679.0695],[32549220.1776,5803670.5744],[32549207.1826,5803664.078],[32549192.4377,5803661.5789],[32549177.4428,5803662.0779],[32549163.9471,5803665.575],[32549142.4538,5803676.0671],[32549123.9594,5803692.5552],[32549120.2178,5803590.6213],[32549118.2315,5803464.6985],[32549119.4884,5803403.2346],[32549122.4937,5803352.2638],[32549128.4959,5803317.7832],[32549144.4944,5803287.3003],[32549168.241,5803249.3212],[32549182.4884,5803230.3317],[32549197.2351,5803214.3405],[32549212.2311,5803203.3466],[32549229.226,5803195.8509],[32549293.2053,5803174.8637],[32549314.4484,5803165.8692],[32549333.1923,5803155.3756],[32549347.9377,5803142.3833],[32549357.6852,5803125.8928],[32549372.9319,5803083.4173],[32549383.1791,5803060.4308],[32549396.4249,5803037.4449],[32549413.6687,5803016.9583],[32549435.4103,5803000.4701],[32549462.8992,5802988.9802],[32549496.6351,5802984.9873],[32549474.1758,5802975.5024],[32549425.256,5802954.8427],[32549411.3178,5802948.9564],[32549366.4407,5802930.0041],[32549361.9946,5802885.849],[32549359.2155,5802858.2491],[32549357.5818,5802842.0239],[32549344.4527,5802711.6344],[32549240.9979,5802608.1812],[32549246.4163,5802322.1359],[32549247.4628,5802266.887],[32549454.6232,5802266.9496],[32549470.12,5802090.3944],[32549475.1183,5802059.869],[32549483.1153,5802033.3433],[32549493.3611,5802010.8204],[32549505.356,5801991.8023],[32549518.1005,5801975.2907],[32549521.9863,5801970.9957],[32549540.3701,5801950.6765],[32549553.8345,5801935.7946],[32549562.5801,5801923.7991],[32549574.5732,5801897.3096],[32549580.3188,5801873.3193],[32549582.5664,5801856.3262],[32549587.0633,5801844.8306],[32549606.0506,5801813.3417],[32549621.3323,5801792.6682],[32549632.2831,5801777.8536],[32549675.5697,5801725.0984],[32549703.2365,5801691.3798],[32549714.9788,5801674.3849],[32549724.7222,5801656.8905],[32549731.2174,5801639.8962],[32549731.5078,5801637.7001],[32549733.4649,5801622.9024],[32549729.9655,5801607.4087],[32549720.2194,5801594.4148],[32549704.2267,5801584.4207],[32549684.2362,5801576.9259],[32549661.2475,5801571.4307],[32549627.38,5801566.0963],[32549569.2936,5801556.9473],[32549549.8031,5801548.9527],[32549529.0627,5801535.4603],[32549508.072,5801517.9695],[32549470.5878,5801479.9885],[32549447.5484,5801453.5378],[32549443.5989,5801449.0036],[32549340.6017,5801584.0491],[32549303.7515,5801632.3655],[32549273.9577,5801671.4299],[32549230.9913,5801611.5943],[32549225.4314,5801603.8514],[32549212.2333,5801585.4715],[32549231.07,5801559.9927],[32549256.2064,5801525.9926],[32549228.8565,5801516.378],[32549214.6623,5801511.3881],[32549201.5081,5801506.7638],[32549124.02,5801479.5235],[32549111.7795,5801549.4945],[32549104.5331,5801616.4744],[32549103.2833,5801651.9808],[32549105.0318,5801718.5084],[32549103.2821,5801746.0242],[32549099.5332,5801769.539],[32549094.5349,5801788.0511],[32549080.0404,5801821.5711],[32549058.4465,5801797.2735],[32549044.0586,5801781.0841],[32549015.2683,5801748.6892],[32549008.071,5801740.5908],[32548972.0881,5801700.1027],[32548846.6431,5801572.1435],[32548782.1713,5801500.6632],[32548760.4308,5801473.1688],[32548730.4442,5801424.6731],[32548717.9498,5801399.673],[32548662.7246,5801271.1715],[32548646.7316,5801239.176],[32548634.9866,5801221.6808],[32548620.243,5801204.1873],[32548601.2511,5801186.6955],[32548577.5112,5801169.2058],[32548537.3888,5801144.2051],[32548504.5422,5801123.7381],[32548492.5473,5801114.2432],[32548481.0522,5801102.2481],[32548469.3073,5801086.2528],[32548439.3201,5801037.7666],[32548394.5889,5800970.2936],[32548313.1222,5800853.8489],[32548399.3295,5800825.3548],[32548477.5376,5800802.8577],[32548517.0159,5800792.8583],[32548586.9775,5800779.357],[32548634.1573,5800768.7262],[32548755.6359,5800741.3539],[32548788.8688,5800736.3522],[32548857.085,5800730.3465],[32548967.5333,5800727.8346],[32549046.7481,5800728.3251],[32549046.7507,5800829.7867],[32549047.0154,5800835.0759],[32549050.0022,5800894.7617],[32549057.0031,5800958.7366],[32549071.0016,5801027.7087],[32549082.2489,5801061.1946],[32549096.9943,5801092.6809],[32549113.7385,5801121.6678],[32549131.7316,5801147.1559],[32549149.7244,5801168.1458],[32549166.4673,5801183.6379],[32549181.2105,5801193.1326],[32549192.4549,5801195.6303],[32549200.7,5801189.6317],[32549207.6952,5801177.1357],[32549212.9408,5801158.1422],[32549216.9369,5801134.6507],[32549219.9311,5801076.6725],[32549216.6792,5801012.6971],[32549211.4303,5800979.7102],[32549203.4328,5800947.2235],[32549193.1866,5800915.2368],[32549181.1913,5800884.7498],[32549155.7017,5800832.2728],[32549124.9646,5800784.2947],[32549120.9664,5800772.7995],[32549119.7169,5800762.3036],[32549120.7165,5800753.3069],[32549124.7149,5800739.3118],[32549128.4633,5800734.8132],[32549192.9373,5800704.8175],[32549293.648,5800664.8234],[32549337.1307,5800645.8211],[32549358.8723,5800635.3136],[32549399.3573,5800610.2991],[32549417.1011,5800595.7964],[32549433.5956,5800578.7983],[32549449.8406,5800557.8066],[32549478.8317,5800512.8372],[32549503.9884,5800466.0388],[32549507.5712,5800459.3737],[32549542.1446,5800429.3766],[32549563.1683,5800408.3814],[32549585.3841,5800382.3938],[32549606.1262,5800352.4741],[32549623.6224,5800319.0231],[32549635.3703,5800282.9909],[32549680.7533,5800087.4887],[32549682.2078,5800081.2229],[32549686.0903,5800064.498],[32549722.82,5800097.9803],[32549761.5569,5800141.9586],[32549764.4745,5800146.8363],[32549775.3086,5800164.9485],[32549781.567,5800185.9406],[32549776.582,5800203.4355],[32549752.3503,5800237.9268],[32549728.3389,5800281.4135],[32549717.3358,5800305.9061],[32549700.3409,5800359.4753],[32549694.8408,5800388.9933],[32549687.8388,5800452.4015],[32549681.3684,5800552.2757],[32549679.5526,5800580.3031],[32549717.8474,5800574.2985],[32549770.5511,5800570.2995],[32549799.5384,5800571.3354],[32549827.777,5800574.8747],[32549853.5169,5800582.895],[32549869.643,5800590.0782],[32549924.2386,5800614.3974],[32549968.503,5800636.3303],[32550020.9487,5800662.317],[32550113.6588,5800713.7159],[32550149.3929,5800737.1888],[32550181.9976,5800765.2866],[32550209.1163,5800788.6568],[32550228.1079,5800800.6483],[32550246.1005,5800809.1424],[32550262.8453,5800813.1383],[32550277.093,5800811.6368],[32550287.8435,5800803.1383],[32550294.3456,5800787.6432],[32550301.2857,5800744.0492],[32550305.3267,5800718.6656],[32550311.0509,5800692.6731],[32550320.0107,5800664.6799],[32550332.9629,5800636.1864],[32550351.1781,5800606.1939],[32550375.9388,5800575.7079],[32550390.4752,5800561.6652],[32550404.9357,5800547.6959],[32550435.4252,5800524.6668],[32550466.4116,5800505.1393],[32550496.8983,5800488.6208],[32550543.5488,5800467.26],[32550576.6265,5800452.1141],[32550614.9965,5800429.6205],[32550657.5727,5800400.6272],[32550678.7841,5800382.631],[32550698.7995,5800362.6593],[32550716.2146,5800340.6844],[32550730.1229,5800316.1816],[32550739.6582,5800289.1847],[32550744.9141,5800261.6927],[32550747.1558,5800235.6985],[32550747.0937,5800210.7042],[32550744.4865,5800186.2109],[32550739.3626,5800162.7186],[32550723.3702,5800116.2367],[32550673.6239,5800016.2822],[32550649.1329,5799962.8071],[32550632.3888,5799913.829],[32550628.8899,5799892.338],[32550628.8896,5799872.8457],[32550631.8881,5799853.8529],[32550637.1357,5799835.3594],[32550653.785,5799793.803],[32550666.3729,5799762.3838],[32550668.122,5799750.8881],[32550668.6214,5799722.8991],[32550664.1225,5799674.4187],[32550646.6448,5799639.4669],[32550615.6403,5799577.4645],[32550654.6241,5799535.4751],[32550709.8514,5799482.4874],[32550741.0886,5799455.4932],[32550772.8256,5799431.9975],[32550803.0632,5799414.4996],[32550926.0134,5799354.004],[32550990.4872,5799327.0043],[32551022.4744,5799316.5034],[32551054.2116,5799308.5014],[32551086.6986,5799302.4985],[32551119.9352,5799298.4948],[32551182.6602,5799293.9864],[32551248.1341,5799292.9762],[32551261.098,5799296.7472],[32551315.1077,5799312.4577],[32551355.5917,5799322.4473],[32551384.3304,5799331.9388],[32551431.0621,5799350.4241],[32551425.5647,5799375.4153],[32551421.8166,5799404.4046],[32551420.0678,5799440.3909],[32551420.5682,5799478.8758],[32551425.8169,5799528.8556],[32551429.3157,5799542.8496],[32551439.8119,5799566.3387],[32551454.5563,5799581.8303],[32551471.7995,5799589.3247],[32551481.7955,5799590.3227],[32551504.2864,5799587.3202],[32551542.5211,5799577.3178],[32551554.5163,5799575.8165],[32551577.0073,5799576.8124],[32551587.0034,5799579.3099],[32551596.4997,5799583.8066],[32551605.2462,5799590.3026],[32551624.4888,5799609.7919],[32551646.2306,5799636.7779],[32551656.2268,5799652.7702],[32551664.9736,5799669.2623],[32551671.7212,5799687.2543],[32551675.7198,5799705.2467],[32551677.4698,5799743.2316],[32551675.9707,5799762.7244],[32551667.9745,5799803.21],[32551661.7273,5799822.7035],[32551644.9844,5799859.1921],[32551621.7443,5799893.6825],[32551594.7555,5799924.6748],[32551568.5163,5799949.6692],[32551536.2797,5799973.665],[32551517.1683,5799989.7701],[32551472.8058,5800027.1543],[32551419.3277,5800066.6474],[32551393.3382,5800081.6456],[32551369.348,5800090.6458],[32551348.1066,5800095.1473],[32551328.8643,5800097.1496],[32551295.6275,5800095.6554],[32551241.6488,5800084.1683],[32551214.9095,5800084.1724],[32551187.6705,5800094.1728],[32551174.9257,5800102.6714],[32551163.4304,5800114.1686],[32551153.9344,5800127.6648],[32551146.6875,5800143.6597],[32551142.1896,5800162.1531],[32551139.6908,5800181.6459],[32551139.4412,5800201.638],[32551141.4408,5800222.6294],[32551145.6895,5800243.1208],[32551151.9373,5800262.6122],[32551160.4342,5800281.1037],[32551164.2938,5800287.3518],[32551170.9303,5800298.0953],[32551182.9257,5800312.088],[32551195.171,5800324.0814],[32551216.9195,5800341.5975],[32551231.1572,5800353.0645],[32551243.087,5800365.6942],[32551252.3989,5800375.5524],[32551261.3955,5800390.5453],[32551275.8903,5800423.0302],[32551280.8887,5800438.5235],[32551283.6378,5800453.5172],[32551283.6379,5800468.0114],[32551280.3893,5800481.5067],[32551273.1425,5800494.0028],[32551261.3975,5800505.0004],[32551229.1605,5800525.4972],[32551175.4325,5800554.9938],[32551162.9041,5800563.7396],[32551146.0683,5800575.4925],[32551135.984,5800586.4919],[32551114.2365,5800622.4898],[32551105.7503,5800647.4853],[32551104.4999,5800660.9808],[32551105.7468,5800674.4759],[32551120.2948,5800715.0417],[32551127.9747,5800736.4564],[32551142.833,5800788.9423],[32551143.6818,5800794.886],[32551147.3243,5800820.3919],[32551146.0461,5800834.3746],[32551141.0569,5800848.37],[32551122.0804,5800877.8611],[32551063.4112,5800941.3403],[32551036.6652,5800977.3291],[32551003.6378,5801039.1898],[32550989.9365,5801064.8525],[32550954.2323,5801121.5866],[32550938.5051,5801146.5774],[32551686.1761,5801474.9799],[32551699.5594,5801602.1046],[32551699.5603,5801662.3215],[32551746.3966,5801702.4654],[32552187.9902,5801842.9649],[32552115.7931,5802173.8915],[32552122.1827,5802195.1892],[32552129.0155,5802197.8171],[32552156.1054,5802208.2358],[32552180.6769,5802207.6909],[32552219.1592,5802215.6727],[32552240.3999,5802223.164],[32552262.1403,5802233.6553],[32552283.631,5802247.1462],[32552304.3722,5802263.6367],[32552322.3647,5802281.6275],[32552336.8586,5802299.1191],[32552348.104,5802316.1116],[32552356.3507,5802333.105],[32552361.8487,5802349.5998],[32552363.9865,5802362.8149],[32552365.3486,5802383.0942],[32552363.8502,5802400.5947],[32552359.277,5802416.1586],[32552349.8588,5802433.6086],[32552337.6155,5802449.1228],[32552322.6231,5802463.641],[32552306.3806,5802476.6606],[32552272.6434,5802499.6951],[32552256.898,5802508.7053],[32552189.0827,5802519.3196],[32552152.2048,5802522.7194],[32552126.9781,5802522.7239],[32552103.4969,5802519.2292],[32552082.2611,5802512.7351],[32552064.0213,5802502.2419],[32552048.2786,5802487.2497],[32552034.284,5802469.2582],[32552024.4969,5802452.2406],[32551965.541,5802508.84],[32551891.0858,5802580.3191],[32551877.407,5802621.3576],[32551853.1977,5802718.2005],[32551971.5556,5802663.0806],[32551993.798,5802655.5634],[32552020.538,5802650.4978],[32552058.9589,5802647.4347],[32552081.2632,5802646.2824],[32552142.488,5802647.1785],[32552194.2151,5802649.6695],[32552214.4533,5802652.6651],[32552232.6922,5802659.1597],[32552248.683,5802668.154],[32552272.4212,5802688.1431],[32552286.6656,5802704.6352],[32552400.4529,5802709.4675],[32552485.5749,5802713.0824],[32552505.5613,5802713.9312],[32552597.9388,5802717.8542],[32552603.2405,5802718.0793],[32552705.4559,5802722.4202],[32552715.4549,5802788.4167],[32552683.97,5802790.4398],[32552651.8692,5802789.7516],[32552594.2604,5802788.5164],[32552576.0177,5802792.0325],[32552564.2719,5802798.0427],[32552558.2736,5802806.0478],[32552557.5232,5802815.0488],[32552561.2712,5802825.0469],[32552568.768,5802834.5429],[32552591.0092,5802852.0316],[32552607.5023,5802869.5231],[32552612.2498,5802880.5205],[32552614.7478,5802893.0183],[32552614.996,5802908.0152],[32552608.4984,5802947.0002],[32552601.5083,5802967.9939],[32552592.771,5802983.9899],[32552582.0334,5802996.4874],[32552569.2943,5803005.4865],[32552554.8033,5803012.4863],[32552500.5759,5803024.5101],[32552454.8449,5803029.1626],[32552428.8557,5803029.7592],[32552371.3788,5803025.9063],[32552340.141,5803021.4357],[32552307.4035,5803014.4314],[32552273.4166,5803004.8993],[32552243.6784,5802991.8659],[32552222.6873,5802974.3638],[32552208.9442,5802953.3912],[32552200.9492,5802929.9349],[32552197.2028,5802904.9754],[32552196.2086,5802828.4353],[32552192.711,5802806.8902],[32552184.715,5802790.3682],[32552173.4702,5802777.3672],[32552159.9761,5802768.386],[32552145.7321,5802762.4153],[32552131.7379,5802758.9483],[32552110.2464,5802757.9993],[32552019.5764,5802770.4227],[32551930.8135,5802784.1895],[32551834.7274,5802801.8435],[32551809.4267,5802963.7832],[32551808.5747,5802993.0196],[32551798.3258,5803062.9837],[32551790.8276,5803094.9783],[32551781.6742,5803118.7464],[32551760.588,5803173.5],[32551757.5889,5803196.5071],[32551764.086,5803218.007],[32551784.5774,5803251.999],[32551812.3157,5803286.9857],[32551827.8091,5803298.4766],[32551848.0507,5803305.9629],[32551860.2957,5803307.9542],[32551907.7763,5803307.9205],[32551928.018,5803307.9061],[32551970.7509,5803310.8826],[32552010.485,5803318.3657],[32552028.2633,5803325.6655],[32552039.7232,5803332.8542],[32552057.7157,5803349.3457],[32552063.4633,5803356.3426],[32552066.7117,5803363.34],[32552067.4613,5803370.3383],[32552065.2119,5803377.3376],[32552059.714,5803384.3387],[32552050.7173,5803392.3418],[32552035.6292,5803401.99],[32551995.7391,5803417.3771],[32551964.002,5803423.4018],[32551920.0203,5803425.4347],[32551892.5319,5803423.4528],[32551867.0426,5803419.4671],[32551855.2975,5803416.4729],[32551834.8061,5803407.9821],[32551794.9271,5803387.5801],[32551663.8779,5803320.5356],[32551653.8822,5803314.039],[32551643.6365,5803303.5441],[32551638.8884,5803289.0501],[32551638.8882,5803267.5585],[32551645.6354,5803237.5697],[32551660.3793,5803197.0735],[32551692.8971,5803130.9292],[32551702.068,5803112.2746],[32551358.3501,5803017.2094],[32551171.0115,5803258.0805],[32551104.1033,5803231.3184],[32551057.2693,5803331.681],[32551426.5129,5803638.4276],[32551477.6325,5803680.8949],[32551468.7582,5803716.3943],[32551468.7582,5803718.4949],[32551468.7589,5803759.8844],[32551485.4866,5803820.101],[32551491.8127,5803892.8379],[32551492.1786,5803897.0449],[32551475.4526,5803963.9531],[32551455.3811,5804024.1704],[32551395.1651,5804101.1153],[32551382.4367,5804115.5413],[32551294.805,5804214.8601],[32551291.4605,5804281.768],[32551283.1854,5804317.6294],[32551281.425,5804325.2582],[32551298.5335,5804350.9201],[32551258.0089,5804435.6566],[32551247.9737,5804502.5645],[32551252.0133,5804544.9742],[32551254.6655,5804572.8176],[32551294.8107,5804612.9617],[32551328.2651,5804639.7242],[32551343.7316,5804643.5905],[32551355.0283,5804646.4145],[32551378.4459,5804639.7234],[32551405.2085,5804599.5783],[32551488.8444,5804679.8665],[32551467.1949,5804757.1906],[32551465.4279,5804763.5016],[32551514.5676,5804800.7788],[32551586.723,5804855.5156],[32551586.9959,5804855.7226],[32551589.6577,5804856.3095],[32551607.1106,5804860.1577],[32551615.7859,5804861.8276],[32551643.181,5804867.1007],[32551659.4235,5804872.1403],[32551675.3849,5804879.5007],[32551677.9152,5804880.6675],[32551718.1475,5804903.1893],[32551772.874,5804939.1771],[32551790.4896,5804951.6962],[32551909.3157,5805036.1438],[32551972.7884,5805076.1341],[32552002.2757,5805092.1322],[32552057.7515,5805117.6334],[32552150.4612,5805155.1403],[32552178.699,5805169.1392],[32552206.1874,5805191.629],[32552243.4219,5805227.1098],[32552298.8989,5805285.0758],[32552324.3097,5805316.1468]],[[32550551.4211,5801040.9646],[32550557.223,5801039.0523],[32550567.2325,5801039.269],[32550575.4138,5801039.4462],[32550578.7434,5801034.8257],[32550591.2703,5801014.212],[32550604.6388,5800987.1675],[32550601.4802,5800981.9524],[32550600.2456,5800976.0703],[32550600.2018,5800967.0306],[32550602.0819,5800961.3922],[32550605.595,5800956.5074],[32550610.5662,5800953.1664],[32550624.9186,5800950.4475],[32550628.1087,5800949.8432],[32550632.6271,5800945.9637],[32550637.008,5800938.036],[32550663.0356,5800890.9364],[32550715.6389,5800804.2198],[32550723.5936,5800791.1066],[32550724.2533,5800790.019],[32550726.0315,5800787.0877],[32550744.7771,5800753.2484],[32550754.5559,5800732.2963],[32550754.0927,5800726.854],[32550751.8698,5800722.9848],[32550744.3458,5800709.8877],[32550753.2762,5800684.5238],[32550764.1218,5800665.0486],[32550775.9385,5800648.8561],[32550777.859,5800647.7549],[32550782.2676,5800650.7624],[32550789.4112,5800655.6356],[32550802.2786,5800634.5022],[32550817.824,5800599.8476],[32550827.6521,5800577.9381],[32550937.1712,5800354.6848],[32551019.4815,5800195.3123],[32551020.0483,5800194.2149],[32551031.5108,5800172.0207],[32551105.0395,5800029.6516],[32551104.372,5800020.5947],[32551103.064,5800002.8482],[32551106.3415,5799988.3875],[32551120.3607,5799972.7699],[32551133.6539,5799966.1356],[32551151.589,5799965.4332],[32551163.1445,5799969.5159],[32551171.093,5799972.3243],[32551174.1695,5799966.0538],[32551177.7482,5799958.7598],[32551182.3102,5799955.1232],[32551185.4224,5799954.7893],[32551205.814,5799965.1005],[32551210.4945,5799941.4716],[32551211.0238,5799934.3073],[32551212.4811,5799914.5846],[32551224.8998,5799874.4559],[32551235.5125,5799848.9789],[32551244.4451,5799827.5353],[32551252.5676,5799808.0362],[32551267.4741,5799782.5797],[32551278.2488,5799764.1793],[32551280.9395,5799757.5267],[32551283.7149,5799750.6648],[32551290.6335,5799733.5589],[32551296.9659,5799713.6575],[32551307.9378,5799679.1755],[32551312.6487,5799675.6842],[32551318.562,5799676.8013],[32551330.2531,5799679.0098],[32551339.2986,5799677.8943],[32551344.4188,5799675.1569],[32551349.433,5799664.218],[32551358.1422,5799645.2184],[32551358.9806,5799638.5852],[32551361.0065,5799632.746],[32551372.7958,5799598.7656],[32551375.4004,5799580.9977],[32551375.2042,5799565.7251],[32551373.2964,5799554.0232],[32551368.4737,5799543.0113],[32551360.8648,5799533.3936],[32551351.8065,5799525.8],[32551312.6567,5799503.2234],[32551270.8837,5799486.5738],[32551216.3783,5799469.9796],[32551184.0143,5799463.6173],[32551142.2846,5799458.8804],[32551109.2462,5799459.4252],[32551082.4726,5799462.4362],[32551036.4204,5799476.4502],[32551002.0947,5799486.8958],[32550987.6895,5799489.9621],[32550972.7313,5799493.1461],[32550956.4856,5799500.6315],[32550946.8886,5799505.9947],[32550928.3416,5799516.3595],[32550904.0373,5799529.9416],[32550864.7285,5799557.4365],[32550844.3803,5799575.1414],[32550816.6551,5799602.5673],[32550786.6335,5799636.0776],[32550781.1144,5799643.1463],[32550768.1328,5799659.7726],[32550760.9159,5799665.1263],[32550757.0828,5799666.9175],[32550746.7305,5799671.7549],[32550740.872,5799677.5736],[32550738.1885,5799685.8734],[32550737.203,5799704.5824],[32550738.0118,5799713.1897],[32550739.8418,5799732.6655],[32550740.2922,5799737.4589],[32550737.7433,5799747.3605],[32550737.3527,5799748.8781],[32550736.1783,5799751.9137],[32550719.927,5799793.9207],[32550715.4904,5799811.2861],[32550711.9724,5799844.1197],[32550711.8536,5799851.6109],[32550711.3521,5799883.239],[32550711.2115,5799892.11],[32550716.9454,5799933.6776],[32550725.0494,5799965.6499],[32550751.3642,5800045.3856],[32550764.797,5800081.1396],[32550784.0639,5800132.4222],[32550791.4581,5800161.4518],[32550792.6671,5800182.4004],[32550790.8493,5800200.7814],[32550789.1255,5800218.2119],[32550788.7767,5800228.2694],[32550787.2522,5800272.2231],[32550783.2759,5800292.7277],[32550774.5405,5800318.4087],[32550761.4935,5800348.9137],[32550750.224,5800366.3877],[32550687.3951,5800426.5071],[32550651.862,5800454.1573],[32550612.2398,5800478.8923],[32550577.9776,5800500.2813],[32550534.2918,5800531.2368],[32550508.8413,5800549.271],[32550499.3141,5800556.0219],[32550487.5226,5800565.2659],[32550486.5349,5800566.0402],[32550475.7239,5800574.5155],[32550461.634,5800589.4143],[32550456.7398,5800600.5852],[32550452.7936,5800615.3884],[32550452.3886,5800633.2044],[32550452.2291,5800640.2239],[32550450.0638,5800648.3125],[32550444.3241,5800654.3503],[32550440.7566,5800656.4455],[32550425.1873,5800665.5892],[32550406.5802,5800684.9298],[32550397.8434,5800700.4624],[32550385.6474,5800728.2332],[32550377.2925,5800747.2575],[32550374.1634,5800753.3109],[32550359.2712,5800782.1211],[32550356.2843,5800796.4247],[32550357.5647,5800820.1367],[32550357.9223,5800826.7583],[32550357.1114,5800838.6097],[32550348.6868,5800859.573],[32550342.5607,5800874.817],[32550329.2602,5800924.0958],[32550326.7262,5800938.8615],[32550326.3865,5800943.0213],[32550322.5636,5800989.8345],[32550317.1337,5801016.2804],[32550309.2194,5801042.053],[32550297.3109,5801069.5277],[32550274.3676,5801111.5536],[32550245.8735,5801146.5698],[32550233.7877,5801155.1099],[32550228.4073,5801157.5253],[32550192.4936,5801173.6474],[32550176.7836,5801182.2764],[32550160.0451,5801195.294],[32550148.1865,5801208.8195],[32550142.3683,5801222.2475],[32550141.0799,5801227.8282],[32550126.091,5801292.751],[32550117.6025,5801321.4787],[32550094.9037,5801366.6558],[32550093.3636,5801369.7209],[32550087.8529,5801382.5135],[32550079.1196,5801402.7872],[32550066.9772,5801421.4543],[32550062.0128,5801429.0863],[32550056.6109,5801441.7605],[32550058.4055,5801446.4345],[32550063.5778,5801450.7448],[32550068.739,5801455.0458],[32550051.8569,5801493.259],[32550113.1618,5801525.2371],[32550098.0567,5801559.8915],[32550265.8645,5801634.6306],[32550271.2428,5801623.8325],[32550289.3521,5801587.4743],[32550296.3274,5801578.634],[32550304.404,5801575.8264],[32550320.8594,5801575.3398],[32550325.2964,5801572.4223],[32550329.9554,5801565.536],[32550336.8005,5801547.6625],[32550344.2878,5801528.112],[32550408.6982,5801396.0421],[32550429.7106,5801352.9573],[32550459.6435,5801289.6275],[32550551.5173,5801095.248],[32550554.2789,5801089.4053],[32550558.6537,5801078.7494],[32550558.2677,5801076.4144],[32550550.1247,5801070.9555],[32550546.8373,5801066.3058],[32550545.7675,5801051.1554],[32550547.5923,5801045.3809],[32550551.4211,5801040.9646]],[[32550444.1567,5801651.2264],[32550439.4068,5801689.7194],[32550439.6554,5801723.7169],[32550443.1528,5801754.2154],[32550455.3964,5801801.211],[32550468.3905,5801830.2052],[32550474.3883,5801834.2019],[32550488.632,5801843.6934],[32550519.6191,5801858.6745],[32550538.1115,5801864.1631],[32550558.1034,5801867.6508],[32550578.5953,5801867.639],[32550596.3387,5801860.6305],[32550608.5845,5801847.1276],[32550616.3325,5801828.1304],[32550620.582,5801805.6386],[32550620.8346,5801754.6675],[32550615.2713,5801703.5229],[32550691.1555,5801292.1176],[32550867.2592,5801210.3943],[32550711.1172,5801180.4124],[32550594.1922,5801157.9609],[32550483.9857,5801340.9087],[32550575.5735,5801331.8434],[32550590.5295,5801330.3631],[32550618.4216,5801327.6023],[32550527.8812,5801466.3609],[32550511.1383,5801495.3433],[32550481.1479,5801556.7847],[32550444.1567,5801651.2264]],[[32550050.8169,5801658.8503],[32550007.8355,5801624.8683],[32549969.3964,5801648.1339],[32549868.9801,5801708.9117],[32549840.1691,5801726.3499],[32549843.6519,5801747.5866],[32549844.278,5801751.4042],[32549847.1365,5801768.8344],[32549851.2122,5801793.6852],[32549851.6819,5801796.5501],[32549852.6292,5801802.3262],[32549855.1691,5801817.8131],[32549937.9547,5801851.4753],[32549959.6189,5801860.2843],[32549978.1101,5801866.2797],[32549982.8142,5801867.1861],[32549998.8498,5801870.2758],[32550021.0867,5801841.2841],[32550028.5826,5801833.2862],[32550039.0771,5801827.2872],[32550066.8134,5801819.2868],[32550095.2941,5801813.8865],[32550114.291,5801810.2845],[32550129.0342,5801805.7845],[32550140.2789,5801798.7858],[32550146.0262,5801788.2891],[32550147.5253,5801775.2941],[32550145.2762,5801760.7999],[32550140.0284,5801745.8064],[32550132.2817,5801731.3128],[32550123.2857,5801718.8187],[32550113.5397,5801708.8237],[32550050.8169,5801658.8503]],[[32550164.5929,5802047.0021],[32550170.3854,5802045.5014],[32550183.8452,5802046.9772],[32550197.0997,5802048.4305],[32550203.5055,5802047.4924],[32550213.7093,5802045.9981],[32550217.8335,5802045.3941],[32550246.7177,5802037.3837],[32550251.6065,5802033.9527],[32550254.6997,5802028.8193],[32550255.6675,5802019.9101],[32550253.064,5802011.2522],[32550244.6382,5802003.5989],[32550242.0077,5802001.2095],[32550232.6584,5801989.4877],[32550222.9047,5801974.3545],[32550220.1332,5801965.8619],[32550227.4824,5801946.2918],[32550233.7599,5801939.8371],[32550237.1748,5801937.6065],[32550251.3225,5801928.3652],[32550256.1411,5801920.7507],[32550256.3561,5801911.8226],[32550252.991,5801905.3426],[32550249.4824,5801898.5864],[32550247.2564,5801889.8558],[32550247.798,5801880.8601],[32550251.7499,5801872.8262],[32550259.9902,5801863.9651],[32550265.1548,5801861.1941],[32550280.0532,5801858.8508],[32550291.8421,5801858.9973],[32550295.041,5801859.037],[32550300.3096,5801856.4458],[32550300.6951,5801846.004],[32550300.8665,5801841.3603],[32550302.3651,5801836.3348],[32550305.1369,5801827.0394],[32550304.5129,5801809.037],[32550299.0689,5801798.5397],[32550292.9969,5801798.7253],[32550287.9952,5801795.8228],[32550286.1938,5801787.0664],[32550262.338,5801784.8884],[32550250.6527,5801787.3607],[32550246.031,5801801.4276],[32550245.2481,5801813.3878],[32550246.818,5801819.2047],[32550251.3401,5801823.0533],[32550253.7774,5801828.3757],[32550252.891,5801849.3165],[32550248.9041,5801853.153],[32550239.9107,5801861.8072],[32550234.8474,5801872.6076],[32550225.7609,5801876.1053],[32550218.152,5801879.0342],[32550212.9378,5801885.7408],[32550207.2037,5801893.1161],[32550198.5728,5801895.8961],[32550189.5832,5801896.3729],[32550183.6379,5801895.8532],[32550175.2916,5801892.4285],[32550167.2698,5801896.2847],[32550165.666,5801902.0027],[32550167.2264,5801909.2932],[32550168.1705,5801913.7043],[32550168.5592,5801925.5438],[32550155.3758,5801937.8735],[32550137.802,5801941.4357],[32550125.765,5801941.0566],[32550123.5073,5801939.3211],[32550120.9407,5801936.0206],[32550116.0539,5801929.7367],[32550113.6798,5801924.2282],[32550113.2302,5801918.2907],[32550115.7682,5801912.7345],[32550118.2111,5801907.3863],[32550116.0599,5801898.5679],[32550113.5087,5801897.4062],[32550098.4124,5801898.4096],[32550089.7967,5801910.6809],[32550085.9857,5801925.174],[32550086.0024,5801934.1515],[32550089.2676,5801942.4941],[32550096.5179,5801950.8227],[32550101.0686,5801956.0501],[32550104.6793,5801964.2663],[32550108.1857,5801978.8377],[32550110.0835,5802011.787],[32550107.761,5802026.5253],[32550100.1922,5802044.3898],[32550098.4006,5802048.6185],[32550092.335,5802071.6996],[32550094.0069,5802074.1214],[32550099.8672,5802074.9384],[32550135.9735,5802063.192],[32550144.3185,5802059.8189],[32550147.9351,5802057.5326],[32550164.5929,5802047.0021]]],"crs":{"type":"EPSG","properties":{"code":4647}}},"properties":{"FL_NR":521597,"BFR":null}}]}