{"type": "FeatureCollection","features":[{"type":"Feature","geometry":{"type":"MultiPolygon","coordinates":[[[[32548567.4915,5804035.4514],[32548573.2393,5804038.9493],[32548583.9858,5804049.9439],[32548592.2346,5804066.9365],[32548595.2349,5804078.4318],[32548600.7385,5804121.7445],[32548603.4909,5804143.4061],[32548609.4985,5804215.8766],[32548609.0033,5804249.3626],[32548602.0126,5804295.843],[32548595.2676,5804310.8368],[32548579.7769,5804329.3292],[32548568.3342,5804339.0885],[32548530.5541,5804371.3108],[32548510.8145,5804385.804],[32548491.0743,5804397.2984],[32548481.0793,5804401.2963],[32548460.5887,5804405.2942],[32548440.0976,5804403.295],[32548418.8561,5804393.2999],[32548399.1134,5804377.8076],[32548382.8689,5804359.8166],[32548370.6223,5804339.3271],[32548362.6238,5804316.3388],[32548359.1228,5804291.3514],[32548360.6194,5804264.3651],[32548367.1134,5804235.8791],[32548379.1045,5804205.8934],[32548404.0875,5804161.4134],[32548432.8187,5804121.4298],[32548461.5502,5804086.9423],[32548487.7837,5804060.4508],[32548513.5184,5804040.9558],[32548535.5065,5804032.4565],[32548554.747,5804031.4545],[32548567.4915,5804035.4514]]],[[[32548684.2437,5804463.7634],[32548697.4882,5804467.7612],[32548708.9834,5804473.2582],[32548713.9815,5804476.7565],[32548721.4791,5804485.7521],[32548725.2285,5804496.7468],[32548725.9801,5804518.2369],[32548721.9843,5804543.7249],[32548711.4914,5804569.7125],[32548699.7479,5804585.7048],[32548683.7561,5804599.1981],[32548674.0108,5804605.195],[32548650.2719,5804613.6905],[32548561.3346,5804632.5838],[32548542.0704,5804636.6762],[32548490.5932,5804651.6666],[32548455.8587,5804667.1572],[32548437.9339,5804677.9909],[32548388.8884,5804707.6339],[32548363.1496,5804720.6266],[32548321.1673,5804736.6178],[32548290.6799,5804744.1139],[32548257.9433,5804748.1123],[32548222.7074,5804748.113],[32548205.4643,5804746.6142],[32548176.7255,5804740.6181],[32548154.7162,5804732.1198],[32548138.714,5804721.1231],[32548127.7168,5804709.1288],[32548120.9724,5804696.1364],[32548117.488,5804683.1457],[32548116.9966,5804664.1558],[32548118.9954,5804652.661],[32548127.2414,5804634.6692],[32548141.2352,5804617.1773],[32548153.4798,5804606.1825],[32548168.4735,5804595.6877],[32548194.9622,5804582.1946],[32548215.2751,5804574.8382],[32548226.6988,5804570.701],[32548240.818,5804566.4801],[32548285.6844,5804553.0674],[32548301.9169,5804548.2148],[32548339.1396,5804539.0805],[32548356.8932,5804534.7238],[32548410.2326,5804523.5809],[32548457.3489,5804513.7381],[32548606.8222,5804471.8366],[32548618.0671,5804468.6844],[32548630.2684,5804465.264],[32548656.2564,5804461.7652],[32548684.2437,5804463.7634]]],[[[32567956.1533,5805800.9476],[32567939.1746,5805798.0963],[32567908.7828,5805795.9642],[32567875.1718,5805793.6062],[32567830.6731,5805792.5446],[32567813.6738,5805794.5213],[32567798.9254,5805798.0033],[32567767.9323,5805810.975],[32567730.1952,5805831.9589],[32567721.877,5805837.6949],[32566985.3244,5805828.3688],[32567015.2289,5805788.0006],[32567051.2146,5805735.0262],[32567080.2033,5805685.5502],[32567086.451,5805668.5584],[32567117.192,5805441.665],[32567135.6842,5805456.1589],[32567164.4137,5805475.152],[32567201.9083,5805495.1461],[32567222.9,5805503.6438],[32567261.383,5805514.1426],[32567291.8686,5805517.1451],[32567316.607,5805513.6502],[32567337.5973,5805505.6571],[32567421.3095,5805457.1942],[32567424.805,5805481.6842],[32567434.0474,5805509.174],[32567441.7925,5805521.1703],[32567452.0365,5805529.6685],[32567465.5294,5805532.1703],[32567541.9908,5805530.1881],[32567637.4446,5805530.2098],[32567959.8389,5805533.7913],[32567956.1533,5805800.9476]]],[[[32559035.1345,5805629.0909],[32558804.2504,5805724.7814],[32556848.8537,5805700.0225],[32556849.4302,5805613.6625],[32556849.1128,5805430.6624],[32556849.0136,5805373.432],[32556855.7599,5805302.4547],[32556864.4096,5805255.6529],[32556877.2499,5805205.9856],[32556886.9956,5805177.4947],[32556909.2358,5805125.0114],[32556938.7232,5805073.0279],[32556956.2157,5805048.0357],[32556995.1994,5805003.5498],[32557016.4405,5804985.5553],[32557038.4313,5804970.0601],[32557062.1716,5804958.0636],[32557087.9111,5804948.0666],[32557114.1503,5804940.0688],[32557161.1311,5804929.5714],[32557194.8674,5804924.0726],[32557292.3287,5804978.5528],[32557342.8086,5805004.5431],[32557360.0518,5805012.0403],[32557403.2845,5805027.0343],[32557448.7661,5805036.53],[32557477.0047,5805036.5294],[32557500.745,5805032.5301],[32557510.4911,5805028.0313],[32557519.4873,5805020.5335],[32557527.2341,5805009.037],[32557533.981,5804992.0425],[32557539.9783,5804968.55],[32557545.2257,5804937.0602],[32557547.6694,5804920.8029],[32557561.9807,5804825.5919],[32557567.4647,5804789.1081],[32557567.9643,5804773.1133],[32557564.7152,5804744.123],[32557549.7205,5804686.1424],[32557543.4727,5804667.6487],[32557522.4807,5804626.6628],[32557479.2473,5804560.1857],[32557442.7619,5804550.19],[32557410.2748,5804538.6945],[32557380.0368,5804525.1997],[32557368.0417,5804516.2029],[32557358.5453,5804504.7069],[32557345.8002,5804479.2155],[32557338.0528,5804447.726],[32557332.9777,5804454.1291],[32557305.5665,5804488.7132],[32557282.3264,5804522.2027],[32557269.0819,5804535.1986],[32557258.8362,5804541.1969],[32557252.089,5804542.6964],[32557187.865,5804547.696],[32557152.8793,5804555.194],[32557139.6348,5804560.1925],[32557084.6575,5804597.681],[32557005.1906,5804657.1624],[32556933.9692,5804636.1696],[32556844.5051,5804615.1764],[32556810.2689,5804609.6782],[32556774.7833,5804606.179],[32556720.8469,5804603.6971],[32556893.2504,5804358.3443],[32556944.2731,5804285.9176],[32556980.2918,5804234.7062],[32557000.7141,5804208.9072],[32557027.5853,5804176.6584],[32557054.4567,5804151.9343],[32557100.6759,5804120.7602],[32557195.2637,5804064.8618],[32557202.7877,5804051.9622],[32557199.5629,5804037.9878],[32557189.8889,5804029.3882],[32557171.616,5804022.9387],[32557153.3429,5804012.1892],[32557143.669,5803998.2149],[32557143.3849,5803996.3692],[32557216.7604,5804008.9638],[32557270.504,5804013.263],[32557340.3988,5804014.8922],[32557430.7592,5804011.3674],[32557474.2416,5804014.8652],[32557510.4771,5804022.3619],[32557542.9641,5804032.3578],[32557573.9517,5804044.353],[32557608.188,5804061.3464],[32557657.1687,5804089.8356],[32557689.0389,5804110.4699],[32557735.1378,5804140.3165],[32557768.6245,5804159.3091],[32557796.6134,5804170.3045],[32557823.1027,5804175.8019],[32557860.8374,5804178.7996],[32557893.5742,5804177.2989],[32557919.8134,5804167.3013],[32557964.0452,5804141.3082],[32557962.7538,5804199.6071],[32557961.7976,5804242.7749],[32558164.557,5804259.2136],[32558165.8565,5804259.319],[32558232.9382,5804264.7576],[32558307.9109,5804474.2104],[32558337.9653,5804485.3618],[32558349.6445,5804489.6952],[32558310.411,5804535.6773],[32558276.1757,5804580.6587],[32558246.1886,5804630.6363],[32558225.9477,5804679.6115],[32558214.2034,5804725.0862],[32558210.9551,5804746.0737],[32558208.207,5804783.0506],[32558211.2068,5804826.0215],[32558218.2046,5804850.5032],[32558224.4523,5804859.9949],[32558233.1989,5804866.9874],[32558244.6945,5804870.4811],[32558259.4387,5804870.9757],[32558293.1752,5804863.4689],[32558311.4179,5804856.4671],[32558390.1313,5804818.9661],[32558468.854,5804781.4607],[32558529.0795,5804748.4612],[32558552.5699,5804731.9638],[32558565.5661,5804807.413],[32558585.8097,5804906.3539],[32558611.3006,5805005.8034],[32558625.2954,5805044.7856],[32558654.0343,5805106.26],[32558681.2735,5805152.7427],[32558709.0123,5805192.7292],[32558726.5512,5805213.946],[32558731.4799,5805219.9082],[32558744.0714,5805235.1402],[32558750.7455,5805243.2139],[32558773.986,5805256.7102],[32558787.9803,5805267.2075],[32558816.9686,5805296.1998],[32558828.7138,5805314.6948],[32558836.7106,5805335.6888],[32558839.4596,5805357.6822],[32558837.2106,5805377.176],[32558830.9632,5805394.6702],[32558822.7166,5805410.1651],[32558813.7204,5805422.6607],[32558797.2272,5805439.6548],[32558782.9831,5805454.6496],[32558770.7382,5805471.144],[32558760.2426,5805488.6379],[32558746.7484,5805522.6261],[32558744.2495,5805537.6208],[32558744.7494,5805550.6162],[32558748.7478,5805560.6126],[32558764.2415,5805577.6062],[32558774.9873,5805586.103],[32558801.7265,5805600.5973],[32558835.463,5805611.093],[32559035.1345,5805629.0909]]],[[[32556672.1867,5804603.595],[32556571.1169,5804611.1683],[32556541.8791,5804616.6641],[32556509.3927,5804627.1578],[32556436.9229,5804658.1407],[32556359.9551,5804696.6203],[32556284.4868,5804736.5999],[32556248.7517,5804753.5911],[32556214.0162,5804767.0838],[32556180.0304,5804778.0777],[32556113.5583,5804796.068],[32556080.3219,5804805.0633],[32556013.5999,5804827.0536],[32555937.3815,5804858.5426],[32555852.6667,5804897.0285],[32555771.2003,5804939.0137],[32555735.4651,5804959.5068],[32555704.9777,5804979.0002],[32555677.4891,5804999.9933],[32555649.7505,5805023.4856],[32555597.0225,5805075.9687],[32555573.2823,5805103.4599],[32555535.0484,5805155.9432],[32555522.0539,5805179.4357],[32555512.0584,5805202.4284],[32555486.4949,5805277.2245],[32555471.5744,5805320.8804],[32555451.5822,5805364.8595],[32555424.3432,5805404.3406],[32555392.0756,5805443.9566],[32555373.864,5805466.3156],[32555356.1214,5805490.8076],[32555342.7693,5805513.7092],[32555320.9549,5805558.2257],[32555307.5968,5805616.3374],[32555307.0543,5805630.2669],[32555305.5937,5805667.7694],[32555306.8578,5805683.5208],[32554752.7533,5805677.7824],[32554539.7012,5805568.0211],[32554492.4703,5805545.0312],[32554427.4966,5805516.542],[32554384.7638,5805502.5464],[32554367.2709,5805499.0472],[32554333.2845,5805496.0469],[32554292.3009,5805495.0449],[32554268.5604,5805492.544],[32554245.0699,5805487.5439],[32554197.0891,5805471.5453],[32554087.383,5805424.5519],[32554057.8948,5805413.5537],[32554011.4134,5805400.056],[32553980.9257,5805394.5573],[32553963.9326,5805393.5579],[32553954.3063,5805394.7221],[32553936.6439,5805396.8581],[32553934.7166,5805397.0912],[32553881.2163,5805403.5614],[32553864.4732,5805411.0619],[32553857.2263,5805417.0616],[32553851.2289,5805426.0605],[32553846.9807,5805437.5586],[32553840.4837,5805466.053],[32553835.4861,5805497.5456],[32553834.7369,5805529.0367],[32553836.4863,5805544.5317],[32553849.4007,5805587.6199],[32553856.8135,5805612.3523],[32553861.4894,5805633.0586],[32553862.8256,5805649.0893],[32553862.4875,5805668.5627],[32547519.365,5805602.8728],[32547526.2771,5805561.4746],[32547523.1187,5805561.1376],[32547442.0625,5805552.4889],[32547382.3376,5805551.4932],[32547292.8752,5805557.9916],[32547235.3989,5805565.9914],[32547207.6604,5805571.4923],[32547155.6818,5805588.9935],[32547135.8734,5805598.9013],[32546288.0103,5805590.1208],[32546283.2841,5805522.3049],[32546281.0344,5805509.8101],[32546276.036,5805499.3151],[32546268.2887,5805491.3197],[32546245.0473,5805479.3286],[32546230.053,5805475.3329],[32546208.2978,5805470.4751],[32545945.9062,5805411.8854],[32545908.1687,5805395.392],[32545882.9261,5805377.8959],[32545867.4296,5805359.8978],[32545859.93,5805342.8982],[32545857.9287,5805327.8986],[32545859.1768,5805315.8995],[32545862.9242,5805305.4011],[32545866.6582,5805285.4044],[32545871.4028,5805271.9077],[32545879.1533,5805256.4123],[32545890.1566,5805239.9201],[32545905.6643,5805223.4312],[32545941.9115,5805195.8343],[32545965.3935,5805177.9562],[32545980.3841,5805164.4589],[32546004.6229,5805137.9628],[32546044.8541,5805080.4636],[32546104.5756,5804984.4352],[32546206.0361,5804983.3948],[32546263.0135,5804978.383],[32546285.503,5804973.3819],[32546304.7417,5804965.8816],[32546324.478,5804955.3824],[32546344.4639,5804942.3847],[32546379.6096,5804916.8456],[32546444.2076,5804869.9045],[32546462.9524,5804860.4054],[32546481.695,5804855.9014],[32546500.1878,5804856.8949],[32546518.1809,5804861.3877],[32546536.1741,5804869.8799],[32546553.4172,5804880.8721],[32546587.4039,5804909.3552],[32546604.8971,5804921.3471],[32546624.1398,5804926.3409],[32546644.6322,5804926.8371],[32546681.8236,5804920.2129],[32546731.5986,5804911.3474],[32546752.5899,5804911.3465],[32546770.584,5804915.8428],[32546783.0801,5804922.8387],[32546790.8263,5804932.334],[32546794.0735,5804943.329],[32546793.3235,5804955.8238],[32546789.3253,5804969.3167],[32546772.5818,5804995.2991],[32546716.1024,5805053.2808],[32546659.6228,5805104.7846],[32546629.1231,5805130.278],[32546597.8846,5805153.7732],[32546567.6533,5805173.7706],[32546542.4158,5805192.768],[32546525.6734,5805212.2691],[32546515.6785,5805232.7719],[32546511.4312,5805253.7738],[32546511.1824,5805274.7748],[32546521.1814,5805336.7715],[32546522.182,5805356.2707],[32546519.4338,5805373.7711],[32546513.9368,5805389.7723],[32546506.9402,5805403.2739],[32546485.9497,5805429.7782],[32546542.6773,5805442.7512],[32546616.1479,5805451.7159],[32546664.8782,5805454.6923],[32546755.5744,5805456.4255],[32546844.0551,5805458.1164],[32546901.5319,5805460.5987],[32547063.4672,5805471.0591],[32547089.2066,5805448.5598],[32547104.9502,5805432.562],[32547122.193,5805414.0669],[32547138.6861,5805393.0762],[32547153.4297,5805371.0893],[32547164.9246,5805347.605],[32547170.6718,5805324.6198],[32547170.9213,5805300.1335],[32547166.9236,5805274.6452],[32547146.7888,5805207.3795],[32547132.2175,5805158.7001],[32547125.1084,5805125.219],[32547122.7377,5805092.7344],[32547126.1855,5805064.7408],[32547134.6806,5805041.25],[32547147.6738,5805021.2573],[32547164.1656,5805004.7628],[32547183.4065,5804991.2669],[32547204.3967,5804980.7691],[32547226.6367,5804973.2698],[32547295.2459,5804952.407],[32547713.6793,5804825.1692],[32547736.6696,5804825.161],[32547756.4114,5804829.6534],[32547773.4046,5804838.1461],[32547788.1489,5804849.6391],[32547801.3938,5804863.1323],[32547824.1352,5804890.6198],[32547845.1271,5804912.109],[32547864.6194,5804925.6002],[32547884.6111,5804931.0926],[32547907.6013,5804928.5861],[32547920.8454,5804924.5831],[32547935.0891,5804917.0811],[32547971.596,5804889.6256],[32548003.5452,5804865.5977],[32548024.545,5804853.5948],[32548047.5434,5804845.0914],[32548072.7925,5804840.5897],[32548128.2836,5804839.0829],[32548155.7626,5804841.0786],[32548181.4887,5804845.5727],[32548203.9698,5804853.5659],[32548222.2088,5804866.0588],[32548234.7068,5804883.5509],[32548240.4651,5804907.0424],[32548238.728,5804930.5344],[32548230.7355,5804949.0275],[32548217.4839,5804963.0238],[32548199.7325,5804973.522],[32548178.4866,5804981.523],[32548154.4901,5804987.527],[32548101.5207,5804997.0222],[32548079.2807,5805003.0242],[32548064.5374,5805010.0254],[32548043.0471,5805027.0264],[32548028.5536,5805035.5285],[32548006.5631,5805043.5333],[32547973.3272,5805051.0424],[32547925.0975,5805056.5577],[32547875.3682,5805059.0748],[32547837.8837,5805057.0884],[32547809.8951,5805051.0994],[32547788.6537,5805042.6085],[32547735.175,5805012.6329],[32547711.4347,5805004.1428],[32547681.6967,5804999.6541],[32547647.9607,5805000.6654],[32547611.9756,5805007.1757],[32547574.7413,5805018.6841],[32547538.0069,5805034.1899],[32547503.022,5805053.1923],[32547471.5359,5805075.691],[32547444.7981,5805101.186],[32547425.3072,5805128.6779],[32547414.313,5805158.1668],[32547409.5661,5805187.1547],[32547409.817,5805214.6425],[32547412.8166,5805238.6314],[32547422.8135,5805275.1138],[32547398.6221,5805301.9793],[32547363.6238,5805340.8463],[32547351.207,5805354.6356],[32547304.0302,5805407.0274],[32547279.5056,5805434.263],[32547244.1439,5805473.5335],[32547261.6807,5805472.3695],[32547477.7953,5805458.0255],[32547668.4637,5805427.0145],[32547782.4149,5805402.5047],[32547830.3942,5805389.4997],[32547873.6256,5805373.9953],[32547917.3567,5805354.9907],[32547961.0877,5805332.9857],[32548086.5339,5805264.4655],[32548161.002,5805228.4507],[32548207.8698,5805209.2332],[32548395.1548,5805132.4396],[32548446.3784,5805113.4426],[32548495.3558,5805097.4474],[32548509.9932,5805093.522],[32548540.087,5805085.4517],[32548606.8089,5805072.4574],[32548653.1628,5805069.4963],[32548685.0259,5805067.4608],[32548729.5069,5805060.9648],[32548786.4825,5805045.4738],[32548840.7088,5805025.4851],[32548897.1838,5805001.4982],[32548903.3326,5805010.2956],[32548907.4271,5805016.1538],[32548915.6269,5805027.8857],[32548917.6742,5805030.8149],[32548921.7747,5805036.6817],[32548927.9218,5805045.4767],[32548945.5942,5805036.7202],[32548953.7655,5805032.6714],[32548963.263,5805027.9655],[32548979.6167,5805019.8625],[32548996.2018,5805011.6447],[32549011.6342,5805003.9981],[32549015.6293,5804927.036],[32549015.3759,5804859.5688],[32549013.375,5804827.0843],[32549009.6248,5804798.5977],[32548997.1256,5804731.1295],[32548996.3742,5804708.6397],[32548998.3712,5804684.1505],[32549003.8661,5804655.1629],[32549014.1081,5804621.1767],[32549029.3469,5804580.6919],[32549080.9699,5804462.2747],[32549099.2936,5804420.2422],[32549129.0185,5804344.2618],[32549141.7564,5804304.7719],[32549152.7449,5804263.2827],[32549160.9844,5804220.2945],[32549166.7253,5804177.3071],[32549169.9678,5804135.3203],[32549170.9617,5804094.3344],[32549167.4537,5804017.3646],[32549163.9516,5803982.38],[32549154.2002,5803919.9107],[32549128.4553,5803789.4891],[32549127.7073,5803773.3611],[32549126.202,5803740.906],[32549124.6797,5803708.0847],[32549123.9594,5803692.5552],[32549120.2178,5803590.6213],[32549118.2315,5803464.6985],[32549119.4884,5803403.2346],[32549122.4937,5803352.2638],[32549128.4959,5803317.7832],[32549144.4944,5803287.3003],[32549168.241,5803249.3212],[32549182.4884,5803230.3317],[32549197.2351,5803214.3405],[32549212.2311,5803203.3466],[32549229.226,5803195.8509],[32549293.2053,5803174.8637],[32549314.4484,5803165.8692],[32549333.1923,5803155.3756],[32549347.9377,5803142.3833],[32549357.6852,5803125.8928],[32549372.9319,5803083.4173],[32549383.1791,5803060.4308],[32549396.4249,5803037.4449],[32549413.6687,5803016.9583],[32549435.4103,5803000.4701],[32549462.8992,5802988.9802],[32549496.6351,5802984.9873],[32549474.1758,5802975.5024],[32549425.256,5802954.8427],[32549411.3178,5802948.9564],[32549366.4407,5802930.0041],[32549361.9946,5802885.849],[32549359.2155,5802858.2491],[32549357.5818,5802842.0239],[32549344.4527,5802711.6344],[32549240.9979,5802608.1812],[32549246.4163,5802322.1359],[32549247.4628,5802266.887],[32549454.6232,5802266.9496],[32549470.12,5802090.3944],[32549475.1183,5802059.869],[32549483.1153,5802033.3433],[32549493.3611,5802010.8204],[32549505.356,5801991.8023],[32549518.1005,5801975.2907],[32549521.9863,5801970.9957],[32549540.3701,5801950.6765],[32549553.8345,5801935.7946],[32549562.5801,5801923.7991],[32549574.5732,5801897.3096],[32549580.3188,5801873.3193],[32549582.5664,5801856.3262],[32549587.0633,5801844.8306],[32549606.0506,5801813.3417],[32549621.3323,5801792.6682],[32549632.2831,5801777.8536],[32549675.5697,5801725.0984],[32549703.2365,5801691.3798],[32549714.9788,5801674.3849],[32549724.7222,5801656.8905],[32549731.2174,5801639.8962],[32549731.5078,5801637.7001],[32549733.4649,5801622.9024],[32549729.9655,5801607.4087],[32549720.2194,5801594.4148],[32549704.2267,5801584.4207],[32549684.2362,5801576.9259],[32549661.2475,5801571.4307],[32549627.38,5801566.0963],[32549569.2936,5801556.9473],[32549549.8031,5801548.9527],[32549529.0627,5801535.4603],[32549508.072,5801517.9695],[32549470.5878,5801479.9885],[32549447.5484,5801453.5378],[32549443.5989,5801449.0036],[32549340.6017,5801584.0491],[32549303.7515,5801632.3655],[32549273.9577,5801671.4299],[32549230.9913,5801611.5943],[32549225.4314,5801603.8514],[32549212.2333,5801585.4715],[32549231.07,5801559.9927],[32549256.2064,5801525.9926],[32549228.8565,5801516.378],[32549214.6623,5801511.3881],[32549201.5081,5801506.7638],[32549124.02,5801479.5235],[32549111.7795,5801549.4945],[32549104.5331,5801616.4744],[32549103.2833,5801651.9808],[32549105.0318,5801718.5084],[32549103.2821,5801746.0242],[32549099.5332,5801769.539],[32549094.5349,5801788.0511],[32549080.0404,5801821.5711],[32549058.4465,5801797.2735],[32549044.0586,5801781.0841],[32549015.2683,5801748.6892],[32549008.071,5801740.5908],[32548972.0881,5801700.1027],[32548846.6431,5801572.1435],[32548782.1713,5801500.6632],[32548760.4308,5801473.1688],[32548730.4442,5801424.6731],[32548717.9498,5801399.673],[32548662.7246,5801271.1715],[32548646.7316,5801239.176],[32548634.9866,5801221.6808],[32548620.243,5801204.1873],[32548601.2511,5801186.6955],[32548577.5112,5801169.2058],[32548537.3888,5801144.2051],[32548504.5422,5801123.7381],[32548492.5473,5801114.2432],[32548481.0522,5801102.2481],[32548469.3073,5801086.2528],[32548439.3201,5801037.7666],[32548394.5889,5800970.2936],[32548313.1222,5800853.8489],[32548399.3295,5800825.3548],[32548477.5376,5800802.8577],[32548517.0159,5800792.8583],[32548586.9775,5800779.357],[32548634.1573,5800768.7262],[32548755.6359,5800741.3539],[32548788.8688,5800736.3522],[32548857.085,5800730.3465],[32548967.5333,5800727.8346],[32549046.7481,5800728.3251],[32549046.7507,5800829.7867],[32549047.0154,5800835.0759],[32549050.0022,5800894.7617],[32549057.0031,5800958.7366],[32549071.0016,5801027.7087],[32549082.2489,5801061.1946],[32549096.9943,5801092.6809],[32549113.7385,5801121.6678],[32549131.7316,5801147.1559],[32549149.7244,5801168.1458],[32549166.4673,5801183.6379],[32549181.2105,5801193.1326],[32549192.4549,5801195.6303],[32549200.7,5801189.6317],[32549207.6952,5801177.1357],[32549212.9408,5801158.1422],[32549216.9369,5801134.6507],[32549219.9311,5801076.6725],[32549216.6792,5801012.6971],[32549211.4303,5800979.7102],[32549203.4328,5800947.2235],[32549193.1866,5800915.2368],[32549181.1913,5800884.7498],[32549155.7017,5800832.2728],[32549124.9646,5800784.2947],[32549120.9664,5800772.7995],[32549119.7169,5800762.3036],[32549120.7165,5800753.3069],[32549124.7149,5800739.3118],[32549128.4633,5800734.8132],[32549192.9373,5800704.8175],[32549293.648,5800664.8234],[32549337.1307,5800645.8211],[32549358.8723,5800635.3136],[32549399.3573,5800610.2991],[32549417.1011,5800595.7964],[32549433.5956,5800578.7983],[32549449.8406,5800557.8066],[32549478.8317,5800512.8372],[32549503.9884,5800466.0388],[32549507.5712,5800459.3737],[32549542.1446,5800429.3766],[32549563.1683,5800408.3814],[32549585.3841,5800382.3938],[32549606.1262,5800352.4741],[32549623.6224,5800319.0231],[32549635.3703,5800282.9909],[32549680.7533,5800087.4887],[32549682.2078,5800081.2229],[32549686.0903,5800064.498],[32549722.82,5800097.9803],[32549761.5569,5800141.9586],[32549764.4745,5800146.8363],[32549775.3086,5800164.9485],[32549781.567,5800185.9406],[32549776.582,5800203.4355],[32549752.3503,5800237.9268],[32549728.3389,5800281.4135],[32549717.3358,5800305.9061],[32549700.3409,5800359.4753],[32549694.8408,5800388.9933],[32549687.8388,5800452.4015],[32549681.3684,5800552.2757],[32549679.5526,5800580.3031],[32549717.8474,5800574.2985],[32549770.5511,5800570.2995],[32549799.5384,5800571.3354],[32549827.777,5800574.8747],[32549853.5169,5800582.895],[32549869.643,5800590.0782],[32549924.2386,5800614.3974],[32549968.503,5800636.3303],[32550020.9487,5800662.317],[32550113.6588,5800713.7159],[32550149.3929,5800737.1888],[32550181.9976,5800765.2866],[32550209.1163,5800788.6568],[32550228.1079,5800800.6483],[32550246.1005,5800809.1424],[32550262.8453,5800813.1383],[32550277.093,5800811.6368],[32550287.8435,5800803.1383],[32550294.3456,5800787.6432],[32550301.2857,5800744.0492],[32550305.3267,5800718.6656],[32550311.0509,5800692.6731],[32550320.0107,5800664.6799],[32550332.9629,5800636.1864],[32550351.1781,5800606.1939],[32550375.9388,5800575.7079],[32550390.4752,5800561.6652],[32550404.9357,5800547.6959],[32550435.4252,5800524.6668],[32550466.4116,5800505.1393],[32550496.8983,5800488.6208],[32550543.5488,5800467.26],[32550576.6265,5800452.1141],[32550614.9965,5800429.6205],[32550657.5727,5800400.6272],[32550678.7841,5800382.631],[32550698.7995,5800362.6593],[32550716.2146,5800340.6844],[32550730.1229,5800316.1816],[32550739.6582,5800289.1847],[32550744.9141,5800261.6927],[32550747.1558,5800235.6985],[32550747.0937,5800210.7042],[32550744.4865,5800186.2109],[32550739.3626,5800162.7186],[32550723.3702,5800116.2367],[32550673.6239,5800016.2822],[32550649.1329,5799962.8071],[32550632.3888,5799913.829],[32550628.8899,5799892.338],[32550628.8896,5799872.8457],[32550631.8881,5799853.8529],[32550637.1357,5799835.3594],[32550653.785,5799793.803],[32550666.3729,5799762.3838],[32550668.122,5799750.8881],[32550668.6214,5799722.8991],[32550664.1225,5799674.4187],[32550646.6448,5799639.4669],[32550615.6403,5799577.4645],[32550654.6241,5799535.4751],[32550709.8514,5799482.4874],[32550741.0886,5799455.4932],[32550772.8256,5799431.9975],[32550803.0632,5799414.4996],[32550926.0134,5799354.004],[32550990.4872,5799327.0043],[32551022.4744,5799316.5034],[32551054.2116,5799308.5014],[32551086.6986,5799302.4985],[32551119.9352,5799298.4948],[32551182.6602,5799293.9864],[32551248.1341,5799292.9762],[32551261.098,5799296.7472],[32551315.1077,5799312.4577],[32551355.5917,5799322.4473],[32551384.3304,5799331.9388],[32551431.0621,5799350.4241],[32551441.4503,5799326.6462],[32551455.3015,5799294.9416],[32551469.5457,5799281.9443],[32551479.2917,5799277.9443],[32551502.0326,5799272.9425],[32551532.6869,5799270.9382],[32551548.0141,5799269.936],[32551559.7595,5799267.435],[32551583.7497,5799258.4346],[32551606.9903,5799245.9355],[32551627.232,5799231.4378],[32551636.2282,5799221.4401],[32551653.9707,5799192.4484],[32551670.4636,5799154.96],[32551691.2044,5799098.9782],[32551704.6983,5799054.4931],[32551725.9385,5798967.0231],[32551735.434,5798917.5406],[32551737.4329,5798900.5468],[32551736.4331,5798887.0522],[32551732.4345,5798873.558],[32551718.4396,5798846.071],[32551695.6981,5798808.0895],[32551691.1998,5798797.0945],[32551689.9501,5798785.0993],[32551692.4489,5798771.604],[32551697.4466,5798757.1087],[32551711.9404,5798728.1174],[32551730.9323,5798695.6266],[32551733.6811,5798686.6297],[32551737.4289,5798643.6456],[32551737.4284,5798611.158],[32551737.4283,5798605.1603],[32551762.9179,5798587.1629],[32551795.6544,5798558.6682],[32551811.8976,5798540.1724],[32551825.8917,5798519.6778],[32551836.6371,5798497.1846],[32551843.1341,5798474.6921],[32551848.3407,5798444.4401],[32551853.6289,5798413.7136],[32551858.8766,5798396.2194],[32551867.6229,5798380.7238],[32551880.8674,5798367.2266],[32551900.6093,5798356.2274],[32551922.8503,5798346.7271],[32552016.0625,5798310.7245],[32552063.793,5798284.726],[32552109.0242,5798247.2322],[32552158.3737,5798196.1097],[32552178.9952,5798174.7474],[32552211.4819,5798153.2498],[32552228.9747,5798145.2497],[32552252.2168,5798137.2204],[32552299.4463,5798126.7441],[32552330.0655,5798124.0485],[32552396.1575,5798118.23],[32552415.3997,5798113.7283],[32552433.3924,5798107.2275],[32552457.132,5798092.979],[32552498.3658,5798068.2306],[32552526.6588,5798053.8286],[32552569.0869,5798032.2314],[32552668.2963,5797978.7337],[32552721.2746,5797945.2367],[32552781.9995,5797899.7428],[32552811.4873,5797874.2471],[32552835.7272,5797850.7515],[32552855.2191,5797828.7561],[32552871.4622,5797807.7611],[32552895.452,5797769.7709],[32552914.4438,5797734.2808],[32552937.9337,5797685.2948],[32552982.9141,5797583.3247],[32553017.8987,5797498.3499],[32553039.8891,5797449.864],[32553061.8796,5797401.378],[32553088.6185,5797377.382],[32553127.8523,5797347.8858],[32553151.3425,5797333.8867],[32553175.8326,5797322.3865],[32553203.0721,5797314.8842],[32553239.0637,5797309.8796],[32553289.5517,5797300.3739],[32553316.0453,5797294.3712],[32553361.7843,5797280.3682],[32553377.2805,5797271.3686],[32553387.7778,5797259.3712],[32553394.2759,5797245.3751],[32553397.5249,5797229.3806],[32553398.2741,5797196.3926],[32553394.2736,5797120.9212],[32553387.5246,5797087.9346],[32553375.027,5797051.9502],[32553366.2787,5797033.4586],[32553354.781,5797014.9676],[32553340.7842,5796996.9768],[32553311.0408,5796965.9938],[32553275.7987,5796936.5112],[32553293.5436,5796878.5293],[32553313.2877,5796799.5549],[32553323.7841,5796731.5781],[32553330.0317,5796665.6014],[32553331.2807,5796619.1183],[32553329.2806,5796568.6374],[32553323.0315,5796511.6596],[32553308.784,5796423.195],[32553307.5749,5796401.6034],[32553307.4646,5796399.6334],[32553297.7847,5796226.7697],[32553298.034,5796155.2962],[32553300.7829,5796107.8132],[32553305.7814,5796066.8274],[32553314.4257,5796024.5272],[32553325.265,5795971.4857],[32553329.2745,5795951.8655],[32553336.8048,5795959.3322],[32553390.7593,5796012.8312],[32553447.7454,5796072.2985],[32553497.7333,5796132.7667],[32553539.9161,5796189.2942],[32553544.7222,5796195.7347],[32553533.9756,5796248.2173],[32553526.9781,5796305.6974],[32553524.9791,5796339.6853],[32553524.9796,5796376.6717],[32553528.7297,5796447.6448],[32553536.4787,5796510.1203],[32553546.4771,5796565.5981],[32553597.7182,5796782.0091],[32553608.4753,5796890.5435],[32553610.3517,5796909.4758],[32553612.6526,5796932.6907],[32553619.2172,5796998.9254],[32553630.7183,5797187.8539],[32553626.9435,5797198.9813],[32553621.2225,5797215.8458],[32553597.6577,5797285.3107],[32553573.2359,5797357.3018],[32553558.7408,5797422.7804],[32553549.2445,5797483.2599],[32553547.7452,5797505.2519],[32553549.9963,5797568.7282],[32553555.6721,5797641.3064],[32553564.4974,5797754.1576],[32553564.4981,5797781.6475],[32553561.2494,5797804.1398],[32553555.2512,5797823.1339],[32553547.5036,5797840.1289],[32553517.512,5797894.6142],[32553507.265,5797919.6067],[32553479.0237,5798001.0816],[32553464.0286,5798057.0636],[32553459.0306,5798086.0538],[32553455.5323,5798115.5435],[32553454.4359,5798152.9289],[32553459.0349,5798242.4961],[32553476.5354,5798395.437],[32553482.0351,5798429.4236],[32553503.7829,5798522.3859],[32553532.7795,5798628.3422],[32553560.526,5798722.3032],[32553615.7498,5798897.0466],[32553672.5114,5799076.6561],[32553680.5102,5799097.6472],[32553712.2547,5799157.6205],[32553724.9325,5799189.6939],[32553729.0023,5799202.6016],[32553732.7522,5799228.5915],[32553732.2534,5799257.0812],[32553727.7554,5799285.0718],[32553721.0078,5799308.0645],[32553711.7607,5799327.059],[32553700.2641,5799344.0545],[32553686.018,5799360.0509],[32553628.5337,5799416.0393],[32553608.5394,5799439.5338],[32553594.0437,5799463.5272],[32553584.5468,5799488.5196],[32553579.299,5799513.5113],[32553577.3004,5799538.5024],[32553578.0512,5799562.9934],[32553584.5515,5799611.9746],[32553591.051,5799638.9638],[32553602.5494,5799669.9508],[32553617.797,5799703.9362],[32553636.0439,5799737.9212],[32553656.7902,5799771.4059],[32553679.036,5799801.3918],[32553702.2813,5799826.8791],[32553725.5263,5799845.869],[32553748.5211,5799858.8609],[32553770.766,5799868.3544],[32553810.5066,5799879.3448],[32553848.9971,5799883.338],[32553857.8263,5799915.6473],[32553862.2544,5799931.8514],[32553871.0764,5799964.1339],[32553875.494,5799980.2994],[32553855.4998,5800000.7947],[32553831.0071,5800033.7864],[32553819.7607,5800054.7803],[32553810.5139,5800078.2732],[32553805.0164,5800103.7648],[32553804.7676,5800134.2538],[32553810.2675,5800170.74],[32553819.2667,5800210.7244],[32553841.764,5800286.694],[32553862.261,5800343.6708],[32553860.5116,5800347.1698],[32553839.2686,5800389.6575],[32553818.526,5800441.6415],[32553808.0299,5800472.6318],[32553790.2872,5800541.1096],[32553780.0424,5800603.5885],[32553778.2941,5800632.5784],[32553778.795,5800659.5687],[32553781.7953,5800686.0588],[32553787.5449,5800711.049],[32553796.0437,5800736.0389],[32553807.2916,5800759.5292],[32553820.5391,5800780.0201],[32553835.5358,5800797.512],[32553851.7821,5800812.5046],[32553869.2779,5800824.9979],[32553887.2736,5800835.4919],[32553924.0144,5800850.9818],[32553962.7543,5800860.9736],[32554033.1519,5800871.7945],[32554040.7337,5800872.9599],[32554037.9856,5800904.9489],[32554035.2375,5800936.9379],[32554032.4894,5800968.927],[32554029.7414,5801000.9159],[32553947.4683,5801080.123],[32553932.6889,5801094.3516],[32553898.257,5801127.5004],[32553890.8697,5801134.6124],[32553849.0478,5801174.8758],[32553854.5503,5801267.3423],[32553857.1752,5801311.4523],[32553857.4706,5801316.4161],[32553860.0527,5801359.8087],[32553936.3407,5801472.0968],[32553964.1535,5801513.0344],[32554012.7343,5801584.5403],[32554089.2507,5801697.1643],[32554160.1559,5801738.2038],[32554304.5083,5801821.7541],[32554330.8577,5801837.005],[32554479.2797,5801922.9108],[32554550.1186,5801964.0287],[32554620.1673,5802012.9205],[32554627.9012,5802018.3185],[32554666.8333,5802045.4919],[32554668.0832,5802059.487],[32554676.0809,5802071.9822],[32554690.0766,5802082.9774],[32554709.3205,5802092.9726],[32554759.8043,5802110.463],[32554821.0343,5802126.9533],[32554853.2736,5802133.449],[32554885.0131,5802137.4456],[32554941.4939,5802139.4415],[32554975.6873,5802137.9719],[32554999.7239,5802136.9389],[32555023.9658,5802151.9326],[32555042.2098,5802168.426],[32555048.2078,5802177.4227],[32555050.4572,5802186.4196],[32555047.2085,5802197.4161],[32555039.4614,5802210.912],[32555027.9657,5802226.4075],[32555002.225,5802255.8989],[32554979.7332,5802278.8926],[32554925.0027,5802315.8833],[32554886.6112,5802339.8993],[32554860.2756,5802356.3736],[32554839.2831,5802375.8683],[32554825.788,5802393.8632],[32554819.0406,5802406.8591],[32554808.2954,5802466.3398],[32554804.0476,5802509.8256],[32554803.5483,5802532.3181],[32554804.5484,5802553.8107],[32554807.7977,5802573.8039],[32554819.7943,5802612.2902],[32554860.7818,5802699.7585],[32554875.5271,5802726.2489],[32554893.7712,5802751.7394],[32554913.7646,5802775.7303],[32554952.5014,5802815.2152],[32554970.1956,5802830.8092],[32554981.9915,5802841.205],[32554983.862,5802843.886],[32554996.9864,5802862.6972],[32555023.4774,5802892.686],[32555041.4711,5802909.6796],[32555062.9636,5802926.673],[32555136.4374,5802969.156],[32555193.9165,5802996.6448],[32555223.1558,5803005.1411],[32555246.897,5803006.14],[32555282.6336,5803004.6394],[32555309.6235,5803008.1374],[32555341.3615,5803019.6329],[32555439.8244,5803066.6154],[32555470.3127,5803079.1108],[32555491.5545,5803082.6093],[32555516.8176,5803084.9411],[32555548.4083,5803087.857],[32555572.7728,5803090.1059],[32555776.1895,5803218.1481],[32556042.0809,5803385.5154],[32556044.03,5803378.368],[32556044.8655,5803375.3041],[32556046.5789,5803369.0207],[32556051.0819,5803352.508],[32556067.3897,5803352.509],[32556110.5563,5803352.5118],[32556130.0822,5803376.3155],[32556137.0724,5803384.8371],[32556181.2597,5803438.7051],[32556200.767,5803462.486],[32556192.6887,5803506.1882],[32556192.3098,5803508.2379],[32556189.772,5803521.9671],[32556231.7537,5803542.9647],[32556272.2359,5803559.4639],[32556325.4626,5803576.9645],[32556358.2844,5803585.7487],[32556407.6766,5803598.9677],[32556456.9053,5803616.4684],[32556477.8963,5803627.4674],[32556496.1385,5803640.9654],[32556522.1275,5803670.4592],[32556550.8655,5803712.4491],[32556562.8605,5803724.9465],[32556577.8542,5803736.4443],[32556597.5959,5803746.9429],[32556645.5758,5803768.4399],[32556666.317,5803774.4395],[32556688.5578,5803775.9403],[32556740.0362,5803774.4433],[32556748.5327,5803776.443],[32556765.2759,5803786.4404],[32556775.2719,5803795.9377],[32556798.2628,5803822.43],[32556820.7542,5803854.4203],[32556830.5003,5803863.9175],[32556844.2449,5803873.9146],[32556890.7263,5803896.9079],[32556959.199,5803926.3992],[32557035.4185,5803957.8893],[32557092.5088,5803979.1123],[32556988.6912,5804121.4678],[32556976.2253,5804140.9478],[32556965.3178,5804171.3366],[32556954.4102,5804200.9461],[32556940.3862,5804228.218],[32556911.5588,5804272.6324],[32556874.1611,5804327.9554],[32556844.944,5804367.6945],[32556831.6989,5804381.72],[32556824.6348,5804387.6073],[32556805.2087,5804406.6542],[32556672.1867,5804603.595]],[[32550050.8169,5801658.8503],[32550007.8355,5801624.8683],[32549969.3964,5801648.1339],[32549868.9801,5801708.9117],[32549840.1691,5801726.3499],[32549843.6519,5801747.5866],[32549844.278,5801751.4042],[32549847.1365,5801768.8344],[32549851.2122,5801793.6852],[32549851.6819,5801796.5501],[32549852.6292,5801802.3262],[32549855.1691,5801817.8131],[32549937.9547,5801851.4753],[32549959.6189,5801860.2843],[32549978.1101,5801866.2797],[32549982.8142,5801867.1861],[32549998.8498,5801870.2758],[32550021.0867,5801841.2841],[32550028.5826,5801833.2862],[32550039.0771,5801827.2872],[32550066.8134,5801819.2868],[32550095.2941,5801813.8865],[32550114.291,5801810.2845],[32550129.0342,5801805.7845],[32550140.2789,5801798.7858],[32550146.0262,5801788.2891],[32550147.5253,5801775.2941],[32550145.2762,5801760.7999],[32550140.0284,5801745.8064],[32550132.2817,5801731.3128],[32550123.2857,5801718.8187],[32550113.5397,5801708.8237],[32550050.8169,5801658.8503]],[[32550711.1172,5801180.4124],[32550594.1922,5801157.9609],[32550483.9857,5801340.9087],[32550575.5735,5801331.8434],[32550590.5295,5801330.3631],[32550618.4216,5801327.6023],[32550624.8033,5801324.4888],[32550638.9869,5801317.5691],[32550647.6324,5801313.3512],[32550691.1555,5801292.1176],[32550867.2592,5801210.3943],[32550711.1172,5801180.4124]]]],"crs":{"type":"EPSG","properties":{"code":4647}}},"properties":{"BGL":6,"BGL_NAME":"Talsandniederungen und Urstromtäler","FL_NR":456}}]}