{"type": "FeatureCollection","features":[{"type":"Feature","geometry":{"type":"Polygon","coordinates":[[[32564760.9308,5785989.3834],[32564740.2647,5785994.5695],[32564724.0135,5785998.6477],[32564719.5965,5785999.7561],[32564689.182,5786007.3886],[32564675.8966,5786010.7226],[32564655.1905,5786015.9188],[32564637.8935,5785960.0636],[32564628.718,5785930.4343],[32564606.7357,5785859.4494],[32564635.4416,5785770.9381],[32564642.7864,5785748.2913],[32564667.1663,5785673.1186],[32564688.1917,5785614.4464],[32564697.4426,5785594.2245],[32564709.4422,5785574.2537],[32564723.6941,5785555.2673],[32564736.7618,5785541.1658],[32564739.4476,5785538.2675],[32564755.7019,5785523.2662],[32564771.9561,5785511.2691],[32564787.2097,5785501.7768],[32564798.9747,5785497.4276],[32564800.7113,5785496.7856],[32564815.2114,5785494.7951],[32564833.9599,5785495.3068],[32564855.9564,5785498.3194],[32564880.7008,5785504.3307],[32564906.9429,5785512.3391],[32564934.6831,5785523.3431],[32564962.6725,5785536.3428],[32564990.1624,5785551.8399],[32565018.9018,5785570.3353],[32565049.1407,5785592.3297],[32565109.618,5785641.3185],[32565136.8575,5785665.8143],[32565178.841,5785707.3098],[32565190.8362,5785721.3094],[32565198.5827,5785733.8101],[32565210.0772,5785763.3111],[32565213.5754,5785779.3084],[32565215.3213,5785811.2896],[32565213.0679,5785826.2737],[32565208.3138,5785840.2551],[32565200.8091,5785852.7359],[32565189.8041,5785863.7177],[32565175.5493,5785872.7037],[32565158.5444,5785881.1955],[32565117.0367,5785895.7029],[32565073.5488,5785907.1432],[32565015.93,5785922.3009],[32564958.5624,5785937.3926],[32564908.1123,5785950.6645],[32564864.8237,5785962.0524],[32564844.2024,5785967.4772],[32564807.8868,5785977.0307],[32564760.9308,5785989.3834]]],"crs":{"type":"EPSG","properties":{"code":4647}}},"properties":{"FL_NR":560454,"BKF_SZ_1991_2020":3.8,"BKF_FJZ_1991_2020":3.8,"EIGNUNG":4,"BKF":3.8}}]}