{"type": "FeatureCollection","features":[{"type":"Feature","geometry":{"type":"MultiPolygon","coordinates":[[[[32554447.3993,5783485.6053],[32554443.9016,5783531.0866],[32554441.6527,5783543.5877],[32554432.9066,5783561.5897],[32554420.9115,5783571.0811],[32554408.1667,5783575.0666],[32554395.6715,5783575.0544],[32554379.178,5783571.5737],[32554359.9352,5783562.5635],[32554349.6892,5783555.5582],[32554329.4474,5783535.5658],[32554320.4508,5783522.0741],[32554313.7032,5783506.0849],[32554308.705,5783490.096],[32554302.9566,5783460.1544],[32554300.3764,5783427.9037],[32554448.777,5783429.4365],[32554447.3993,5783485.6053]]],[[[32559343.747,5785822.2726],[32559356.742,5785828.2483],[32559366.4883,5785838.7508],[32559371.2367,5785852.281],[32559372.7363,5785867.8285],[32559368.4885,5785898.9426],[32559360.9918,5785923.5343],[32559337.188,5785949.7471],[32559321.8692,5785966.6162],[32559292.7697,5785998.6606],[32559248.2876,5786026.6186],[32559225.5468,5786039.0984],[32559217.7999,5786042.592],[32559200.5568,5786044.082],[32559177.066,5786040.0723],[32559165.5704,5786035.0697],[32559155.3244,5786027.0696],[32559147.3274,5786016.5723],[32559142.8289,5786002.5793],[32559143.8283,5785986.0907],[32559150.5754,5785967.6065],[32559162.0706,5785948.1257],[32559193.5577,5785908.6689],[32559210.8005,5785890.6898],[32559255.7823,5785850.6107],[32559285.0205,5785831.4899],[32559300.2643,5785824.9245],[32559315.2583,5785820.8635],[32559329.7526,5785819.8118],[32559343.747,5785822.2726]]],[[[32548901.2797,5796908.742],[32548871.0326,5796969.497],[32548841.8051,5797028.2041],[32548823.5628,5797057.6951],[32548805.5703,5797081.6882],[32548773.5835,5797116.6788],[32548751.0927,5797135.6742],[32548746.3428,5797015.7202],[32548746.5919,5796970.2373],[32548750.8399,5796951.244],[32548761.5854,5796928.7512],[32548777.5786,5796903.7587],[32548821.0607,5796848.7743],[32548872.5394,5796792.2894],[32548923.0187,5796742.3021],[32548945.0097,5796726.3055],[32548964.2519,5796715.3073],[32548993.4902,5796705.8073],[32549010.9832,5796705.8052],[32548901.2797,5796908.742]]],[[[32558843.6983,5786112.3483],[32558850.9455,5786119.8474],[32558856.4435,5786132.842],[32558859.4426,5786150.3324],[32558859.6931,5786195.8032],[32558857.1945,5786221.2857],[32558848.6986,5786271.2492],[32558842.9512,5786293.7319],[32558828.7073,5786331.2006],[32558818.9614,5786349.184],[32558793.222,5786383.6488],[32558777.7283,5786398.6313],[32558760.7351,5786410.6149],[32558741.9927,5786420.0991],[32558722.0007,5786425.5852],[32558703.0082,5786427.0744],[32558687.0144,5786424.5676],[32558674.0195,5786419.0642],[32558663.5235,5786410.5639],[32558655.7764,5786400.0664],[32558650.0285,5786387.5712],[32558644.7802,5786359.5859],[32558645.5297,5786343.0966],[32558653.526,5786304.1252],[32558675.7664,5786239.1778],[32558687.0117,5786225.1927],[32558702.2554,5786210.2103],[32558763.3237,5786158.8095],[32558784.722,5786140.7986],[32558798.4664,5786125.8155],[32558806.4632,5786119.3239],[32558825.2056,5786110.3398],[32558834.7018,5786109.3455],[32558843.6983,5786112.3483]]],[[[32548888.3871,5797977.4004],[32548852.8152,5797979.8394],[32548796.3518,5797985.4088],[32548654.8751,5797999.3637],[32548649.8908,5797954.8764],[32548649.9126,5797930.8838],[32548654.892,5797881.4011],[32548666.1368,5797829.9199],[32548673.8834,5797803.4292],[32548695.1241,5797744.4492],[32548751.1,5797615.9915],[32548775.3399,5797588.999],[32548799.5799,5797562.0064],[32548823.8199,5797535.0137],[32548848.06,5797508.021],[32548834.3161,5797550.5065],[32548828.069,5797580.9957],[32548824.0712,5797617.982],[32548823.8219,5797659.4661],[32548829.0705,5797705.9477],[32548841.3164,5797754.9274],[32548885.051,5797883.8723],[32548918.5392,5797975.333],[32548888.3871,5797977.4004]]],[[[32565441.9049,5791583.3888],[32565592.0971,5791755.8629],[32565663.8194,5791842.3528],[32565684.3116,5791869.8515],[32565721.7974,5791928.8545],[32565826.0078,5792106.8446],[32565884.844,5792216.8784],[32565960.3901,5792358.1627],[32565865.65,5792409.8408],[32565779.1701,5792490.1462],[32565723.5768,5792619.869],[32565667.9845,5792805.1869],[32565637.1001,5792928.7319],[32565562.9744,5793002.8598],[32565482.6707,5793021.3928],[32565427.1456,5793021.3937],[32565428.8547,5792962.8251],[32565434.9197,5792754.9826],[32565435.4192,5792731.4942],[32565433.9197,5792718.0007],[32565424.9229,5792690.513],[32565410.4285,5792663.0244],[32565382.4391,5792617.5429],[32565355.4493,5792580.0576],[32565337.7062,5792551.0696],[32565325.2108,5792520.0834],[32565321.7121,5792504.5906],[32565319.4627,5792473.6059],[32565323.7106,5792444.6211],[32565328.2088,5792431.6283],[32565342.7027,5792407.6423],[32565353.4484,5792398.1486],[32565366.4432,5792390.654],[32565380.9374,5792384.659],[32565416.9325,5792374.8032],[32565435.6655,5792369.6739],[32565450.6594,5792361.6798],[32565462.9044,5792349.1877],[32565467.9024,5792339.1932],[32565471.9006,5792325.7005],[32565474.6493,5792307.7098],[32565475.1486,5792253.2371],[32565468.3388,5792116.0212],[32565464.5115,5792038.9025],[32565455.3135,5791853.5671],[32565452.8893,5791804.7215],[32565448.543,5791717.145],[32565441.9049,5791583.3888]]],[[[32561826.8459,5783519.61],[32561824.2643,5783524.398],[32561799.8236,5783576.4078],[32561748.0952,5783671.3268],[32561731.35,5783696.8117],[32561704.2685,5783726.7036],[32561685.6122,5783747.2959],[32561658.6192,5783787.7818],[32561618.3659,5783866.1972],[32561590.8901,5783919.7213],[32561580.3937,5783934.2163],[32561568.3979,5783947.2123],[32561539.908,5783969.7072],[32561527.9205,5783982.8947],[32561519.1653,5783995.2001],[32561505.6699,5784024.691],[32561493.5936,5784070.0605],[32561487.1764,5784094.169],[32561480.4287,5784114.1636],[32561465.1839,5784153.1537],[32561446.1903,5784194.1444],[32561373.4649,5784256.6388],[32561327.7297,5784292.6356],[32561230.7599,5784357.1296],[32561210.5161,5784369.1283],[32561167.5294,5784390.6263],[32561120.544,5784407.1257],[32561076.0583,5784420.6255],[32561017.0778,5784434.1264],[32560966.595,5784440.6288],[32560875.1278,5784441.1373],[32560866.9524,5784438.2742],[32560830.8944,5784425.6462],[32560799.3388,5784417.5798],[32560766.6689,5784411.6575],[32560725.1852,5784410.6635],[32560686.9502,5784412.1685],[32560647.4652,5784417.6725],[32560575.4964,5784436.5222],[32560469.4835,5784475.5988],[32560350.0817,5784519.6105],[32560288.8557,5784537.3699],[32560212.8854,5784554.6512],[32560186.146,5784563.745],[32560153.409,5784581.8608],[32560139.2748,5784594.0776],[32560112.9251,5784616.8528],[32560082.6872,5784633.3469],[32560062.1954,5784647.3416],[32560044.7024,5784654.3393],[32560013.4646,5784656.8391],[32559970.9812,5784652.8417],[32559930.9968,5784643.8464],[32559890.0127,5784630.3528],[32559881.7268,5784630.8528],[32559784.3045,5784636.7314],[32559750.5678,5784641.1241],[32559716.8314,5784651.984],[32559691.5915,5784667.3438],[32559674.3489,5784695.6728],[32559647.1104,5784734.9079],[32559611.8751,5784778.5903],[32559592.3831,5784798.9389],[32559547.9014,5784840.6612],[32559449.1916,5784930.4737],[32559406.9583,5784933.9724],[32559375.4708,5784941.9687],[32559341.9842,5784955.9627],[32559275.0112,5784988.8493],[32559245.7732,5785000.4305],[32559233.2782,5785003.4299],[32559221.7826,5785004.4275],[32559200.2911,5785002.9204],[32559171.5523,5784996.9084],[32559153.3099,5785024.8569],[32559134.3178,5785046.8293],[32559122.2983,5785057.0457],[32559112.0768,5785062.8234],[32559100.3314,5785066.3222],[32559088.0863,5785067.8218],[32559025.361,5785060.3263],[32559012.866,5785060.3267],[32559001.6205,5785063.8255],[32558992.1244,5785071.8224],[32558984.1277,5785083.8178],[32558971.1333,5785114.3058],[32558953.3912,5785164.2862],[32558945.8943,5785175.282],[32558936.6481,5785180.2801],[32558926.1522,5785180.2805],[32558903.757,5785170.7448],[32558898.9075,5785168.0849],[32558874.6721,5785154.7918],[32558860.6776,5785148.7964],[32558830.4395,5785140.8438],[32558813.9459,5785139.3772],[32558780.959,5785139.9575],[32558765.2153,5785143.5067],[32558750.7212,5785148.5585],[32558737.4765,5785155.6143],[32558727.4807,5785165.6709],[32558721.7331,5785179.2263],[32558719.2344,5785195.28],[32558719.4845,5785212.8302],[32558725.4829,5785264.9622],[32558725.7334,5785292.5353],[32558717.987,5785329.137],[32558700.7251,5785374.8754],[32558695.4967,5785388.7288],[32558689.7493,5785413.2169],[32558686.2511,5785437.6988],[32558677.441,5785536.7219],[32558669.5103,5785628.5647],[32558662.5139,5785685.0241],[32558657.5163,5785712.5036],[32558643.5225,5785765.4616],[32558627.3499,5785808.8983],[32558615.2846,5785833.9018],[32558594.0434,5785865.8696],[32558562.3064,5785894.8333],[32558490.3355,5785943.7621],[32558440.1057,5785971.7165],[32558396.873,5785993.1788],[32558375.8815,5786006.159],[32558337.6469,5786034.6199],[32558298.6628,5786068.5771],[32558289.1663,5786119.2123],[32558284.4252,5786144.4918],[32558279.6697,5786169.8484],[32558270.1761,5786220.4684],[32558243.6872,5786263.9274],[32558217.9479,5786302.3899],[32558190.7092,5786337.3537],[32558174.4657,5786350.337],[32558152.7245,5786360.3191],[32558127.4845,5786366.8011],[32558100.2454,5786370.7837],[32558072.2564,5786371.7676],[32558045.5169,5786370.7532],[32558021.2765,5786366.742],[32558001.2843,5786361.234],[32557983.5412,5786352.2294],[32557965.798,5786338.7273],[32557948.3047,5786321.2277],[32557931.561,5786301.23],[32557916.0668,5786278.7343],[32557902.322,5786255.2403],[32557890.8262,5786230.7482],[32557882.3292,5786206.7574],[32557875.0816,5786173.273],[32557872.3322,5786138.7917],[32557873.3313,5786105.312],[32557881.3273,5786048.3505],[32557891.0729,5786008.8797],[32557864.5834,5786008.8641],[32557866.0823,5785965.3891],[32557866.8314,5785943.6611],[32557867.807,5785915.3645],[32557869.0798,5785878.4446],[32557848.173,5785863.3438],[32557684.9006,5785745.4137],[32557603.1435,5785691.258],[32557544.4548,5785652.3828],[32557459.4875,5785589.3673],[32557415.2545,5785553.8605],[32557372.2709,5785516.3555],[32557331.7864,5785477.8526],[32557291.2793,5785434.5929],[32557217.08,5785355.3513],[32557086.295,5785227.5253],[32556956.1795,5785100.3536],[32556888.4554,5785039.3793],[32556762.5036,5784932.9244],[32556737.2349,5784966.4941],[32556728.2679,5784978.4068],[32556703.2782,5785007.3957],[32556681.2871,5785021.3905],[32556655.5474,5785029.3877],[32556642.0528,5785030.3876],[32556629.3079,5785028.8884],[32556606.6238,5785021.4305],[32556561.0686,5785006.4531],[32556493.9755,5784986.6628],[32556470.5643,5784930.8439],[32556452.2001,5784887.0586],[32556515.0887,5784889.5027],[32556538.8287,5784888.0019],[32556559.8198,5784884.502],[32556586.5719,5784876.9501],[32556624.8072,5784862.955],[32556661.7921,5784843.4622],[32556561.2316,5784803.4913],[32556515.7608,5784785.4175],[32556477.1053,5784770.0526],[32556385.6438,5784738.0707],[32556364.6526,5784728.5758],[32556348.1594,5784718.5806],[32556337.1641,5784708.0856],[32556332.6659,5784698.0897],[32556332.9159,5784689.0932],[32556337.6639,5784681.596],[32556354.9066,5784669.1],[32556368.1036,5784663.3205],[32556397.1389,5784650.6049],[32556412.1327,5784639.1087],[32556421.8787,5784622.6147],[32556426.7404,5784600.0958],[32556417.3681,5784605.8901],[32556411.6379,5784607.5785],[32556405.8306,5784606.1339],[32556401.3004,5784602.2547],[32556377.011,5784545.6853],[32556364.7586,5784517.6676],[32556359.3865,5784505.3826],[32556359.85,5784502.5577],[32556364.517,5784498.53],[32556370.0478,5784499.8846],[32556387.8058,5784512.3504],[32556402.0808,5784522.3711],[32556412.0586,5784528.3006],[32556423.4889,5784535.0933],[32556414.3816,5784483.1709],[32556414.3814,5784448.587],[32556425.5908,5784448.6678],[32556427.9747,5784447.0343],[32556430.4184,5784441.5991],[32556427.1092,5784430.1232],[32556412.8452,5784410.6187],[32556410.0286,5784388.1991],[32556409.5706,5784384.5531],[32556408.5638,5784376.5391],[32556405.6347,5784353.2232],[32556396.1165,5784335.8828],[32556282.1836,5784128.3186],[32556259.9423,5784096.8321],[32556233.7026,5784068.3446],[32556219.2084,5784054.8506],[32556154.9837,5784005.3729],[32556120.2473,5783972.3874],[32556070.7653,5783914.4409],[32556044.0245,5783877.0061],[32556011.0355,5783821.5888],[32555966.0512,5783737.6418],[32555921.5675,5783646.617],[32555903.3241,5783604.5972],[32555889.8285,5783568.5848],[32555881.5809,5783539.0806],[32555878.3936,5783520.1712],[32555876.608,5783478.4102],[32555880.2596,5783456.1717],[32555882.9165,5783444.2493],[32556873.4939,5783454.4806],[32561262.7393,5783509.9062],[32561279.0538,5783518.14],[32561386.8775,5783519.3776],[32561490.7799,5783520.5702],[32561474.4271,5783512.5793],[32561828.2278,5783517.047],[32561826.8459,5783519.61]]],[[[32563352.4991,5793092.4437],[32563319.512,5793080.4442],[32563296.5211,5793075.4427],[32563240.2934,5793074.9331],[32563201.8086,5793076.9253],[32563166.8226,5793083.9155],[32563150.0793,5793089.4098],[32563104.8493,5793110.5657],[32563060.3653,5793131.3726],[32563029.3777,5793139.8629],[32562999.8893,5793143.356],[32563054.9268,5793368.8342],[32563081.7635,5793478.7792],[32563109.7382,5793593.3863],[32563262.5468,5794221.3636],[32563217.0645,5794184.8737],[32563177.5797,5794149.3843],[32563143.3428,5794110.8972],[32563128.0987,5794087.9059],[32563111.8548,5794058.4174],[32563095.1111,5794024.4312],[32563063.8727,5793951.4615],[32563042.3805,5793883.9911],[32563037.3822,5793857.5033],[32563032.1336,5793790.0356],[32563024.4927,5793635.8283],[32563022.3199,5793567.1251],[32563021.1351,5793529.6632],[32563014.3874,5793488.1829],[32563008.6394,5793468.192],[32563000.8923,5793450.1998],[32562991.3959,5793435.2057],[32562980.1503,5793424.2095],[32562966.9055,5793418.71],[32562953.161,5793420.7067],[32562940.1661,5793430.1997],[32562928.1711,5793445.1902],[32562917.6755,5793462.6797],[32562896.4343,5793511.1519],[32562885.9381,5793473.669],[32562875.4418,5793436.1861],[32562864.9456,5793398.7032],[32562854.4494,5793361.2205],[32562851.7431,5793379.1601],[32562832.2098,5793508.6427],[32562819.3941,5793604.439],[32562796.9767,5793772.0066],[32562730.5074,5794185.2972],[32562729.0965,5794179.0023],[32562697.2415,5794159.0937],[32562552.5409,5794094.7849],[32562480.5504,5794071.5684],[32562387.8916,5794053.0381],[32562295.2323,5794009.7991],[32562233.4597,5793978.9138],[32562153.1549,5793917.1428],[32562023.432,5793843.018],[32561924.596,5793824.4877],[32561831.9378,5793849.198],[32561693.9035,5793879.8744],[32561697.4142,5793896.7962],[32561138.6334,5793680.8323],[32560992.477,5793627.3617],[32560945.9591,5793610.3434],[32560920.4691,5793597.8463],[32560903.2258,5793585.3501],[32560891.9802,5793573.3543],[32560885.2327,5793561.8587],[32560878.9558,5793540.3393],[32560878.2348,5793537.8676],[32560871.2376,5793513.8787],[32560862.9904,5793465.3996],[32560854.2428,5793378.438],[32560853.2427,5793336.9567],[32560854.9919,5793321.4639],[32560863.2382,5793284.4817],[32560876.4824,5793246.0008],[32560892.7256,5793213.5177],[32560901.7219,5793202.5239],[32560912.7174,5793193.0296],[32560944.7046,5793175.0418],[32560964.9464,5793167.0479],[32560987.1875,5793160.5537],[32561011.178,5793156.5585],[32561036.4179,5793154.5626],[32561062.6576,5793156.0652],[32561088.6473,5793160.5662],[32561113.6375,5793167.566],[32561138.1278,5793176.5649],[32561185.1095,5793198.0606],[32561254.3325,5793235.5517],[32561275.824,5793245.5496],[32561294.0669,5793251.0493],[32561309.3108,5793252.5505],[32561322.8054,5793251.0529],[32561334.3008,5793247.0563],[32561344.7965,5793241.0605],[32561364.5387,5793226.5698],[32561374.7845,5793217.0757],[32561395.7758,5793186.593],[32561426.263,5793127.6252],[32561496.733,5792951.2206],[32561432.5085,5792949.7124],[32561397.5224,5792944.7101],[32561384.5275,5792940.2105],[32561374.5313,5792934.212],[32561366.2845,5792925.715],[32561359.2872,5792915.2192],[32561353.7892,5792902.7245],[32561349.7906,5792888.231],[32561345.292,5792855.2465],[32561345.2916,5792819.2642],[32561349.7895,5792792.7778],[32561354.0377,5792783.7828],[32561359.7853,5792776.7871],[32561367.0324,5792771.7905],[32561386.7745,5792768.2951],[32561420.5113,5792771.7982],[32561446.1007,5792778.1986],[32561450.4995,5792779.2988],[32561447.0001,5792714.8304],[32561439.5024,5792649.3619],[32561393.2679,5792404.9782],[32561378.7488,5792415.1087],[32561270.8174,5792490.4162],[32561195.0979,5792538.381],[32561161.8613,5792556.867],[32561051.6556,5792612.8235],[32560996.9275,5792635.3048],[32560934.9524,5792653.7871],[32560901.4657,5792659.2797],[32560868.9786,5792660.7745],[32560837.9909,5792658.7711],[32560808.7523,5792654.7689],[32560732.5324,5792638.766],[32560712.2904,5792636.2643],[32560673.5558,5792637.2585],[32560654.0635,5792640.7541],[32560617.5781,5792651.2441],[32560573.3459,5792671.2287],[32560561.8505,5792679.7231],[32560550.8551,5792691.2163],[32560540.6093,5792704.7085],[32560522.3669,5792736.1915],[32560509.3725,5792768.6747],[32560502.3756,5792796.6609],[32560501.626,5792807.6558],[32560503.3754,5792817.6514],[32560508.1236,5792826.6479],[32560516.3705,5792835.1451],[32560546.3588,5792853.1407],[32560584.0403,5792869.5204],[32560659.0647,5792902.1326],[32560708.5454,5792929.1264],[32560750.0292,5792962.1163],[32560761.025,5792977.1109],[32560763.5241,5792985.1075],[32560763.5243,5792994.1033],[32560760.7755,5793004.0983],[32560754.5281,5793014.0929],[32560745.032,5793022.5877],[32560732.287,5793030.0827],[32560700.7998,5793042.5731],[32560627.829,5793065.5536],[32560591.3437,5793082.5415],[32560559.3565,5793104.5277],[32560546.3619,5793118.0201],[32560536.1162,5793133.0121],[32560529.369,5793149.5038],[32560525.3708,5793167.9951],[32560522.1226,5793209.4762],[32560522.3728,5793231.4663],[32560524.6516,5793273.8084],[32560542.8691,5793612.3011],[32560549.8687,5793803.7193],[32560554.8675,5793869.1918],[32560564.1147,5793937.1636],[32560565.4141,5793944.1326],[32560569.6128,5793966.6516],[32560575.6107,5793990.642],[32560582.1083,5794006.6358],[32560592.4778,5794027.1336],[32560603.6003,5794049.1197],[32560622.843,5794076.1098],[32560634.8383,5794086.6065],[32560649.0828,5794093.1049],[32560666.076,5794095.1055],[32560682.8193,5794093.1078],[32560696.5638,5794088.6109],[32560707.5594,5794081.6148],[32560715.806,5794072.1194],[32560721.3037,5794059.6253],[32560723.8025,5794044.6318],[32560723.8022,5794026.1398],[32560721.0531,5794004.6488],[32560708.8071,5793934.6776],[32560706.3079,5793911.1876],[32560704.8082,5793887.6975],[32560705.5575,5793864.2077],[32560708.5561,5793840.7182],[32560714.5534,5793817.2289],[32560722.7999,5793795.7389],[32560732.5458,5793776.7482],[32560743.5413,5793760.7563],[32560755.5363,5793748.2629],[32560767.7813,5793738.7683],[32560780.5263,5793733.2719],[32560792.7714,5793731.274],[32560804.7667,5793733.7741],[32560834.0052,5793747.7709],[32560869.9911,5793769.265],[32560904.9775,5793793.7576],[32560930.4677,5793815.2506],[32560947.6564,5793833.944],[32560970.4524,5793858.7355],[32560982.1978,5793869.232],[32560995.1928,5793879.2288],[32561009.4372,5793886.7269],[32561033.734,5793894.7477],[32561085.1574,5793911.7233],[32561181.8695,5793946.7175],[32561342.0566,5794011.205],[32561425.5239,5794050.1962],[32561461.01,5794069.1913],[32561530.0245,5794109.8465],[32561574.7157,5794136.1732],[32561618.1987,5794156.6687],[32561638.1908,5794163.6677],[32561677.6753,5794174.1672],[32561732.6535,5794183.1691],[32561741.2934,5794225.7122],[32561750.9851,5794273.4349],[32561762.3927,5794329.6065],[32561770.9741,5794371.8618],[32561705.272,5794330.7993],[32561552.9475,5794260.9868],[32561375.2365,5794229.2554],[32561178.4848,5794172.1368],[32560924.6113,5794115.0197],[32560784.9814,5794102.328],[32560645.3521,5794115.0239],[32560575.5373,5794115.025],[32560505.7215,5794070.598],[32560397.8243,5793969.0508],[32560323.6976,5793917.7341],[32560316.0331,5793912.4281],[32560315.315,5793911.931],[32560263.4058,5793911.9318],[32560251.8469,5793911.932],[32560226.4592,5793892.8919],[32560169.3367,5793791.3439],[32560004.3148,5793480.3526],[32559864.682,5793251.8697],[32559750.4383,5793175.7097],[32559674.2765,5793175.7109],[32559598.1154,5793194.7522],[32559515.6076,5793270.9152],[32559407.7144,5793435.9339],[32559242.6994,5793569.2195],[32559166.5378,5793588.2609],[32559096.7229,5793575.5684],[32558995.1735,5793537.4889],[32558912.664,5793480.369],[32558849.1951,5793410.5551],[32558830.1538,5793359.7808],[32558830.1532,5793321.6998],[32558830.1524,5793264.5788],[32558828.5935,5793233.4088],[32558808.1729,5793212.9888],[32558758.7545,5793179.0147],[32558730.957,5793175.9265],[32558689.7093,5793203.4259],[32558700.0695,5793089.4458],[32558693.8908,5792996.7874],[32558678.4466,5792916.4836],[32558632.3193,5792827.7804],[32558633.65,5792826.4397],[32558530.19,5792712.6371],[32558452.9736,5792647.7773],[32558351.0487,5792601.4496],[32558236.7689,5792533.5017],[32558202.0001,5792542.1945],[32557952.8878,5792703.8305],[32558033.3759,5793098.3972],[32558063.1012,5793244.1156],[32557969.8038,5793305.7611],[32557923.1585,5793336.5816],[32557876.5128,5793367.4024],[32557783.2154,5793429.048],[32557758.0123,5793403.917],[32557694.9995,5793341.0843],[32557674.2574,5793316.5944],[32557645.0185,5793278.1101],[32557626.2756,5793247.6226],[32557608.0324,5793209.1381],[32557582.5417,5793142.6648],[32557578.293,5793118.1746],[32557570.0452,5793042.2046],[32557558.2978,5792889.2652],[32557548.301,5792832.2878],[32557539.3036,5792767.3136],[32557538.5537,5792739.8245],[32557540.8018,5792666.3534],[32557521.6934,5792648.7654],[32557452.8358,5792585.3869],[32557381.6134,5792524.4125],[32557350.6254,5792500.4225],[32557326.8846,5792485.9287],[32557306.6426,5792477.4325],[32557258.9115,5792461.9396],[32557200.1848,5792448.446],[32557088.9789,5792426.457],[32557005.0123,5792412.4642],[32556968.204,5792407.8057],[32556965.528,5792407.467],[32556861.479,5792398.0315],[32556855.322,5792397.4732],[32556880.3113,5792358.488],[32556908.2997,5792325.0007],[32556925.0428,5792309.5064],[32556943.5352,5792296.5111],[32556965.5263,5792285.0152],[32557023.7526,5792263.5225],[32557118.1086,5792236.4784],[32557185.9372,5792217.0375],[32557256.6587,5792192.0459],[32557348.1216,5792156.5581],[32557436.5858,5792119.071],[32557498.8106,5792089.0816],[32557538.2945,5792066.0899],[32557555.7874,5792054.0942],[32557570.5313,5792040.5992],[32557581.7766,5792025.6049],[32557589.2734,5792008.6115],[32557592.022,5791988.6193],[32557589.2728,5791965.6283],[32557578.2764,5791913.1493],[32557550.5353,5791755.212],[32557536.2896,5791650.2536],[32557476.0629,5791593.2772],[32557429.3309,5791546.2966],[32557397.3431,5791509.3118],[32557388.8462,5791494.8177],[32557376.1008,5791460.3316],[32557369.603,5791420.8473],[32557368.853,5791401.355],[32557373.1008,5791363.8696],[32557387.0947,5791326.8839],[32557410.3349,5791288.3986],[32557439.8226,5791252.4121],[32557455.816,5791236.4181],[32557472.3093,5791222.9231],[32557516.7912,5791193.4338],[32557605.2553,5791142.4521],[32557679.4752,5791103.9657],[32557698.2177,5791095.9684],[32557738.9513,5791083.9724],[32557802.9256,5791070.9762],[32557808.0226,5791072.4943],[32557838.1618,5791081.4713],[32557869.8993,5791093.9657],[32557885.6432,5791101.9623],[32557913.3824,5791119.9547],[32557939.8721,5791140.4461],[32557977.1078,5791172.4327],[32557983.9426,5791173.7554],[32558015.8425,5791179.9289],[32558056.3264,5791183.4268],[32558287.8244,5791169.1775],[32558307.7263,5791167.9525],[32558671.5101,5791296.9293],[32558730.3103,5791316.5038],[32558762.7975,5791324.5086],[32558798.5334,5791325.517],[32558860.7586,5791320.0346],[32558886.4982,5791309.5454],[32558902.4918,5791301.053],[32558919.485,5791289.5621],[32558936.2282,5791274.5728],[32558950.972,5791256.0845],[32558962.2173,5791234.0969],[32558975.4615,5791191.1194],[32558981.2089,5791159.6349],[32558982.2081,5791134.6464],[32558955.718,5791082.1635],[32558756.5449,5790922.1836],[32558680.0744,5790855.1925],[32558609.3516,5790781.7051],[32558526.1334,5790685.7234],[32558484.3992,5790634.7335],[32558409.6777,5790538.753],[32558355.6981,5790460.7703],[32558333.4564,5790424.7791],[32558295.7205,5790354.7977],[32558280.726,5790321.3076],[32558268.4804,5790288.8179],[32558258.9838,5790257.3286],[32558252.486,5790226.8401],[32558248.4872,5790197.3519],[32558246.2377,5790168.8639],[32558246.4872,5790142.3759],[32558249.4857,5790116.8885],[32558255.9829,5790094.4009],[32558266.4785,5790074.4136],[32558281.2224,5790057.4265],[32558300.9644,5790043.9395],[32558334.451,5790029.4578],[32558385.6803,5790011.4838],[32558513.8791,5789970.5466],[32558682.3117,5789920.6264],[32558702.3034,5789895.1453],[32558726.5433,5789856.1721],[32558738.0385,5789832.1877],[32558747.2844,5789806.7032],[32558752.782,5789779.7183],[32558754.531,5789753.2319],[32558753.0312,5789728.7435],[32558749.7822,5789707.2531],[32558740.0357,5789672.7669],[32558730.7891,5789651.7741],[32558710.2968,5789620.2828],[32558692.5536,5789601.7859],[32558682.3075,5789594.286],[32558637.0751,5789569.7824],[32558610.6104,5789556.826],[32558578.8478,5789541.2759],[32558540.1127,5789509.7776],[32558508.125,5789475.283],[32558499.878,5789461.2869],[32558483.8838,5789421.8004],[32558461.8917,5789349.8276],[32558440.6813,5789219.1475],[32558443.0196,5789215.8434],[32558442.5884,5789212.7445],[32558441.0345,5789208.9545],[32558438.0884,5789201.7691],[32558433.7184,5789192.6279],[32558426.3908,5789177.2998],[32558415.5365,5789171.7856],[32558412.6439,5789172.4449],[32558408.6477,5789176.7642],[32558396.8205,5789194.2877],[32558391.5947,5789204.9789],[32558385.5343,5789206.2557],[32558382.9962,5789204.9404],[32558379.9029,5789199.7135],[32558380.4523,5789190.6436],[32558385.6464,5789185.0179],[32558390.3989,5789179.8706],[32558394.2167,5789164.9337],[32558393.772,5789162.1309],[32558388.2824,5789160.8985],[32558385.4873,5789155.8257],[32558385.1083,5789146.7886],[32558387.4608,5789128.9845],[32558382.3346,5789112.9965],[32558380.1802,5789106.2774],[32558380.3013,5789097.1948],[32558383.2053,5789092.0282],[32558387.9668,5789088.3783],[32558399.0902,5789084.0311],[32558403.0116,5789082.4985],[32558406.5412,5789079.5002],[32558405.798,5789076.3297],[32558398.7091,5789073.3568],[32558374.922,5789029.4539],[32558263.7135,5788842.0031],[32558250.2185,5788816.5103],[32558242.4713,5788796.0173],[32558237.9729,5788776.0255],[32558236.4733,5788756.5349],[32558237.4726,5788737.0452],[32558252.4656,5788651.0952],[32558254.9643,5788626.609],[32558254.4641,5788602.6211],[32558247.9662,5788558.6409],[32558234.9707,5788514.1582],[32558231.4716,5788478.675],[32558231.2211,5788435.1975],[32558233.9696,5788408.2128],[32558239.2173,5788378.7304],[32558248.2133,5788346.7511],[32558310.9361,5788174.8701],[32558406.895,5787926.0483],[32558400.1792,5787904.4965],[32558380.1533,5787840.2308],[32558363.9102,5787788.1047],[32558334.1707,5787699.1401],[32558327.4232,5787684.1452],[32558308.9301,5787655.1526],[32558285.1892,5787630.1552],[32558271.4445,5787620.1541],[32558256.9502,5787612.1515],[32558225.3008,5787602.3156],[32558198.9728,5787594.1335],[32558186.4777,5787588.6305],[32558162.2371,5787573.1272],[32558137.9964,5787549.1285],[32558127.0005,5787534.6311],[32558119.2534,5787519.6355],[32558114.0053,5787505.1408],[32558111.0063,5787490.6474],[32558109.7565,5787475.1553],[32558111.5054,5787441.6747],[32558122.2503,5787375.217],[32558151.2371,5787251.8008],[32558161.4834,5787248.809],[32558173.6958,5787245.2432],[32558234.9537,5787227.357],[32558269.4697,5787228.6494],[32558298.0704,5787229.7203],[32558338.1228,5787231.22],[32558361.9217,5787232.1111],[32558406.7532,5787233.7898],[32558480.0829,5787203.2345],[32558569.8363,5787155.7161],[32558722.9447,5787023.7224],[32558749.3427,5787002.6034],[32558778.4188,5787008.418],[32558781.9847,5787004.7582],[32558803.726,5786994.7749],[32558833.964,5786984.7956],[32558942.9205,5786953.8673],[32558973.1585,5786943.3884],[32559221.5592,5786843.57],[32559223.5406,5786842.5805],[32559223.6919,5786839.8554],[32559229.1463,5786850.7638],[32559350.6275,5786858.1996],[32559427.4816,5786771.4262],[32559420.1617,5786742.1488],[32559439.9715,5786726.2494],[32559453.7159,5786711.7655],[32559466.2107,5786695.2823],[32559476.4564,5786677.299],[32559484.453,5786657.316],[32559487.4515,5786631.8343],[32559486.2017,5786606.3506],[32559480.7034,5786576.8676],[32559471.2067,5786540.3873],[32559464.459,5786518.8984],[32559423.224,5786420.9436],[32559402.4815,5786367.469],[32559381.9885,5786292.0093],[32559377.7399,5786271.0212],[32559373.9909,5786233.0448],[32559376.9892,5786193.0731],[32559380.9873,5786170.0905],[32559387.2345,5786146.6096],[32559396.2307,5786123.6296],[32559407.7258,5786100.1514],[32559436.4639,5786052.1402],[32559491.1909,5785969.2697],[32559511.1826,5785941.6011],[32559530.6745,5785918.9542],[32559549.1669,5785901.8374],[32559580.4041,5785879.6827],[32559601.3957,5785869.6068],[32559681.6471,5785800.3667],[32559711.6006,5785774.5232],[32559729.0935,5785770.5243],[32559753.8336,5785760.028],[32559767.3282,5785751.5309],[32559780.8227,5785740.0353],[32559793.0676,5785726.0669],[32559823.555,5785682.1591],[32559843.0467,5785645.2013],[32559848.2944,5785626.4525],[32559850.2912,5785481.7836],[32559869.7828,5785422.8074],[32559883.5269,5785391.3202],[32559900.0201,5785361.3314],[32559917.2631,5785335.8392],[32559933.3521,5785315.5115],[32559936.2553,5785311.8434],[32559960.4958,5785316.8441],[32559994.2326,5785326.358],[32560032.7176,5785341.8816],[32560079.3009,5785368.8388],[32560121.4248,5785393.2154],[32560143.4249,5785405.9466],[32560171.6981,5785421.1803],[32560189.907,5785430.9913],[32560209.6811,5785444.9646],[32560232.3906,5785461.0122],[32560244.8858,5785465.5346],[32560259.63,5785467.0773],[32560277.6228,5785465.1488],[32560300.1137,5785457.7679],[32560365.3376,5785430.6821],[32560409.8196,5785408.4929],[32560425.5632,5785397.1165],[32560454.5449,5785369.7404],[32560457.1671,5785367.2635],[32560461.0371,5785363.608],[32560467.5461,5785357.4597],[32560474.2575,5785348.2178],[32560564.7561,5785223.5958],[32560600.9915,5785182.1116],[32560627.7309,5785156.6212],[32560656.9693,5785135.1291],[32560672.2133,5785127.132],[32560687.9572,5785121.6338],[32560752.6819,5785108.5333],[32560805.1615,5785101.322],[32560853.3928,5785097.1219],[32560873.1351,5785097.0442],[32560891.378,5785099.4808],[32560911.1205,5785104.4205],[32560931.6126,5785111.8659],[32561009.6378,5785148.5921],[32561041.5707,5785163.6228],[32561084.5544,5785181.0286],[32561133.7856,5785198.4261],[32561180.0181,5785211.8413],[32561257.743,5785223.2322],[32561321.9701,5785226.1477],[32561342.7117,5785224.6834],[32561362.2011,5785221.1819],[32561381.6928,5785216.9165],[32561420.9253,5785204.4149],[32561476.9019,5785181.912],[32561525.8838,5785097.9227],[32561560.6205,5785047.9267],[32561578.3647,5785027.4285],[32561633.3482,5784973.9326],[32561687.0834,5784928.4343],[32561717.075,5784908.4335],[32561731.8207,5784901.9323],[32561748.9325,5784896.1618],[32561800.0501,5784878.9237],[32561815.0456,5784870.4219],[32561827.5421,5784858.9209],[32561836.2898,5784844.4212],[32561848.0377,5784801.4245],[32561857.0363,5784749.9296],[32561864.785,5784687.9366],[32561954.5791,5784607.5627],[32561990.4897,5784575.4195],[32562047.9678,5784502.4199],[32562077.7065,5784457.9251],[32562087.4529,5784438.929],[32562103.4472,5784398.9397],[32562135.9365,5784308.974],[32562151.1849,5784251.4938],[32562168.4343,5784202.9831],[32562179.1832,5784179.9746],[32562191.1809,5784160.9681],[32562205.4269,5784144.9641],[32562222.9209,5784128.9641],[32562263.9042,5784099.4817],[32562322.7283,5784063.3943],[32562359.1192,5784041.0692],[32562400.8505,5784017.6329],[32562426.0855,5784003.461],[32562483.2981,5783966.0977],[32562511.2822,5783943.3889],[32562526.0254,5783921.9618],[32562541.5216,5783886.964],[32562556.3389,5783838.1708],[32562560.8455,5783812.2853],[32562564.2298,5783775.0826],[32562563.1144,5783728.7339],[32562551.4204,5783602.0614],[32562544.6917,5783532.6672],[32562543.6996,5783526.0817],[32568262.4637,5783598.296],[32568146.1711,5792033.2724],[32568146.0928,5792033.26],[32567936.5693,5791979.9466],[32567702.9857,5791971.4889],[32567390.9406,5792035.7387],[32567390.3848,5792035.4116],[32567387.0885,5792032.9826],[32567029.7891,5792105.3527],[32567029.3918,5792104.5581],[32567028.7777,5792103.3298],[32566993.5415,5792165.7908],[32566967.0522,5792220.2592],[32566934.9011,5792318.3703],[32566918.5725,5792372.1881],[32566907.827,5792384.6825],[32566895.0822,5792394.1781],[32566881.3378,5792401.1748],[32566866.5937,5792406.1722],[32566820.8622,5792410.6686],[32566794.3729,5792408.6683],[32566782.6275,5792404.1694],[32566781.1281,5792400.6703],[32566790.8738,5792376.6779],[32566808.3663,5792347.6879],[32566879.0871,5792249.2319],[32566713.6529,5792244.716],[32566681.6662,5792261.2093],[32566660.3354,5792272.2081],[32566649.6792,5792277.7028],[32566643.8545,5792277.2029],[32566573.9597,5792271.2038],[32566544.9713,5792265.2054],[32566529.9773,5792259.207],[32566480.0906,5792232.3259],[32566426.4027,5792203.3965],[32566407.5259,5792193.2248],[32566393.7813,5792184.2272],[32566373.5936,5792165.273],[32566357.0455,5792149.7361],[32566347.0495,5792143.7376],[32566329.8207,5792138.1821],[32566321.8096,5792137.2396],[32566311.8137,5792140.7389],[32566303.8172,5792148.2371],[32566297.3199,5792159.2346],[32566288.3241,5792186.7279],[32566281.8273,5792215.7205],[32566281.5776,5792231.7162],[32566287.3256,5792249.7113],[32566310.5668,5792290.7004],[32566367.545,5792363.6813],[32566375.5419,5792375.6781],[32566377.7912,5792385.6752],[32566375.7921,5792393.6726],[32566370.0444,5792400.67],[32566351.3019,5792412.1573],[32566328.0613,5792423.1557],[32566318.3153,5792430.1564],[32566312.0679,5792439.6581],[32566308.5695,5792451.1606],[32566307.8201,5792477.6664],[32566314.7708,5792517.459],[32566316.817,5792529.1738],[32566317.5669,5792546.1755],[32566312.569,5792556.6769],[32566300.074,5792561.6771],[32566290.5778,5792562.1763],[32566280.8316,5792560.1764],[32566272.8348,5792554.6781],[32566266.3373,5792546.6812],[32566261.3391,5792535.6857],[32566253.8419,5792509.1953],[32566246.5943,5792461.1963],[32566241.8455,5792398.6819],[32566236.5971,5792353.1775],[32566232.3485,5792331.1794],[32566224.8374,5792305.1243],[32566200.36,5792220.2158],[32566187.8643,5792165.7317],[32566175.8682,5792103.2487],[32566172.3691,5792071.2568],[32566172.6184,5792040.2645],[32566174.9467,5792016.55],[32566169.5869,5791979.9283],[32566151.5151,5791927.8005],[32566135.1531,5791895.8215],[32566110.1405,5791867.3069],[32566043.9158,5791783.8275],[32565991.0563,5791719.8759],[32565981.9396,5791708.8461],[32565918.5033,5791714.3021],[32565917.4193,5791714.3953],[32565726.2933,5791730.8336],[32565459.645,5791356.4255],[32565367.6318,5791401.368],[32565329.6976,5791419.8964],[32565393.7783,5791513.2656],[32565441.9049,5791583.3888],[32565422.9145,5791601.0305],[32565403.8262,5791618.7631],[32565380.43,5791640.4978],[32565336.198,5791678.0137],[32565316.206,5791691.005],[32565278.386,5791709.5692],[32565274.4728,5791711.49],[32565257.0196,5791765.4893],[32565234.7398,5791834.4217],[32565178.7641,5792037.8092],[32565140.0307,5792163.2392],[32565130.5346,5792178.7298],[32565117.7898,5792189.2226],[32565103.5455,5792196.217],[32565074.557,5792201.2103],[32565051.816,5792200.2076],[32564778.6741,5792167.1845],[32564739.9397,5792184.6692],[32564715.1996,5792201.1566],[32564703.7043,5792211.6492],[32564683.9624,5792234.6338],[32564668.7186,5792258.6186],[32564655.2243,5792284.1029],[32564667.4942,5792308.8327],[32564688.9025,5792351.9809],[32564762.1841,5792502.5051],[32564803.6686,5792596.9627],[32564830.6586,5792673.4275],[32564837.4062,5792698.9155],[32564846.4032,5792748.3916],[32564851.6514,5792783.8742],[32564852.6512,5792810.8606],[32564848.9031,5792837.3463],[32564844.6549,5792852.8376],[32564838.1577,5792868.8284],[32564819.4153,5792895.8113],[32564798.9237,5792915.7975],[32564782.9301,5792927.7885],[32564771.19,5792935.7789],[32564768.8322,5792937.3836],[32564759.4426,5792943.7742],[32564754.7406,5792946.9744],[32564747.6944,5792951.7701],[32564759.131,5792987.0478],[32564763.5485,5793000.6743],[32564777.8149,5793044.6812],[32564784.8089,5793066.2553],[32564789.2497,5793079.9535],[32564800.675,5793115.1963],[32564840.6591,5793113.7042],[32564866.1491,5793117.7067],[32564877.8944,5793121.7068],[32564889.8895,5793102.2188],[32564903.8838,5793086.2294],[32564919.8773,5793074.2382],[32564937.1204,5793065.2458],[32564954.8633,5793059.252],[32564972.8561,5793055.7569],[32565007.8422,5793055.2632],[32565025.8351,5793058.7646],[32565066.3192,5793073.2643],[32565131.2937,5793106.2592],[32565169.9587,5793118.4746],[32565221.5082,5793134.7605],[32565250.4583,5793148.2464],[32565305.544,5793173.9072],[32565349.2443,5793194.2643],[32565378.1967,5793207.7513],[32565365.452,5793228.7388],[32565355.706,5793251.7261],[32565348.2093,5793276.2128],[32565342.4619,5793302.1991],[32565338.4637,5793329.685],[32565331.7466,5793416.6364],[32565329.4685,5793446.1267],[32565325.7202,5793475.112],[32565320.2227,5793504.097],[32565302.7303,5793563.565],[32565274.9919,5793627.0291],[32565256.7495,5793661.509],[32565237.0076,5793693.9896],[32565217.7656,5793720.9729],[32565199.523,5793742.4591],[32565169.0354,5793770.9395],[32565148.7936,5793784.9289],[32565144.5453,5793787.4269],[32565131.8004,5793790.423],[32565111.5585,5793788.9199],[32565099.0634,5793783.9199],[32565085.0688,5793775.9211],[32565070.0746,5793762.9246],[32565054.8305,5793744.4307],[32565024.3422,5793699.4468],[32565009.098,5793676.9549],[32564993.8538,5793656.9619],[32564978.6097,5793641.9663],[32564963.6155,5793632.9679],[32564892.9547,5793424.3775],[32564853.9067,5793309.1079],[32564838.1616,5793262.6286],[32564801.3515,5793238.751],[32564793.0916,5793233.393],[32564709.3373,5793179.0642],[32564681.7227,5793161.1514],[32564591.2556,5792876.7809],[32564558.0189,5792878.774],[32564532.2791,5792875.7709],[32564478.0504,5792859.2698],[32564452.3105,5792848.2709],[32564427.3202,5792833.2742],[32564401.3303,5792812.7803],[32564320.1118,5792737.8051],[32564267.382,5792673.8295],[32564205.6557,5792592.3618],[32564115.2127,5792498.9188],[32564024.7254,5792405.4301],[32563881.0318,5792346.4366],[32563800.3134,5792310.4419],[32563769.0756,5792294.9449],[32563742.586,5792278.9488],[32563716.0963,5792260.4543],[32563667.865,5792220.4677],[32563619.3836,5792173.9847],[32563619.1342,5792207.9659],[32563621.6337,5792256.9394],[32563629.881,5792312.4104],[32563636.8784,5792338.8971],[32563646.375,5792365.3843],[32563670.8659,5792419.859],[32563700.1049,5792474.3346],[32563744.8379,5792546.3037],[32563817.81,5792647.2628],[32563923.5196,5792788.7066],[32563854.2966,5792756.2113],[32563786.8231,5792731.2123],[32563738.8421,5792719.7098],[32563628.1357,5792698.2012],[32563627.2614,5792689.0859],[32563624.6367,5792661.72],[32563616.3894,5792613.2446],[32563606.6431,5792584.7581],[32563597.1466,5792568.2654],[32563585.1512,5792550.7726],[32563555.9124,5792514.7867],[32563525.4241,5792483.2983],[32563496.4353,5792458.3067],[32563459.6996,5792422.8194],[32563417.7157,5792378.8358],[32563356.989,5792310.3623],[32563339.2459,5792286.3723],[32563322.7521,5792259.884],[32563307.7577,5792231.3969],[32563284.0165,5792179.4214],[32563271.5769,5792147.6121],[32563268.7722,5792140.4403],[32563252.2792,5792185.9121],[32563231.538,5792235.3811],[32563202.8,5792297.3418],[32563184.0577,5792329.8206],[32563162.5666,5792360.7998],[32563139.3261,5792389.2802],[32563096.0937,5792436.2469],[32563063.8568,5792466.7247],[32563051.3616,5792455.2287],[32563035.6177,5792444.2319],[32562966.3282,5792406.6996],[32562918.4136,5792380.7455],[32562858.187,5792341.756],[32562793.712,5792293.7708],[32562759.4597,5792263.6488],[32562729.4868,5792237.2903],[32562708.7449,5792223.794],[32562691.5017,5792217.7942],[32562680.7559,5792221.7901],[32562672.0095,5792229.7842],[32562665.0124,5792240.2773],[32562660.0145,5792253.2692],[32562656.7659,5792269.26],[32562655.5167,5792286.2505],[32562658.266,5792325.7296],[32562663.5141,5792346.719],[32562672.011,5792368.7087],[32562682.5071,5792389.6992],[32562704.2489,5792426.1833],[32562722.2419,5792451.1729],[32562751.4805,5792457.1748],[32562772.8695,5792458.1779],[32562804.9593,5792459.6828],[32562847.9423,5792464.1878],[32562898.1726,5792473.1919],[32562945.6539,5792488.1921],[32562965.896,5792497.6905],[32562984.6387,5792508.688],[32563018.8754,5792534.68],[32563051.3628,5792566.1688],[32563086.0995,5792602.6553],[32563194.3079,5792723.6099],[32563236.5415,5792759.5982],[32563248.7868,5792768.5956],[32563282.0238,5792788.5909],[32563330.2568,5792988.494],[32563352.4991,5793092.4437]]],[[[32546194.5852,5803081.8001],[32546171.4826,5803071.7553],[32546102.3989,5803041.7183],[32546084.1168,5803033.7694],[32546047.8682,5803018.0088],[32546003.3422,5802998.6493],[32545996.1904,5803007.5701],[32545991.8179,5803013.0242],[32545982.0103,5803025.2577],[32545980.0924,5803027.65],[32545968.0788,5803042.6351],[32546028.5585,5803079.1152],[32546062.7967,5803102.6028],[32546095.5356,5803127.5898],[32546122.2753,5803153.077],[32546138.0182,5803177.0656],[32546137.7637,5803197.0581],[32546126.5035,5803210.5568],[32546113.4952,5803216.559],[32546098.7406,5803217.5629],[32546082.4898,5803214.0679],[32546065.7416,5803207.5734],[32546046.5011,5803198.6113],[32546014.2527,5803183.5903],[32545997.0068,5803177.5951],[32545945.773,5803163.6065],[32545910.5372,5803157.1113],[32545867.362,5803206.0785],[32545837.6305,5803235.0719],[32545802.9022,5803265.5648],[32545764.7473,5803294.0576],[32545724.4424,5803317.0779],[32545683.4295,5803331.5655],[32545644.4455,5803341.5612],[32545608.868,5803353.0449],[32545575.8749,5803365.5416],[32545519.6205,5803394.033],[32545496.6168,5803409.0282],[32545461.1126,5803439.518],[32545449.1118,5803455.0126],[32545440.3613,5803472.506],[32545433.8611,5803489.9995],[32545417.8618,5803539.9806],[32545410.1134,5803552.9759],[32545399.3664,5803562.9727],[32545385.6208,5803570.4705],[32545352.8828,5803583.4674],[32545301.1536,5803597.4653],[32545298.1678,5803597.861],[32545382.2405,5794458.1714],[32545415.5268,5790834.5892],[32545509.3641,5790775.9067],[32545548.661,5790754.4144],[32545580.5615,5790741.3432],[32545600.4491,5790737.7131],[32545621.2103,5790736.2443],[32545703.9516,5790706.526],[32545761.4256,5790672.5719],[32545837.9624,5790627.356],[32545860.7786,5790608.9233],[32545895.3837,5790573.5104],[32545924.7012,5790539.1038],[32545943.0341,5790516.2145],[32546006.9878,5790436.3662],[32546033.6766,5790406.6548],[32546061.9702,5790379.1703],[32546077.4214,5790367.2137],[32546095.0302,5790358.184],[32546142.2794,5790342.7074],[32546163.2622,5790335.8345],[32546185.7437,5790325.5275],[32546210.3235,5790306.6143],[32546221.735,5790294.2451],[32546230.8209,5790280.9147],[32546236.9097,5790262.9893],[32546234.3795,5790245.8561],[32546226.0183,5790228.6174],[32546206.4235,5790200.3982],[32546195.5152,5790184.6887],[32546185.6815,5790166.7488],[32546181.7984,5790152.9249],[32546184.8653,5790132.7778],[32546199.5182,5790099.9097],[32546208.5799,5790087.3726],[32546215.9498,5790080.6793],[32546242.374,5790067.2787],[32546280.3337,5790053.7153],[32546309.7191,5790043.2156],[32546336.292,5790030.3842],[32546355.3598,5790015.46],[32546364.9406,5790003.3072],[32546372.6808,5789989.5006],[32546380.4619,5789965.0127],[32546382.7981,5789935.6073],[32546382.0059,5789900.4043],[32546380.8188,5789883.5338],[32546374.8371,5789798.5263],[32546375.7832,5789768.7955],[32546380.1787,5789739.9897],[32546387.6221,5789716.9988],[32546398.7365,5789694.9939],[32546439.7875,5789636.1549],[32546457.4711,5789610.8087],[32546476.2386,5789575.8651],[32546483.6739,5789552.5833],[32546488.9878,5789522.1685],[32546490.3421,5789490.626],[32546488.2736,5789464.8533],[32546480.2158,5789431.777],[32546474.3023,5789418.8658],[32546466.2407,5789406.245],[32546441.3274,5789379.0818],[32546424.7874,5789365.7851],[32546407.7659,5789354.721],[32546395.1255,5789348.3804],[32546238.2961,5789293.1919],[32546218.874,5789289.6834],[32546174.0189,5789286.9861],[32546134.275,5789276.9406],[32546121.473,5789270.1589],[32546110.9768,5789260.1165],[32546086.0652,5789225.5574],[32546063.796,5789194.1539],[32546045.8585,5789177.3603],[32545995.9173,5789143.5993],[32545941.8722,5789115.3041],[32545917.8666,5789092.5697],[32545900.9332,5789060.8197],[32545900.9332,5789020.6029],[32545912.0914,5788976.9681],[32545977.7049,5788952.9655],[32546073.8797,5788899.9442],[32546105.6298,5788871.3692],[32546137.3799,5788839.6191],[32546156.4299,5788812.1024],[32546163.4229,5788785.3093],[32546140.3414,5788751.8131],[32546076.5726,5788738.2529],[32546061.9112,5788723.4545],[32546063.1004,5788697.1159],[32546087.7641,5788666.4189],[32546117.5682,5788539.743],[32546178.9725,5788361.6623],[32546338.6281,5788195.8612],[32546455.2999,5788103.7491],[32546614.9563,5788005.4956],[32546750.0513,5787987.0715],[32546897.4271,5787931.803],[32546903.4616,5787927.6541],[32546995.6771,5787864.254],[32547032.5196,5787753.7211],[32547032.3251,5787753.0728],[32547014.0967,5787692.3145],[32547012.8485,5787691.5864],[32546902.6982,5787627.3341],[32546806.2729,5787634.5057],[32546711.529,5787641.5522],[32546677.2929,5787642.5508],[32546547.8441,5787640.5469],[32546467.8751,5787642.5445],[32546397.6519,5787646.5424],[32546343.4225,5787652.5407],[32546263.8756,5787665.4211],[32546250.293,5787667.6204],[32546119.3282,5787635.5018],[32546020.1093,5787609.0434],[32545956.6551,5787566.3478],[32545957.5548,5787548.5545],[32545953.555,5787534.5568],[32545945.5568,5787519.5593],[32545932.8102,5787503.0623],[32545908.4425,5787480.0052],[32545901.9726,5787456.2462],[32545900.9143,5787439.3128],[32545913.6143,5787417.0878],[32545939.9232,5787392.5896],[32545992.0316,5787407.5775],[32546054.76,5787421.5742],[32546089.2479,5787426.0729],[32546125.235,5787428.0722],[32546162.2215,5787427.072],[32546199.4574,5787421.5726],[32546261.9334,5787406.0748],[32546285.1742,5787397.576],[32546303.9164,5787388.0774],[32546318.1604,5787377.0791],[32546328.6554,5787364.081],[32546335.9015,5787349.0834],[32546340.3985,5787331.0861],[32546341.1467,5787313.5889],[32546337.1469,5787298.5914],[32546334.5015,5787294.4577],[32546329.1489,5787286.0935],[32546317.6523,5787275.0953],[32546286.9123,5787258.0986],[32546250.1749,5787245.1014],[32546161.4556,5787219.1075],[32546134.5993,5787206.8833],[32546109.4063,5787132.7924],[32546108.9921,5787065.5604],[32546117.1037,5787072.5665],[32546133.2644,5786991.7544],[32546184.038,5786940.9793],[32546253.8523,5786877.5103],[32546260.1107,5786875.275],[32546337.8417,5786810.8177],[32546420.7489,5786693.0678],[32546504.9729,5786671.5103],[32546566.3563,5786702.202],[32546651.677,5786727.574],[32546660.4788,5786735.1871],[32546671.225,5786740.1857],[32546683.4704,5786742.6848],[32546696.4653,5786743.1843],[32546722.9544,5786737.1846],[32546735.9489,5786731.1853],[32546748.1933,5786722.6867],[32546783.1136,5786694.1848],[32546829.6558,5786656.1972],[32546863.6403,5786632.2008],[32546878.1338,5786623.702],[32546892.1278,5786618.7025],[32546907.8713,5786616.2025],[32546924.3647,5786616.7018],[32546959.3512,5786623.1992],[32546977.0946,5786629.6973],[32547010.3326,5786645.6931],[32547040.3224,5786667.188],[32547067.3139,5786694.6821],[32547079.8103,5786710.6789],[32547103.0542,5786746.6721],[32547123.7992,5786784.6653],[32547137.2954,5786804.1619],[32547148.8406,5786815.2589],[32547156.5393,5786822.6587],[32547170.0355,5786840.6558],[32547179.5324,5786850.1543],[32547190.5287,5786858.653],[32547216.5193,5786872.6508],[32547246.0079,5786880.6496],[32547261.7515,5786881.6494],[32547277.2449,5786880.1496],[32547292.2383,5786876.1502],[32547306.7318,5786869.1511],[32547319.9754,5786860.1523],[32547332.2194,5786848.6539],[32547342.9637,5786835.1557],[32547351.7088,5786819.6578],[32547358.7045,5786802.1602],[32547362.7012,5786783.6627],[32547363.4493,5786764.1654],[32547361.9482,5786745.1682],[32547353.4486,5786709.1737],[32547341.9509,5786681.6782],[32547336.7022,5786672.1798],[32547319.2077,5786652.1834],[32547289.2176,5786625.1886],[32547270.224,5786610.6917],[32547249.2314,5786596.6948],[32547226.2397,5786584.1977],[32547202.2484,5786572.7006],[32547177.0081,5786564.2031],[32547152.0176,5786556.7054],[32547103.5365,5786547.209],[32547031.497,5786539.9459],[32547014.322,5786538.2143],[32546999.8276,5786534.7155],[32546969.8387,5786521.7194],[32546940.3489,5786499.7253],[32546926.3534,5786484.7291],[32546913.3573,5786467.2334],[32546902.8601,5786447.738],[32546895.6116,5786428.7424],[32546890.8621,5786409.7469],[32546885.7358,5786357.892],[32546882.6093,5786326.2658],[32546878.1101,5786311.2694],[32546869.8622,5786294.2735],[32546840.8317,5786251.0351],[32547034.502,5786328.4997],[32547256.6421,5786449.0858],[32547408.967,5786544.2857],[32547432.9103,5786556.827],[32547542.251,5786614.0988],[32547751.6969,5786696.604],[32547764.2748,5786699.299],[32547780.2143,5786711.2534],[32547939.5844,5786734.2246],[32547991.5593,5786741.7161],[32548010.7982,5786743.7168],[32548053.802,5786744.1212],[32548036.0867,5786732.3114],[32548030.0873,5786712.3146],[32548032.0868,5786692.3179],[32548040.1326,5786675.2198],[32548004.8098,5786674.2061],[32547976.3919,5786671.199],[32547944.955,5786665.6873],[32547916.5505,5786657.8493],[32547751.3129,5786572.283],[32547742.0575,5786574.1343],[32547656.4922,5786525.2415],[32547313.7622,5786372.9233],[32547066.2351,5786271.3781],[32546948.764,5786200.8977],[32547048.9558,5786163.3173],[32547025.0376,5786147.7993],[32547008.2934,5786133.8032],[32546995.0479,5786118.8072],[32546983.8013,5786102.3115],[32546964.0566,5786066.3205],[32546939.8122,5786010.8342],[32546916.5121,5786004.2686],[32546884.8331,5785995.342],[32546882.0818,5785967.8499],[32546881.0761,5785904.3694],[32546886.3128,5785796.9053],[32546894.7979,5785693.9427],[32546900.2923,5785662.954],[32546915.7797,5785606.4744],[32546955.2515,5785499.5127],[32546948.726,5785482.7846],[32546945.5619,5785474.6734],[32546937.3071,5785453.5123],[32546933.9384,5785444.8767],[32546930.7792,5785436.7781],[32546924.2539,5785420.0504],[32546917.0017,5785380.0683],[32546913.9975,5785336.5871],[32546914.744,5785311.0979],[32546917.7395,5785283.6092],[32546923.613,5785248.7991],[32546850.2464,5785244.5285],[32546779.595,5785240.416],[32546801.8381,5785155.8607],[32546807.0144,5785136.1832],[32546828.9969,5785060.7119],[32546918.5644,5784793.8549],[32546944.4136,5784716.84],[32546959.9024,5784667.858],[32546968.3957,5784635.37],[32546972.1421,5784613.3781],[32546976.6356,5784566.3959],[32546976.3804,5784511.9167],[32546974.628,5784480.4287],[32546966.1243,5784403.9579],[32546959.3734,5784362.9736],[32546942.6239,5784291.5009],[32546926.1256,5784240.0204],[32546913.1269,5784208.0318],[32546986.5938,5783972.0529],[32547016.8096,5783886.1386],[32547027.0464,5783873.7136],[32547036.3007,5783860.6469],[32547049.294,5783834.1555],[32547053.2914,5783818.6607],[32547054.2898,5783802.1662],[32547045.5409,5783772.6765],[32547031.5436,5783734.1902],[32547012.5487,5783695.7047],[32547001.3022,5783681.2105],[32547050.2782,5783600.2121],[32547172.9756,5783397.2902],[32547195.4711,5783356.4868],[32547196.8372,5783354.5337],[32553945.1543,5783424.2347],[32553949.9533,5783434.0157],[32553950.4704,5783460.6587],[32553955.2817,5783493.8354],[32553956.8442,5783504.6095],[32553959.0104,5783512.7757],[32553960.9011,5783519.9035],[32553961.1788,5783520.9504],[32553963.2968,5783529.1056],[32553964.5089,5783533.7727],[32553965.2606,5783536.6668],[32553967.8407,5783546.6012],[32553968.4898,5783565.6249],[32553970.0916,5783612.5744],[32553966.8918,5783618.6735],[32553964.7641,5783622.7292],[32553963.6927,5783624.7715],[32553959.4325,5783632.8921],[32553957.2962,5783636.964],[32553954.0989,5783643.0586],[32553923.8626,5783698.5254],[32553883.3809,5783765.9789],[32553878.8831,5783778.4672],[32553876.6344,5783790.9532],[32553876.6348,5783803.9366],[32553879.8839,5783817.9162],[32553898.877,5783855.8974],[32553921.3178,5783895.4769],[32554021.5856,5784072.3224],[32554067.5703,5784161.7714],[32554096.3109,5784203.754],[32554124.8002,5784237.74],[32554146.5429,5784260.7304],[32554229.765,5784311.2092],[32554269.5014,5784340.6968],[32554280.9975,5784353.1917],[32554335.9768,5784436.1575],[32554363.7152,5784470.1435],[32554377.9593,5784483.1382],[32554416.6941,5784510.1268],[32554488.6651,5784551.6094],[32554525.6495,5784571.1012],[32554534.2747,5784583.4335],[32554567.6375,5784631.1355],[32554598.3779,5784681.6691],[32554671.0991,5784848.9877],[32554654.6059,5784909.4675],[32554643.1103,5784959.5777],[32554639.3619,5784982.6284],[32554637.8625,5785014.0303],[32554637.1128,5785029.7281],[32554633.1147,5785053.7598],[32554623.1191,5785075.2716],[32554615.1226,5785085.7719],[32554604.6228,5785096.5171],[32554582.8865,5785118.7613],[32554544.6532,5785168.26],[32554527.6607,5785193.2613],[32554510.9182,5785224.765],[32554496.4251,5785265.2647],[32554490.9283,5785287.7576],[32554487.4305,5785310.2433],[32554486.4319,5785332.7194],[32554488.1823,5785354.186],[32554493.5113,5785353.6643],[32554524.4184,5785350.6384],[32554556.9061,5785349.5862],[32554587.3946,5785351.5348],[32554601.1393,5785356.0104],[32554615.384,5785362.4903],[32554629.8953,5785371.4805],[32554657.1277,5785393.9687],[32554677.8689,5785418.9577],[32554684.366,5785430.9527],[32554696.3609,5785464.4396],[32554703.8579,5785499.4264],[32554709.6057,5785584.8952],[32554708.6062,5785596.3913],[32554705.6075,5785606.3881],[32554700.6098,5785614.3857],[32554693.1131,5785620.3844],[32554682.6178,5785624.3841],[32554670.1231,5785626.3847],[32554643.1349,5785625.388],[32554611.6488,5785620.3931],[32554605.4014,5785625.8919],[32554603.6522,5785631.8899],[32554603.6523,5785640.8867],[32554606.9008,5785653.8818],[32554614.3977,5785671.8745],[32554626.8922,5785695.3648],[32554647.6332,5785727.3511],[32554676.3707,5785766.834],[32554746.8399,5785857.2937],[32554815.0601,5785940.7558],[32554857.3238,5785989.6516],[32554870.7859,5786005.2261],[32554903.1148,5786045.8994],[32554940.7552,5786087.6878],[32554963.9952,5786109.1773],[32554990.2336,5786128.6671],[32555019.221,5786145.1576],[32555071.6401,5786167.9657],[32555091.2723,5786176.5078],[32555128.6618,5786192.8781],[32555152.4441,5786203.2908],[32555261.6162,5786251.0899],[32555277.4298,5786260.5617],[32555390.1625,5786328.0844],[32555395.4919,5786331.2765],[32555431.022,5786352.5577],[32555471.0257,5786376.5185],[32555492.5271,5786389.991],[32555511.8157,5786402.0769],[32555540.0528,5786419.7698],[32555542.6819,5786421.4172],[32555561.9761,5786433.5066],[32555583.4771,5786446.9788],[32555629.04,5786478.6278],[32555643.938,5786488.9763],[32555674.6079,5786510.2803],[32555720.1676,5786541.9271],[32555766.6474,5786577.9081],[32555806.1301,5786614.8894],[32555837.3662,5786650.3724],[32555858.8567,5786682.8575],[32555866.3534,5786697.8509],[32555872.1007,5786713.3443],[32555879.3473,5786741.8326],[32555883.0954,5786770.821],[32555889.0678,5786802.9769],[32555911.1093,5786921.6501],[32555922.8261,5786984.7345],[32555945.8157,5787037.2117],[32555969.055,5787084.191],[32555997.6264,5787129.8332],[32556008.7871,5787147.6621],[32556021.5312,5787171.6515],[32556033.5256,5787206.6366],[32556041.7715,5787249.1194],[32556093.7469,5787405.0535],[32556123.4828,5787502.5128],[32556137.2258,5787578.9819],[32556152.6458,5787676.5912],[32556158.4651,5787713.4278],[32556189.2002,5787825.8813],[32556200.4447,5787877.3603],[32556203.443,5787900.8509],[32556202.9428,5787943.8346],[32556191.0064,5788009.6331],[32556182.451,5788056.7938],[32556181.4512,5788094.2795],[32556186.6985,5788134.7635],[32556192.1958,5788156.7545],[32556209.4376,5788203.7346],[32556219.9326,5788225.725],[32556230.4277,5788242.7173],[32556241.4227,5788255.7111],[32556253.1672,5788265.2062],[32556280.4047,5788277.1985],[32556341.3766,5788289.6871],[32556532.3708,5788313.8874],[32556573.3853,5788319.0842],[32556601.6212,5788336.077],[32556613.6153,5788346.0728],[32556624.8599,5788357.0682],[32556633.8558,5788370.0629],[32556639.1035,5788384.0573],[32556640.8528,5788400.5507],[32556639.8537,5788418.5437],[32556632.6077,5788455.0295],[32556619.3648,5788496.5134],[32556584.1336,5788547.9938],[32556541.4583,5788603.0774],[32556517.9187,5788633.4614],[32556482.6854,5788669.9477],[32556449.1282,5788701.814],[32556446.2441,5788704.5528],[32556387.8513,5788760.0033],[32556326.3796,5788804.993],[32556278.1518,5788835.4869],[32556233.6721,5788860.4825],[32556214.6807,5788868.4818],[32556197.6886,5788873.4819],[32556167.7021,5788876.4843],[32556132.6754,5788873.0542],[32556116.7253,5788871.4923],[32556103.7311,5788871.9937],[32556075.2439,5788880.494],[32556029.2644,5788903.4912],[32556000.0274,5788919.9886],[32555986.0336,5788924.9886],[32555972.5396,5788926.4897],[32555959.7953,5788924.9919],[32555948.5503,5788921.9946],[32555925.0607,5788909.0025],[32555905.2902,5788903.4823],[32555880.3304,5788896.5132],[32555854.092,5788892.5182],[32555841.5974,5788893.5194],[32555829.3528,5788896.52],[32555817.1081,5788902.5194],[32555805.6131,5788911.5176],[32555796.1172,5788923.5144],[32555788.6204,5788937.5101],[32555778.1249,5788965.0013],[32555774.1267,5788980.9955],[32555772.8771,5788985.9942],[32555766.1298,5789073.9621],[32555755.1343,5789175.9253],[32555746.6379,5789217.9109],[32555736.8922,5789249.4004],[32555723.8978,5789279.8909],[32555706.6552,5789314.3804],[32555673.6694,5789372.3634],[32555639.9338,5789417.8514],[32555598.9514,5789459.8417],[32555584.7074,5789476.8374],[32555572.9624,5789496.8318],[32555562.9667,5789519.8246],[32555554.4703,5789545.3164],[32555541.9175,5789588.0534],[32555530.9802,5789625.2902],[32555521.7342,5789651.7817],[32555508.7397,5789678.2738],[32555490.7473,5789705.2665],[32555469.0064,5789733.2594],[32555419.0275,5789787.2471],[32555347.5573,5789854.7332],[32555292.3303,5789902.7242],[32555260.8433,5789932.2184],[32555234.8541,5789964.2108],[32555213.6127,5790000.2009],[32555202.3674,5790016.1968],[32555178.3773,5790042.691],[32555162.1343,5790057.6878],[32555136.1445,5790081.6835],[32555128.6476,5790090.6815],[32555123.3997,5790101.1784],[32555119.4014,5790113.1747],[32555115.1531,5790139.6656],[32555114.3504,5790156.5241],[32555110.655,5790234.1313],[32555085.4157,5790507.0349],[32555081.1769,5790539.2524],[32555080.4178,5790545.0218],[32555063.1749,5790640.9893],[32555031.1882,5790789.9399],[32555014.6949,5790857.4179],[32555007.6978,5790879.9107],[32554988.4555,5790923.3981],[32554953.2197,5790982.8824],[32554926.7312,5791221.2993],[32554920.9838,5791300.2714],[32554915.736,5791326.7625],[32554909.9883,5791337.7595],[32554888.2468,5791368.752],[32554859.7579,5791402.7445],[32554818.2154,5791446.6467],[32554793.5335,5791472.7306],[32554693.0719,5791589.2059],[32554678.0778,5791638.6906],[32554661.3343,5791681.178],[32554651.338,5791701.6724],[32554628.3467,5791734.1646],[32554602.6064,5791761.6593],[32554572.8674,5791785.656],[32554537.1307,5791807.6545],[32554511.1113,5791821.4188],[32554463.4078,5791846.6539],[32554448.6631,5791853.6541],[32554420.4235,5791863.6557],[32554388.9349,5791867.1604],[32554367.4428,5791866.1648],[32554309.214,5791859.1784],[32554258.2449,5791851.6927],[32554224.2448,5791846.6991],[32554200.6343,5791841.6725],[32554156.922,5791844.4614],[32554107.0029,5791862.7019],[32554104.5381,5791880.2097],[32554100.5394,5791887.7078],[32554060.5533,5791959.6892],[32554035.0448,5791997.3186],[32554020.5673,5792018.6753],[32554003.823,5792049.6672],[32553975.5365,5792125.7255],[32553928.3483,5792252.6077],[32553924.4677,5792248.0588],[32553888.6077,5792356.6989],[32553892.8598,5792367.5725],[32553903.5052,5792407.154],[32553907.5307,5792422.1213],[32553910.6031,5792433.545],[32553914.8515,5792454.5364],[32553916.1009,5792480.5267],[32553914.3514,5792492.0229],[32553909.8529,5792501.0204],[32553901.8556,5792506.0202],[32553888.8601,5792508.022],[32553851.8729,5792508.5291],[32553780.6476,5792504.0447],[32553739.6277,5792560.0095],[32553712.2139,5792597.4111],[32553698.5986,5792615.9869],[32553643.8097,5792690.7371],[32553616.526,5792727.9612],[32553575.4645,5792783.9827],[32553555.7208,5792808.4777],[32553534.7276,5792827.9746],[32553522.4816,5792835.4744],[32553492.4916,5792848.4755],[32553441.5084,5792874.9759],[32553380.7782,5792909.9752],[32553306.5524,5792955.9731],[32553279.4796,5792973.4709],[32553241.5735,5792997.9705],[32553193.8388,5793030.968],[32553173.0954,5793046.4664],[32553156.6006,5793060.9644],[32553145.8538,5793072.9621],[32553138.606,5793086.4586],[32553126.3591,5793125.4468],[32553108.363,5793213.9179],[32553059.8753,5793361.3735],[32553059.6327,5793363.5159],[32553053.8759,5793414.3554],[32553051.2351,5793455.1245],[32553049.3757,5793483.8308],[32553040.8327,5793508.708],[32553022.633,5793539.3157],[32552995.8909,5793570.8094],[32552925.662,5793628.3023],[32552911.9161,5793641.8002],[32552891.9219,5793665.7952],[32552882.6746,5793673.7941],[32552865.43,5793683.7938],[32552848.1854,5793687.7958],[32552794.3095,5793736.0019],[32552722.4725,5793800.2791],[32552720.6478,5793689.2876],[32552718.2325,5793542.3746],[32552709.4722,5793548.7676],[32552694.6259,5793559.6018],[32552495.0441,5793572.9103],[32552167.6514,5793622.3332],[32551815.5485,5793603.807],[32551642.5854,5793572.9234],[32551549.9269,5793579.102],[32551469.6232,5793609.9895],[32551370.7887,5793702.6495],[32551327.5494,5793789.1315],[32551259.6014,5793875.6137],[32551142.2355,5793986.8059],[32551049.5775,5794048.5797],[32550919.8568,5794116.5312],[32550827.1995,5794209.191],[32550728.3655,5794338.9144],[32550573.9379,5794567.4744],[32550455.0062,5794702.2682],[32550483.1184,5794725.3383],[32550517.2547,5794747.2659],[32550505.1302,5794747.2661],[32550494.1652,5794750.3992],[32550489.466,5794759.7979],[32550486.1365,5794773.1167],[32550485.6181,5794772.8206],[32550433.1717,5794741.2997],[32550333.0295,5794833.0992],[32550160.0704,5795074.0142],[32549842.6499,5795450.9621],[32549850.6314,5795464.1587],[32549852.8806,5795471.6557],[32549852.8808,5795484.6509],[32549850.132,5795490.649],[32549844.1344,5795496.1479],[32549824.3924,5795506.6466],[32549799.6524,5795514.6472],[32549775.9119,5795520.1484],[32549743.4248,5795521.1525],[32549733.1789,5795520.1542],[32549714.1863,5795515.1587],[32549693.0228,5795502.5069],[32549641.4645,5795471.6845],[32549631.9683,5795474.1848],[32549609.7273,5795483.6843],[32549582.7383,5795499.1821],[32549570.2434,5795509.6799],[32549559.7477,5795522.1767],[32549550.5016,5795538.1719],[32549531.7598,5795583.6576],[32549515.7669,5795636.1403],[32549510.0196,5795661.1318],[32549506.0215,5795683.1241],[32549504.7722,5795700.6179],[32549506.0219,5795715.1124],[32549509.5208,5795728.6069],[32549523.0158,5795753.0961],[32549543.758,5795775.0852],[32549570.7475,5795795.574],[32549654.7151,5795852.0418],[32549689.4165,5795878.3134],[32549715.4417,5795898.0164],[32549732.4351,5795905.5113],[32549750.6779,5795910.5069],[32549769.6704,5795913.0034],[32549806.1559,5795913.498],[32549835.3942,5795909.9953],[32549883.6251,5795911.9878],[32549895.3704,5795910.4867],[32549910.0814,5795906.5461],[32549927.1076,5795901.9854],[32549969.8405,5795894.4821],[32550003.0774,5795898.4758],[32550018.5713,5795904.9711],[32550022.5698,5795909.9687],[32550037.0646,5795943.454],[32550051.5596,5795990.4343],[32550056.0583,5796016.9238],[32550057.3082,5796043.4137],[32550053.56,5796068.9046],[32550045.5635,5796091.3974],[32550034.8181,5796111.3914],[32550022.0734,5796128.8868],[32550007.5795,5796143.3834],[32549992.0858,5796154.8814],[32549975.8424,5796163.3805],[32549959.349,5796168.381],[32549943.3554,5796169.8828],[32549932.3597,5796168.8847],[32549914.3668,5796161.8899],[32549902.1215,5796151.8953],[32549894.8742,5796143.3996],[32549865.8851,5796103.4187],[32549850.793,5796080.573],[32549829.8986,5796048.9442],[32549815.9039,5796035.4512],[32549799.6602,5796022.9581],[32549766.6729,5796001.4708],[32549740.683,5795986.9798],[32549719.4412,5795972.4881],[32549691.2022,5795958.4971],[32549628.2269,5795935.0144],[32549592.7407,5795914.5269],[32549543.5096,5795881.5456],[32549523.7673,5795872.0518],[32549500.2765,5795863.558],[32549474.2868,5795857.5636],[32549422.3073,5795851.5726],[32549378.3247,5795851.0785],[32549348.3366,5795852.5817],[32549346.1179,5795931.0213],[32549345.32,5795959.2305],[32549343.8408,5796011.5233],[32549339.3048,5796014.7466],[32549260.1249,5796071.0118],[32549233.6357,5796086.0094],[32549202.6482,5796099.0085],[32549169.4114,5796105.5102],[32549152.6681,5796105.0125],[32549136.6743,5796102.0155],[32549122.1799,5796095.0199],[32549109.9346,5796085.0251],[32549099.6729,5796071.4976],[32549047.7635,5796092.2622],[32548795.1466,5796286.1369],[32548694.4665,5796393.1127],[32548691.9786,5796411.7738],[32548645.1439,5796471.9917],[32548598.3094,5796532.2095],[32548564.8567,5796619.1901],[32548518.0222,5796692.7896],[32548471.9322,5796808.0195],[32548476.4467,5796834.3193],[32548480.6961,5796906.2918],[32548473.2038,5797212.6774],[32548488.8632,5797221.3256],[32548499.4436,5797227.1689],[32548544.926,5797248.6556],[32548566.1677,5797256.1503],[32548592.4073,5797261.1453],[32548620.0597,5797271.896],[32548685.5898,5797355.2952],[32548667.629,5797357.6],[32548629.6443,5797368.6004],[32548563.4658,5797391.5011],[32548511.7564,5797409.3948],[32548277.8648,5797490.3315],[32548218.801,5797510.7702],[32548193.5323,5797624.4865],[32548193.5336,5797718.1574],[32548220.298,5797795.1008],[32548290.5536,5797969.0601],[32548310.6275,5798069.4216],[32548337.3921,5798173.1282],[32548367.5018,5798256.7626],[32548367.505,5798481.69],[32548383.5629,5798473.7525],[32548357.8993,5798676.5018],[32548349.8628,5798739.9922],[32548341.6399,5798804.9548],[32548335.2267,5798855.6208],[32548332.2266,5798855.1212],[32548328.7244,5798858.1202],[32548324.2189,5798865.6177],[32548318.7079,5798880.6121],[32548312.6923,5798905.1028],[32548306.4332,5798941.59],[32548296.6682,5799019.3593],[32548255.6002,5799346.4283],[32548290.0857,5799383.9101],[32548334.5666,5799437.3845],[32548357.0567,5799468.3703],[32548377.0478,5799499.3566],[32548392.2909,5799529.3445],[32548403.2855,5799560.8333],[32548411.5311,5799596.8225],[32548417.0278,5799636.8113],[32548420.0257,5799678.7977],[32548420.7744,5799722.7799],[32548419.2736,5799766.7624],[32548415.5233,5799810.7454],[32548410.0236,5799853.2293],[32548394.7757,5799942.1965],[32548368.2839,5800076.1484],[32548352.5414,5800144.1245],[32548331.3038,5800216.0996],[32548299.6082,5800335.4745],[32548299.208,5800336.9819],[32548293.0833,5800360.0489],[32548298.732,5800355.7438],[32548324.5654,5800336.0549],[32548369.5411,5800305.5618],[32548421.7651,5800277.0669],[32548447.503,5800267.5677],[32548507.726,5800252.0669],[32548620.1791,5800231.5622],[32548657.4142,5800226.5602],[32548722.8887,5800221.0554],[32548895.5707,5800221.5387],[32548972.0396,5800225.5212],[32548990.7811,5800268.5068],[32549009.5221,5800311.4913],[32548979.2832,5800357.9762],[32548956.2908,5800403.4604],[32548947.2935,5800428.4514],[32548941.0452,5800452.4428],[32548938.8073,5800465.531],[32548936.6307,5800478.2609],[32548935.7461,5800483.4345],[32548932.2153,5800504.0844],[32548930.4476,5800514.4229],[32548927.7989,5800529.9144],[32548901.106,5800535.1376],[32548898.3805,5800535.6709],[32548871.5724,5800540.9167],[32548844.8821,5800546.1394],[32548842.1503,5800546.674],[32548815.3469,5800551.9189],[32548814.597,5800538.9239],[32548811.848,5800531.4269],[32548806.6002,5800523.9304],[32548797.854,5800517.4339],[32548784.8596,5800513.4369],[32548766.8674,5800512.4394],[32548745.3771,5800513.9413],[32548699.3983,5800520.9439],[32548637.4069,5800534.8779],[32548630.4316,5800536.4458],[32548637.9294,5800556.9373],[32548640.1792,5800569.4323],[32548639.9303,5800582.9271],[32548635.9333,5800595.9227],[32548626.439,5800607.4194],[32548610.4477,5800615.9178],[32548515.749,5800641.9177],[32548270.3826,5800703.4151],[32548134.1978,5800734.911],[32548099.2126,5800741.4138],[32548075.9722,5800742.9211],[32548015.9968,5800739.4471],[32547955.7711,5800732.9743],[32547909.7896,5800725.992],[32547883.0503,5800726.5002],[32547845.0654,5800730.5074],[32547823.3241,5800734.5086],[32547779.5917,5800748.0031],[32547756.3513,5800759.4955],[32547700.3774,5800792.4548],[32547605.6797,5800853.952],[32547760.0208,5800875.1161],[32547784.0933,5800878.4171],[32547819.0762,5800884.939],[32547870.3045,5800891.4397],[32547931.5292,5800894.9445],[32547962.5165,5800893.4468],[32547943.5244,5800991.8955],[32547924.5453,5801072.3134],[32547913.8055,5801107.8514],[32547903.0605,5801136.3351],[32547894.4699,5801151.9238],[32547921.7061,5801143.6766],[32547936.2195,5801141.4884],[32548000.4638,5801144.242],[32548050.0612,5801180.4315],[32548063.2542,5801186.7114],[32548082.1454,5801190.6248],[32548117.3736,5801190.8786],[32548142.4395,5801188.5046],[32548195.0824,5801183.5188],[32548214.835,5801183.7686],[32548233.6278,5801186.4519],[32548251.2778,5801192.4022],[32548268.2488,5801202.1847],[32548288.2391,5801218.7025],[32548306.2082,5801238.3123],[32548292.1279,5801252.8035],[32548277.384,5801273.7886],[32548265.639,5801297.2723],[32548257.8927,5801323.257],[32548254.895,5801349.2334],[32548256.8974,5801373.6824],[32548263.1482,5801396.1484],[32548273.1467,5801418.6291],[32548312.8077,5801484.0197],[32548332.8797,5801517.1132],[32548345.8765,5801543.6267],[32548352.8754,5801566.1451],[32548354.8753,5801585.6478],[32548352.8763,5801603.6371],[32548344.8146,5801632.5907],[32548328.3881,5801691.5863],[32548325.39,5801722.0703],[32548327.14,5801754.5539],[32548332.6382,5801788.0375],[32548335.3235,5801799.1032],[32548340.885,5801822.0212],[32548360.5631,5801887.124],[32548381.369,5801955.9579],[32548385.8672,5801982.9452],[32548383.3683,5802001.4365],[32548374.8719,5802013.4309],[32548360.8779,5802019.928],[32548342.8855,5802021.9272],[32548271.1661,5802017.4306],[32548219.9376,5802018.9317],[32548176.4553,5802025.9306],[32548134.7221,5802037.4278],[32548130.6661,5802041.3125],[32548116.9786,5802054.4216],[32548086.4896,5802076.9139],[32548065.747,5802089.41],[32548041.2557,5802101.4066],[32547985.0254,5802123.401],[32547960.2835,5802135.3976],[32547920.7956,5802160.8895],[32547887.5544,5802189.3794],[32547873.5567,5802211.3709],[32547858.3082,5802241.3587],[32547824.3088,5802319.8255],[32547775.5741,5802441.5145],[32547751.0534,5802502.7419],[32547730.8038,5802539.7241],[32547707.3074,5802565.2119],[32547682.8128,5802581.2044],[32547658.8195,5802589.2009],[32547637.3262,5802592.2],[32547619.5823,5802591.7007],[32547603.3382,5802588.7028],[32547630.8238,5802624.1834],[32547648.0636,5802654.6668],[32547656.0583,5802673.1568],[32547669.2979,5802718.6319],[32547673.0434,5802745.617],[32547673.5401,5802774.6011],[32547671.288,5802804.0848],[32547662.7871,5802857.0551],[32547654.0388,5802894.5341],[32547597.8121,5802935.0163],[32547515.1018,5802989.4987],[32547483.6186,5803017.4898],[32547471.6255,5803031.4848],[32547452.3877,5803061.9736],[32547431.1531,5803111.4541],[32547416.413,5803136.4443],[32547399.1733,5803155.4372],[32547365.1924,5803181.4277],[32547357.947,5803192.423],[32547359.1849,5803197.5489],[32547343.1244,5803185.1951],[32547321.7397,5803173.5311],[32547281.2721,5803160.0426],[32547320.4583,5803135.9519],[32547336.6992,5803121.9572],[32547348.9416,5803105.9635],[32547358.6852,5803089.4702],[32547366.1796,5803071.4776],[32547380.5978,5803017.8128],[32547389.4101,5802985.0134],[32547401.4025,5802962.0223],[32547419.1427,5802941.0298],[32547440.6315,5802922.036],[32547506.1006,5802875.5519],[32547520.5943,5802863.5569],[32547528.3411,5802853.0617],[32547539.5874,5802816.5805],[32547542.3383,5802780.1007],[32547538.0927,5802743.621],[32547527.1,5802708.1406],[32547511.1092,5802675.159],[32547490.6201,5802644.176],[32547466.6318,5802617.6909],[32547440.1441,5802595.2035],[32547407.4085,5802573.7157],[32547366.426,5802551.2285],[32547275.2148,5802505.7547],[32547176.0742,5802461.3501],[32547164.7616,5802456.2833],[32547094.0299,5802565.7295],[32547050.8124,5802622.5175],[32547008.0684,5802678.6833],[32546984.8309,5802716.6681],[32546977.3353,5802734.1609],[32546973.0885,5802755.6515],[32546971.0913,5802786.1377],[32546971.3435,5802821.6214],[32546972.5955,5802858.6043],[32546979.5988,5802950.0604],[32546946.8638,5802955.0596],[32546852.6553,5802963.0598],[32546673.2273,5802969.5662],[32546386.5636,5802943.0991],[32546245.8178,5803104.0756],[32546194.5852,5803081.8001]],[[32548380.5763,5797230.3706],[32548347.4157,5797303.3265],[32548293.8904,5797366.8898],[32548253.746,5797393.6534],[32548241.0142,5797431.851],[32548313.02,5797405.6225],[32548354.7533,5797393.6223],[32548398.4859,5797384.6208],[32548485.2014,5797371.1161],[32548503.1942,5797365.6162],[32548518.1882,5797358.1173],[32548529.9334,5797348.6195],[32548537.1804,5797336.1234],[32548533.9314,5797320.6297],[32548516.4381,5797303.1383],[32548488.9486,5797284.6484],[32548455.2117,5797266.1593],[32548380.5763,5797230.3706]]]],"crs":{"type":"EPSG","properties":{"code":4647}}},"properties":{"BGL":10,"BGL_NAME":"Lössbörde","FL_NR":601}}]}