{"type": "FeatureCollection","features":[{"type":"Feature","geometry":{"type":"Polygon","coordinates":[[[32563584.4309,5778109.6713],[32563541.9469,5778046.1972],[32563517.4555,5777970.7275],[32563510.957,5777891.7591],[32563522.4513,5777816.7887],[32563573.1795,5777709.3308],[32563645.8992,5777612.8681],[32563721.6176,5777515.9056],[32563779.3431,5777411.4463],[32563818.3258,5777284.4963],[32563847.0624,5777155.0474],[32563864.0537,5777023.0996],[32563871.049,5776890.6523],[32563870.0473,5776746.7096],[32563862.7981,5776603.7666],[32563846.8024,5776460.3239],[32563823.8094,5776318.8805],[32563837.802,5776187.9325],[32563864.5394,5776057.9838],[32563903.5221,5775932.5332],[32563953.2505,5775810.581],[32563992.9835,5775727.1136],[32564039.4638,5775646.1452],[32564093.941,5775571.674],[32564159.414,5775507.1987],[32564270.368,5775378.7483],[32564368.327,5775240.302],[32564451.2918,5775091.8598],[32564518.5128,5774937.4204],[32564560.7434,5774759.4906],[32564578.9834,5774575.5635],[32564596.2239,5774391.6365],[32564637.4549,5774213.7067],[32564709.6734,5774029.2791],[32564796.8862,5773851.8485],[32564897.0938,5773680.4153],[32565009.2967,5773516.9788],[32565218.7104,5773312.5571],[32565465.8597,5773149.1186],[32565733.0014,5773012.1693],[32566004.8914,5772888.2148],[32566250.7919,5772770.758],[32566499.4413,5772660.7982],[32566752.3392,5772560.3346],[32567010.9851,5772474.3651],[32567212.4039,5772401.8911],[32567416.0718,5772330.4166],[32567619.4899,5772261.4412],[32567825.9069,5772199.9627],[32568065.5606,5772131.9863],[32568306.9636,5772067.5086],[32568549.3663,5772008.5286],[32568793.0185,5771952.0478],[32568933.2124,5771929.055],[32569077.155,5771922.0558],[32569219.0987,5771937.5476],[32569352.7961,5771980.5287],[32569451.0068,5771965.0335],[32569549.2174,5771947.0393],[32569644.4292,5771920.5485],[32569734.6427,5771881.063],[32569800.866,5771859.5706],[32569867.8391,5771839.0779],[32569935.062,5771817.5855],[32570001.2853,5771794.094],[32570041.519,5771776.6004],[32570081.5028,5771756.6078],[32570119.7373,5771733.1166],[32570154.9729,5771706.1269],[32570178.2131,5771671.1405],[32570191.4572,5771629.1571],[32570195.7049,5771584.1749],[32570263.4285,5771623.1584],[32570302.1636,5771661.1428],[32570345.147,5771694.6288],[32570377.8843,5771714.6204],[32570412.8706,5771735.1118],[32570448.6067,5771753.6039],[32570484.5926,5771771.5962],[32570563.3118,5771810.0798],[32570642.031,5771849.0631],[32570721.7498,5771887.5467],[32570801.4687,5771926.0302],[32570726.2491,5771964.516],[32570653.0289,5772005.0008],[32570580.8082,5772047.4849],[32570508.3377,5772089.969],[32570455.1097,5772147.9466],[32570393.6349,5772197.4278],[32570325.4126,5772237.9126],[32570253.1918,5772266.4022],[32570154.9812,5772287.3952],[32570056.7705,5772302.8904],[32569957.81,5772311.8882],[32569858.5995,5772314.3886],[32569750.8922,5772300.3957],[32569642.935,5772290.9009],[32569534.728,5772281.906],[32569426.7708,5772273.9107],[32569281.0784,5772242.9251],[32569133.137,5772225.9339],[32568985.196,5772227.9352],[32568842.7531,5772257.9252],[32568726.5501,5772309.9061],[32568613.0961,5772371.3832],[32568506.3896,5772440.3572],[32568408.9296,5772521.8261],[32568389.1887,5772611.7905],[32568356.703,5772701.2553],[32568308.2234,5772780.2246],[32568241.7507,5772838.7022],[32568153.7854,5772817.2121],[32568062.8215,5772813.215],[32567972.8575,5772824.7117],[32567885.6426,5772849.2032],[32567780.1852,5772897.1856],[32567685.7238,5772965.6597],[32567601.2586,5773047.1285],[32567528.5389,5773138.5931],[32567460.5677,5773259.0461],[32567415.8374,5773391.9938],[32567387.8506,5773531.9384],[32567372.8586,5773671.8829],[32567338.1218,5773626.4015],[32567296.3878,5773586.9179],[32567247.6568,5773557.9301],[32567195.6772,5773543.4367],[32567130.7031,5773544.937],[32567064.4796,5773552.435],[32567003.5041,5773570.9285],[32566953.2746,5773605.4155],[32566918.7889,5773645.4],[32566889.5512,5773690.3826],[32566863.3123,5773735.8648],[32566837.8231,5773782.8465],[32566814.3336,5773861.8154],[32566782.8473,5773938.7852],[32566746.3629,5774013.256],[32566708.8789,5774087.2271],[32566652.153,5774191.6863],[32566590.429,5774294.1464],[32566519.7086,5774391.1089],[32566439.9916,5774479.5748],[32566350.5283,5774557.545],[32566258.0662,5774634.0159],[32566163.355,5774707.488],[32566069.8933,5774781.9597],[32565938.4463,5774832.9413],[32565810.998,5774897.9173],[32565698.5439,5774980.3861],[32565610.8303,5775084.346],[32565537.8612,5775210.2969],[32565466.8913,5775336.7476],[32565397.1709,5775463.1983],[32565327.2006,5775590.6485],[32565280.2213,5775725.5955],[32565222.2462,5775857.044],[32565152.5258,5775981.9953],[32565070.5601,5776098.4501],[32564954.1076,5776176.4208],[32564843.4029,5776263.8876],[32564740.6952,5776358.8513],[32564648.9832,5776464.3106],[32564570.2662,5776573.7682],[32564499.546,5776689.2233],[32564434.5736,5776809.1765],[32564378.8476,5776932.6281],[32564357.8579,5777068.5743],[32564326.8722,5777204.5207],[32564285.8905,5777337.4683],[32564236.1622,5777465.9179],[32564174.1887,5777591.3689],[32564103.4686,5777714.321],[32564021.5029,5777828.7766],[32563928.7913,5777933.7362],[32563854.3219,5777998.2117],[32563770.1062,5778051.6916],[32563679.6428,5778090.1776],[32563584.4309,5778109.6713]]],"crs":{"type":"EPSG","properties":{"code":4647}}},"properties":{"fl_nr":2182,"NRKART":54,"NRKARTTXT":"54","KLARTEXT":"Pseudogley-Parabraunerden aus Loesslehmen (erodiert); im Leinegraben und Eichsfeld mit Schwarzerde-Parabraunerden vergesellschaftet; in Hangverebnungen und Unterhanglagen Kolluvien aus Schwemmloessen","BULAND":null}}]}