{"type": "FeatureCollection","features":[{"type":"Feature","geometry":{"type":"Polygon","coordinates":[[[32564234.5794,5777258.5124],[32564227.0593,5777259.8469],[32564183.9706,5777267.4936],[32564142.1315,5777277.4766],[32564124.0791,5777278.4705],[32564104.255,5777275.465],[32564083.299,5777268.6878],[32564061.8178,5777261.951],[32564035.7197,5777256.4527],[32564009.4184,5777255.1483],[32563978.6598,5777256.372],[32563943.3661,5777257.7762],[32563919.4364,5777254.7803],[32563895.9881,5777247.2872],[32563872.411,5777235.7957],[32563826.0446,5777206.8099],[32563794.8843,5777181.821],[32563791.5151,5777157.136],[32563780.9636,5777060.8318],[32563774.1487,5776967.3015],[32563775.1612,5776891.7789],[32563781.674,5776811.7705],[32563785.8665,5776790.2733],[32563795.8481,5776776.2803],[32563811.3725,5776771.2904],[32563827.6807,5776776.3019],[32563845.5152,5776788.3176],[32563940.6524,5776832.4174],[32563958.4614,5776836.4343],[32563977.0048,5776834.9497],[32563994.5248,5776826.9624],[32564009.2607,5776810.4713],[32564019.9592,5776785.4752],[32564026.3822,5776755.974],[32564025.7851,5776725.9654],[32564015.4304,5776701.4488],[32563989.5479,5776680.9198],[32563974.097,5776673.5783],[32563952.6463,5776663.3863],[32563905.9711,5776646.3579],[32563876.5827,5776626.8556],[32563853.9603,5776606.8628],[32563838.3483,5776584.3724],[32563832.4876,5776554.3877],[32563832.8679,5776516.4083],[32563836.7523,5776476.9303],[32563842.1599,5776443.4492],[32563854.7997,5776398.4757],[32563877.8872,5776328.5172],[32563914.9702,5776223.0254],[32563934.2735,5776168.1129],[32563965.6038,5776089.1606],[32563987.4944,5776040.8174],[32564002.9385,5776006.7109],[32564009.9726,5775992.6908],[32564041.0459,5775930.758],[32564073.6916,5775871.2951],[32564155.9634,5775732.3825],[32564185.0413,5775672.7017],[32564210.4989,5775620.4508],[32564233.9183,5775575.9781],[32564254.8646,5775541.9994],[32564273.582,5775516.5157],[32564295.3058,5775490.533],[32564322.5375,5775462.552],[32564357.2809,5775432.0734],[32564392.7968,5775408.0913],[32564420.3301,5775396.1017],[32564441.6148,5775389.6083],[32564457.8848,5775382.6143],[32564471.6243,5775368.124],[32564484.0851,5775345.6376],[32564494.2677,5775316.1547],[32564500.6685,5775279.675],[32564501.7781,5775234.6988],[32564497.7596,5775164.261],[32564493.2821,5775085.7762],[32564494.3872,5775039.3007],[32564497.2165,5774983.3306],[32564505.8906,5774873.8889],[32564508.8844,5774790.9327],[32564524.4807,5774617.7048],[32564526.0716,5774600.0342],[32564534.9325,5774549.0618],[32564567.8034,5774403.1414],[32564594.0566,5774304.1956],[32564624.2358,5774178.7636],[32564636.7498,5774117.5128],[32564661.502,5773996.3607],[32564672.3744,5773947.3868],[32564680.3701,5773922.034],[32564684.037,5773910.4069],[32564700.4763,5773877.9252],[32564721.9222,5773843.4452],[32564744.8832,5773812.4636],[32564765.6122,5773788.9779],[32564783.5889,5773766.9911],[32564803.079,5773748.0029],[32564827.3363,5773730.5146],[32564858.6086,5773712.0275],[32564898.1221,5773684.0461],[32564940.3672,5773648.0688],[32564980.3341,5773605.0946],[32565022.782,5773554.1243],[32565027.0953,5773549.199],[32565118.1828,5773445.1879],[32565122.4647,5773451.6852],[32565136.5473,5773466.1796],[32565161.6587,5773480.6751],[32565199.0263,5773487.1759],[32565241.6257,5773483.6819],[32565279.4453,5773474.69],[32565309.7373,5773463.1985],[32565329.2529,5773452.2058],[32565342.4911,5773437.7141],[32565354.7044,5773416.2256],[32565363.648,5773391.2386],[32565367.5787,5773366.2511],[32565367.756,5773343.2622],[32565365.1331,5773306.7796],[32565444.2796,5773270.9871],[32565487.7747,5773251.3173],[32565505.2983,5773244.3231],[32565595.4339,5773208.3469],[32565678.1984,5773180.8642],[32565775.9962,5773148.3896],[32565816.8071,5773131.4007],[32565834.8925,5773144.3959],[32565848.2164,5773157.8904],[32565850.6519,5773163.3805],[32565855.5327,5773174.3831],[32565861.9105,5773213.3651],[32565867.4836,5773233.8556],[32565875.8098,5773252.8473],[32565886.6228,5773264.8422],[32565887.2337,5773265.0331],[32565899.4183,5773268.8412],[32565928.7538,5773271.342],[32565943.0604,5773277.84],[32565952.6216,5773290.3347],[32565954.426,5773307.8265],[32565945.7123,5773328.8158],[32565921.9761,5773353.3025],[32565887.2187,5773379.2874],[32565851.1968,5773401.774],[32565823.1685,5773415.7652],[32565804.2948,5773419.2828],[32565796.365,5773420.7608],[32565717.1801,5773427.2516],[32565672.8485,5773437.7431],[32565630.0526,5773458.2297],[32565591.7989,5773488.2119],[32565562.8335,5773522.6928],[32565547.408,5773558.674],[32565546.5442,5773577.0665],[32565545.9998,5773588.6591],[32565555.3361,5773608.1504],[32565573.1658,5773618.6468],[32565597.2346,5773620.6479],[32565623.5242,5773611.6545],[32565637.0839,5773601.3571],[32565648.5286,5773592.6658],[32565690.0043,5773551.1895],[32565709.5087,5773536.6981],[32565733.5313,5773524.2059],[32565759.0641,5773513.7131],[32565763.7611,5773512.2357],[32565791.2095,5773503.6018],[32565812.6475,5773496.2257],[32565850.4447,5773480.2361],[32565932.7731,5773437.7626],[32565968.7982,5773416.2755],[32565971.1727,5773414.7073],[32565999.0631,5773396.2871],[32566023.8121,5773375.7986],[32566043.0433,5773353.8104],[32566057.1942,5773333.5168],[32566080.98,5773348.9363],[32566116.6638,5773348.9358],[32566176.8799,5773342.2442],[32566179.893,5773341.5891],[32566228.175,5773331.0923],[32566263.8586,5773328.8616],[32566301.7726,5773337.782],[32566346.3775,5773357.8533],[32566349.6935,5773359.6388],[32566375.3707,5773373.4645],[32566419.9814,5773394.4571],[32566419.2484,5773392.9445],[32566463.2759,5773401.7493],[32566466.8105,5773402.4562],[32566498.0338,5773402.4558],[32566515.8755,5773400.2252],[32566533.7173,5773389.0738],[32566540.4078,5773375.6924],[32566533.7167,5773346.6995],[32566498.0325,5773315.4768],[32566442.2762,5773277.5637],[32566359.7574,5773257.4929],[32566259.3969,5773248.5733],[32566179.1086,5773244.1141],[32566080.2626,5773219.698],[32566078.6605,5773214.0513],[32566077.1439,5773208.7059],[32566073.9325,5773197.3869],[32566054.5358,5773163.9016],[32566029.4117,5773135.8515],[32566140.8976,5773124.3542],[32566221.32,5773121.4106],[32566346.8578,5773137.101],[32566446.1079,5773161.814],[32566486.9925,5773204.9308],[32566510.1915,5773229.3965],[32566543.4877,5773268.9278],[32566550.1824,5773276.8762],[32566590.6987,5773332.8518],[32566624.1415,5773385.1012],[32566629.7252,5773393.8249],[32566679.5667,5773478.7324],[32566680.1501,5773559.3121],[32566676.5219,5773572.9771],[32566668.5562,5773582.898],[32566668.5569,5773631.3908],[32566617.5584,5773709.8525],[32566550.868,5773804.0068],[32566535.1767,5773882.4681],[32566543.024,5773957.0059],[32566586.1789,5774043.3123],[32566680.3337,5774141.3872],[32566801.9496,5774231.6158],[32566856.8733,5774298.3068],[32566898.4605,5774386.6755],[32566886.9589,5774406.8651],[32566872.7385,5774426.3556],[32566852.7495,5774445.8445],[32566826.7432,5774465.8317],[32566797.9687,5774483.3186],[32566740.895,5774510.2921],[32566644.7787,5774566.8744],[32566572.7577,5774609.2721],[32566436.5742,5774683.7374],[32566394.8982,5774711.7237],[32566363.7686,5774737.5231],[32566289.5667,5774792.8053],[32566154.6539,5774782.8139],[32565993.808,5774739.6626],[32565942.8084,5774735.7403],[32565903.5778,5774739.6639],[32565856.5017,5774767.126],[32565793.7335,5774818.1265],[32565762.8689,5774874.7137],[32565723.1205,5774947.5883],[32565707.9472,5774979.4535],[32565683.8914,5775029.9729],[32565668.1999,5775092.7419],[32565640.7389,5775120.2038],[32565597.5858,5775159.4348],[32565585.8175,5775210.4348],[32565594.2933,5775278.2339],[32565553.2223,5775380.3549],[32565527.9911,5775452.3687],[32565506.4708,5775513.7912],[32565455.1369,5775626.731],[32565447.5016,5775642.4854],[32565416.3877,5775706.6845],[32565410.4243,5775683.699],[32565409.5874,5775681.9443],[32565401.6055,5775665.2094],[32565387.6633,5775650.2167],[32565372.1772,5775642.2192],[32565358.4777,5775639.219],[32565345.33,5775640.7168],[32565331.7462,5775647.2124],[32565315.7428,5775659.2051],[32565304.1897,5775670.2822],[32565297.5011,5775676.6952],[32565279.5212,5775697.6839],[32565264.5645,5775719.6724],[32565252.2286,5775744.6598],[32565201.6496,5775861.0992],[32565168.0269,5775922.0648],[32565145.5525,5775954.5462],[32565122.5667,5775983.5295],[32565101.827,5776005.5169],[32565081.836,5776022.5074],[32565036.5769,5776051.4912],[32565010.8165,5776071.4798],[32564959.0591,5776117.4534],[32564916.8357,5776161.928],[32564887.6377,5776200.4058],[32564876.6758,5776222.8927],[32564850.1646,5776291.3506],[32564832.3574,5776329.3269],[32564809.5822,5776362.8066],[32564765.8379,5776410.7334],[32564736.6067,5776442.7594],[32564644.9695,5776560.8308],[32564613.6657,5776601.1647],[32564563.4649,5776657.6314],[32564539.9873,5776640.6437],[32564533.4536,5776637.7276],[32564517.6017,5776630.6526],[32564494.3927,5776627.6562],[32564461.0729,5776630.1556],[32564448.0188,5776633.1538],[32564433.4847,5776642.1483],[32564419.9854,5776655.1407],[32564411.7867,5776670.132],[32564408.614,5776686.6224],[32564409.4264,5776704.6113],[32564415.4301,5776724.0983],[32564426.1001,5776743.5842],[32564448.7466,5776775.1236],[32564460.8644,5776791.9998],[32564465.9031,5776804.861],[32564466.1925,5776819.2723],[32564460.9918,5776837.754],[32564449.2126,5776863.5909],[32564431.1437,5776903.224],[32564426.9512,5776921.7165],[32564430.7639,5776934.7133],[32564441.3274,5776942.2139],[32564456.3894,5776945.7171],[32564472.444,5776946.7212],[32564491.481,5776940.7291],[32564512.7435,5776926.2415],[32564537.493,5776905.2578],[32564504.1077,5776966.2204],[32564490.1289,5776984.2084],[32564461.9543,5777002.461],[32564415.3302,5777032.6658],[32564371.0811,5777070.1364],[32564327.1073,5777114.6038],[32564298.1533,5777152.0785],[32564267.9803,5777200.0482],[32564234.5794,5777258.5124]],[[32564231.9649,5776943.9652],[32564215.995,5776952.9605],[32564197.5343,5776970.3396],[32564169.2838,5776996.9347],[32564146.3225,5777008.9285],[32564121.6039,5777013.927],[32564076.486,5777016.4269],[32564059.1318,5777018.9251],[32564044.0454,5777023.9218],[32564029.9997,5777032.9161],[32564015.7464,5777046.408],[32564004.8104,5777063.3982],[32564002.1894,5777080.3885],[32564006.5766,5777096.8789],[32564018.4083,5777112.3687],[32564032.6415,5777125.359],[32564046.3337,5777133.852],[32564060.0343,5777138.8474],[32564074.2661,5777140.8452],[32564088.5316,5777145.3376],[32564101.5986,5777156.7543],[32564111.9064,5777174.0342],[32564122.79,5777205.0661],[32564128.3761,5777220.9937],[32564142.6857,5777224.4984],[32564163.5346,5777233.0024],[32564173.8207,5777234.0052],[32564189.3542,5777230.0119],[32564207.871,5777219.0223],[32564225.8609,5777201.0356],[32564243.0841,5777179.0505],[32564259.8019,5777156.0656],[32564277.0043,5777128.5829],[32564293.9288,5777094.1029],[32564307.3388,5777059.1213],[32564314.4989,5777029.6343],[32564316.1649,5777006.1417],[32564314.3329,5776985.6445],[32564309.0174,5776969.2094],[32564299.9736,5776956.8793],[32564285.9185,5776948.4537],[32564269.1247,5776942.4635],[32564250.6619,5776940.466],[32564231.9649,5776943.9652]],[[32564512.391,5776361.7818],[32564490.6354,5776377.7692],[32564473.1599,5776399.7584],[32564462.2078,5776423.7502],[32564456.7699,5776447.7433],[32564455.3425,5776471.7354],[32564459.6785,5776495.2251],[32564470.2808,5776518.714],[32564487.6892,5776536.2073],[32564510.2873,5776545.2045],[32564535.5027,5776548.2036],[32564561.5917,5776547.204],[32564564.7794,5776546.6837],[32564586.0917,5776543.2052],[32564608.0596,5776534.2095],[32564625.2876,5776521.7164],[32564636.2918,5776506.2258],[32564642.3088,5776488.2373],[32564645.3076,5776467.7502],[32564644.7458,5776445.7636],[32564641.7441,5776429.23],[32564640.5724,5776422.7765],[32564625.6673,5776398.7877],[32564598.6614,5776376.2957],[32564566.5254,5776359.801],[32564537.1816,5776354.294],[32564512.391,5776361.7818]],[[32564769.808,5774231.6453],[32564746.271,5774314.0298],[32564695.2736,5774474.8755],[32564663.8907,5774580.7984],[32564652.1227,5774663.1827],[32564652.3447,5774664.115],[32564671.7392,5774745.5665],[32564695.2783,5774788.7197],[32564731.547,5774806.8535],[32564725.3339,5774745.2582],[32564728.5785,5774731.3407],[32564745.8989,5774701.96],[32564752.3555,5774691.0077],[32564825.2682,5774567.3251],[32564826.3931,5774547.6354],[32564825.3827,5774387.4283],[32564944.8266,5774208.1525],[32564955.6573,5774176.7318],[32564958.6323,5774168.1012],[32564944.1191,5774170.6254],[32564863.9606,5774184.5672],[32564820.8069,5774180.6448],[32564769.808,5774231.6453]]],"crs":{"type":"EPSG","properties":{"code":4647}}},"properties":{"FL_NR":48841,"KLASSE":"BF","KATEGORIE":"hohe - äußerst hohe Bodenfruchtbarkeit","TYP":"BFR 7","QUELLE":"BK50 - Auswertung nach Geobericht 19","UP_DATE":"2021-04-21T08:16:11.0000000","AREA":5000188.875}}]}