{"type": "FeatureCollection","features":[{"type":"Feature","geometry":{"type":"Polygon","coordinates":[[[32565087.099,5785878.603],[32564901.525,5785940.889],[32564829.192,5785964.18],[32564888.88,5785842.556],[32564882.759,5785778.117],[32564745.254,5785674.257],[32564883.638,5785628.949],[32564916.728,5785618.115],[32564957.17,5785753.696],[32565070.798,5785716.403],[32565071.291,5785721.381],[32565080.174,5785810.685],[32565087.099,5785878.603]]],"crs":{"type":"EPSG","properties":{"code":4647}}},"properties":{"FL_NR":3704718,"OGR_FID":651696,"SDE_ID":2130472,"OST":32564939.272,"NORD":5785927.891,"RECHTS":3565037.766,"HOCH":5787803.852,"TK25":3725,"BULAND":null,"KLASSENZEICHEN":"lS3Lo","KLASSENZEICHEN_KLARTEXT":"lehmiger Sand/hohe Leistungsfähigkeit/Lössböden","KLASSENZEICHEN_SEP":"lS;3;Lo","AREA":53545.09375,"UP_DATE":"2023-06-15T16:13:07.0000000","FL_PRONUM":831941,"XMIN":32564745,"XMAX":32565087,"YMIN":5785618,"YMAX":5785964,"BODENZ":71,"ACKERZ":"74"}}]}