{"type": "FeatureCollection","features":[{"type":"Feature","geometry":{"type":"Polygon","coordinates":[[[32560424.4247,5794233.801],[32560319.9652,5794157.8328],[32560215.5057,5794084.3636],[32560111.0462,5794011.3942],[32560006.3368,5793938.4248],[32559942.8614,5793891.9443],[32559876.1373,5793849.4622],[32559808.1638,5793809.9789],[32559740.4402,5793771.4953],[32559643.9776,5793703.5238],[32559542.2672,5793643.0494],[32559434.5594,5793599.0685],[32559322.8536,5793578.0785],[32559204.6506,5793579.0799],[32559087.6972,5793578.5818],[32558969.7441,5793576.5844],[32558852.5407,5793575.5866],[32558688.6062,5793593.5819],[32558523.4221,5793600.0818],[32558360.4867,5793587.0894],[32558204.7981,5793545.6082],[32558102.0882,5793494.1302],[32558007.3749,5793426.1587],[32557924.9065,5793344.6924],[32557863.6795,5793251.2305],[32557804.4512,5793121.2831],[32557754.4692,5792988.8365],[32557712.234,5792852.8913],[32557676.2463,5792716.4461],[32557633.5107,5792539.0174],[32557594.7735,5792360.589],[32557558.7852,5792182.1605],[32557528.0448,5792003.732],[32557556.7818,5791898.7734],[32557596.5145,5791795.3139],[32557652.241,5791706.3485],[32557733.4578,5791648.8702],[32557813.6757,5791631.3759],[32557898.6418,5791631.3747],[32557983.8579,5791629.874],[32558063.8258,5791612.3798],[32558128.0498,5791583.8901],[32558191.2742,5791553.4013],[32558251.4997,5791516.9149],[32558305.9774,5791473.9312],[32558334.2155,5791426.4497],[32558349.7085,5791371.4714],[32558352.9564,5791313.4944],[32558345.4585,5791258.5164],[32558413.6806,5791205.5364],[32558496.8971,5791175.5471],[32558586.1113,5791158.0528],[32558676.3252,5791146.556],[32558752.2949,5791138.0582],[32558828.2646,5791134.5585],[32558905.234,5791137.5561],[32558981.2039,5791148.0508],[32559048.4268,5791124.5592],[32559112.6507,5791091.0715],[32559171.1268,5791047.0882],[32559224.3549,5790997.6071],[32559256.8409,5790922.6364],[32559264.5866,5790838.6697],[32559256.0887,5790750.7049],[32559238.5944,5790666.7385],[32559267.3314,5790562.7795],[32559300.0669,5790459.82],[32559337.8004,5790358.8596],[32559380.532,5790261.3977],[32559398.0239,5790185.4277],[32559414.5162,5790109.4577],[32559427.0101,5790033.4878],[32559433.5064,5789956.5183],[32559404.0172,5789891.0448],[32559336.2935,5789847.5631],[32559250.3273,5789819.0757],[32559167.61,5789802.5836],[32559117.8792,5789762.1004],[32559068.1484,5789722.6169],[32559021.4164,5789680.1345],[32558977.6831,5789636.1526],[32558939.1974,5789562.6825],[32558924.7019,5789478.2163],[32558923.2012,5789390.2513],[32558928.9477,5789304.2855],[32558910.4538,5789218.32],[32558892.9594,5789131.8546],[32558874.7155,5789046.8887],[32558855.222,5788961.423],[32558807.9888,5788829.9761],[32558746.0117,5788704.5269],[32558675.7878,5788583.0763],[32558603.5648,5788463.1251],[32558546.0863,5788365.6648],[32558488.8576,5788269.204],[32558428.3803,5788173.7429],[32558365.1541,5788081.2807],[32558329.6672,5788012.8085],[32558297.9288,5787943.8364],[32558259.4432,5787879.3626],[32558251.945,5787800.3942],[32558257.442,5787743.4168],[32558258.6907,5787686.4394],[32558257.1904,5787627.9627],[32558253.4411,5787571.9851],[32558245.9434,5787525.0039],[32558232.1982,5787479.0224],[32558213.455,5787434.5404],[32558190.7134,5787393.557],[32558146.2303,5787339.0794],[32558093.5006,5787291.5991],[32558035.773,5787251.116],[32557976.0462,5787213.6318],[32558586.8017,5787116.1615],[32558782.7239,5787126.6544],[32558979.6457,5787137.1473],[32559176.5675,5787147.6402],[32559373.7392,5787159.1326],[32559588.6538,5787169.6252],[32559804.568,5787180.6176],[32560021.4819,5787191.1102],[32560237.646,5787202.6024],[32560385.5873,5787215.595],[32560533.2789,5787241.0826],[32560679.2214,5787276.0665],[32560821.9152,5787321.0465],[32560913.8789,5787342.0367],[32561005.5928,5787363.5268],[32561097.5565,5787386.0165],[32561189.2704,5787412.0047],[32561277.4853,5787413.5028],[32561366.4496,5787392.01],[32561451.915,5787356.0231],[32561533.1321,5787312.5392],[32561632.0926,5787310.0387],[32561731.0534,5787317.0344],[32561830.0142,5787331.5271],[32561926.9759,5787353.5169],[32562017.6904,5787393.9994],[32562100.4083,5787451.4753],[32562175.8793,5787520.4467],[32562243.3536,5787596.9153],[32562307.8291,5787681.3807],[32562365.3076,5787772.8434],[32562414.5394,5787867.305],[32562456.774,5787966.7648],[32562525.4974,5788017.2437],[32562609.4645,5788047.7303],[32562698.1793,5788060.7238],[32562787.3938,5788058.2234],[32562890.3527,5788049.2255],[32562993.5613,5788030.7313],[32563094.7707,5788004.7401],[32563193.9807,5787971.2519],[32563304.1867,5787961.2542],[32563416.142,5787952.7559],[32563527.3477,5787948.7558],[32563639.3031,5787948.7541],[32563736.5139,5787911.2676],[32563821.9789,5787844.7927],[32563895.6984,5787761.3249],[32563958.1722,5787671.8595],[32564005.1518,5787558.9038],[32564030.8898,5787436.9519],[32564040.6341,5787312.0015],[32564037.6335,5787189.0505],[32564019.1394,5787091.5896],[32563987.9005,5786997.6275],[32563944.4165,5786909.1633],[32563886.9383,5786831.695],[32563889.6859,5786741.7308],[32563906.178,5786652.766],[32563935.9149,5786567.7994],[32563978.3969,5786488.8301],[32564018.8797,5786414.3592],[32564064.3605,5786341.3875],[32564113.8398,5786272.9141],[32564170.3164,5786210.4381],[32564174.8135,5786132.469],[32564147.3233,5786054.0007],[32564099.8411,5785980.5307],[32564045.3618,5785917.0567],[32563983.6357,5785866.5778],[32563915.912,5785826.0949],[32563842.9406,5785795.6082],[32563767.2205,5785776.1171],[32563723.4872,5785730.6358],[32563683.7523,5785681.1561],[32563651.2645,5785629.1773],[32563628.5227,5785571.7005],[32563620.0252,5785513.7237],[32563622.2735,5785454.7472],[32563634.7676,5785396.7701],[32563655.0088,5785342.7912],[32563712.2356,5785312.3025],[32563784.207,5785316.7996],[32563862.1763,5785341.2887],[32563933.8982,5785369.7763],[32564035.1076,5785347.7835],[32564134.3177,5785319.2934],[32564232.5281,5785285.3054],[32564328.9892,5785245.8197],[32564416.4533,5785171.348],[32564479.1768,5785070.887],[32564524.907,5784955.9321],[32564559.8913,5784840.4775],[32564570.635,5784696.0349],[32564555.6388,5784551.0928],[32564520.6506,5784406.6508],[32564474.6669,5784268.2066],[32564404.6927,5784126.764],[32564318.4751,5783993.8182],[32564218.2631,5783869.8691],[32564109.0549,5783757.4155],[32564046.0779,5783612.4741],[32563994.0964,5783464.034],[32563952.1109,5783311.5953],[32563922.1206,5783158.6567],[32563890.8812,5783037.2055],[32563861.6411,5782916.7538],[32563833.6504,5782795.3026],[32563810.4079,5782674.3511],[32563818.9034,5782599.3808],[32563859.3863,5782529.4081],[32563919.8614,5782471.93],[32563990.0829,5782434.4439],[32564080.2964,5782395.9579],[32564175.5082,5782369.9668],[32564272.7192,5782353.4719],[32564371.6798,5782346.973],[32564488.883,5782338.9744],[32564605.8364,5782333.9746],[32564724.0393,5782332.9732],[32564841.9925,5782337.4697],[32564922.21,5782303.482],[32564988.6827,5782239.5065],[32565039.1614,5782158.0381],[32565072.8967,5782072.0719],[32565052.4034,5781974.1112],[32564995.1749,5781885.6472],[32564916.705,5781807.6795],[32564832.9873,5781740.2076],[32564809.4957,5781674.2342],[32564790.0024,5781606.7614],[32564779.5056,5781539.7882],[32564783.753,5781472.8148],[32564823.2363,5781405.8408],[32564890.7087,5781357.3591],[32564970.9263,5781321.8721],[32565052.1436,5781296.381],[32565145.3562,5781278.3868],[32565241.3179,5781270.8883],[32565337.2798,5781274.8853],[32565433.2418,5781286.3793],[32565520.4567,5781259.8885],[32565605.6723,5781226.9004],[32565687.1393,5781184.4161],[32565764.3578,5781135.9342],[32565810.8382,5781058.9641],[32565822.5821,5780964.0018],[32565813.3343,5780863.0421],[32565791.8415,5780767.5805],[32565760.6023,5780657.6247],[32565720.3667,5780550.1681],[32565672.1344,5780445.7104],[32565616.655,5780347.2504],[32565600.4099,5780235.795],[32565595.1603,5780123.8397],[32565602.1559,5780011.8842],[32565619.8972,5779901.9277],[32565667.6265,5779781.9747],[32565740.3459,5779672.5172],[32565830.0588,5779574.0551],[32565926.769,5779485.0891],[32565980.2464,5779397.1233],[32566032.9742,5779309.6574],[32566084.4524,5779220.692],[32566132.1821,5779130.2273],[32566160.6698,5779065.2528],[32566187.1583,5778999.2787],[32566208.6487,5778931.8052],[32566223.142,5778863.8321],[32566232.6368,5778768.8697],[32566232.3855,5778672.4082],[32566223.8875,5778576.4465],[32566212.6406,5778482.4841],[32566187.1496,5778408.0141],[32566146.6647,5778339.542],[32566094.9344,5778278.567],[32566036.457,5778227.0884],[32566146.4131,5778222.5886],[32566257.3689,5778219.5881],[32566368.5747,5778217.0875],[32566480.5301,5778217.0858],[32566626.472,5778216.084],[32566772.6639,5778216.5817],[32566918.6058,5778218.5787],[32567065.5474,5778220.5758],[32567204.742,5778222.5729],[32567344.6864,5778226.5692],[32567484.6308,5778230.5656],[32567624.5752,5778236.5611],[32567793.7575,5778215.0672],[32567959.1909,5778158.0874],[32568118.8762,5778081.1157],[32568274.563,5777999.146],[32568416.7557,5777948.6641],[32568560.1979,5777898.682],[32568702.6404,5777848.6999],[32568846.8323,5777799.7174],[32568970.2824,5777751.2349],[32569091.7333,5777699.2539],[32569212.1845,5777644.2741],[32569331.6361,5777586.7954],[32568996.2806,5778335.002],[32568931.0573,5778386.4824],[32568866.5838,5778439.962],[32568803.1098,5778494.4412],[32568740.8854,5778549.4202],[32568666.4157,5778591.9043],[32568600.1929,5778648.3828],[32568543.7163,5778714.8571],[32568497.9856,5778788.8283],[32568450.2562,5778894.2869],[32568411.5232,5779005.2433],[32568382.7863,5779117.6989],[32568368.0439,5779233.1531],[32568366.2962,5779344.1089],[32568373.5449,5779456.0642],[32568386.7913,5779567.5196],[32568404.036,5779678.4752],[32568460.2652,5779780.9336],[32568502.4999,5779891.389],[32568532.7396,5780006.8426],[32568553.9828,5780123.7957],[32568527.9955,5780278.7343],[32568510.7546,5780436.6717],[32568510.7569,5780594.1089],[32568536.7488,5780747.0477],[32568580.7335,5780899.4863],[32568624.7182,5781051.925],[32568667.7033,5781204.3636],[32568711.6881,5781357.8019],[32568736.68,5781487.25],[32568767.9194,5781615.6983],[32568804.9066,5781741.6476],[32568848.1412,5781867.0971],[32568880.3799,5781972.5546],[32568922.6146,5782077.0124],[32568981.0926,5782168.4751],[32569061.5616,5782236.9467],[32569152.2761,5782283.9267],[32569243.9903,5782328.4076],[32569336.704,5782373.3884],[32569429.4177,5782417.8694],[32569533.3767,5782443.8575],[32569635.0867,5782479.3419],[32569731.7989,5782526.3218],[32569822.5136,5782584.7972],[32569874.7441,5782676.2601],[32569934.2217,5782764.724],[32570003.6952,5782843.6915],[32570087.4128,5782905.1658],[32570155.1362,5782932.6539],[32570229.1069,5782947.1471],[32570304.0771,5782950.6446],[32570379.0472,5782944.1461],[32570457.5151,5782889.1669],[32570541.9808,5782841.6846],[32570630.1951,5782805.1979],[32570723.4077,5782781.7059],[32570817.3701,5782769.7093],[32570914.5812,5782763.2105],[32571005.5452,5782776.7039],[32571079.2665,5782822.6845],[32571107.756,5782881.6606],[32571142.493,5782940.1368],[32571178.9793,5782995.6141],[32571217.7147,5783051.5913],[32571270.195,5783133.0581],[32571327.6733,5783213.5252],[32571393.1483,5783285.9954],[32571469.6187,5783345.9704],[32571521.5983,5783369.9601],[32571578.326,5783387.4523],[32571635.3033,5783389.9505],[32571685.5331,5783372.4567],[32571726.0162,5783321.4765],[32571771.2475,5783273.9947],[32571817.4784,5783227.5126],[32571864.9588,5783182.5298],[32571903.1928,5783128.051],[32571955.6712,5783077.0705],[32572013.8976,5783048.581],[32572068.8758,5783057.0769],[32572138.5987,5783103.5573],[32572208.0717,5783152.037],[32572277.7947,5783200.5167],[32572347.5176,5783249.4962],[32572411.2432,5783313.9696],[32572480.7164,5783374.4445],[32572556.437,5783426.9225],[32572638.155,5783467.4052],[32572700.1305,5783481.8985],[32572766.1043,5783485.3962],[32572828.0795,5783474.8994],[32572879.3086,5783443.4113],[32572912.7943,5783376.4375],[32572933.2851,5783302.4666],[32572938.7818,5783225.4972],[32572932.2833,5783151.5268],[32572901.0443,5783055.0657],[32572857.5603,5782963.103],[32572803.3306,5782876.6382],[32572743.8531,5782794.6717],[32572636.1452,5782738.1958],[32572535.6842,5782669.2247],[32572442.97,5782590.7573],[32572364.7498,5782499.7947],[32572305.2721,5782403.334],[32572259.039,5782298.8763],[32572231.7983,5782189.9201],[32572227.5484,5782079.4641],[32572251.2872,5781963.51],[32572283.0229,5781848.0556],[32572331.752,5781742.0971],[32572407.4706,5781660.6285],[32572473.6938,5781633.1385],[32572544.6654,5781618.6432],[32572617.6363,5781620.1416],[32572687.6087,5781637.6336],[32572746.0864,5781708.1047],[32572817.8087,5781767.58],[32572897.5278,5781819.5581],[32572978.2463,5781868.0376],[32573129.9365,5781911.0183],[32573277.6285,5781968.4933],[32573422.072,5782036.4641],[32573561.5176,5782113.4314],[32573719.9559,5782212.8895],[32573872.1469,5782324.8427],[32574016.3413,5782446.2922],[32574155.5377,5782574.2392],[32574311.7277,5782727.6758],[32574459.4213,5782891.6083],[32574594.37,5783066.0369],[32574711.0762,5783251.9611],[32574820.5359,5783475.8703],[32574932.9944,5783699.7794],[32575046.7023,5783922.689],[32575163.1591,5784144.5989],[32575246.8782,5784312.5308],[32575333.8461,5784480.4627],[32575429.8102,5784642.3968],[32575539.7686,5784794.8345],[32575609.2421,5784873.802],[32575681.7143,5784950.2705],[32575756.1858,5785026.739],[32575830.6572,5785102.2078],[32575921.3718,5785148.1882],[32576007.0884,5785204.6645],[32576081.5598,5785274.6355],[32576134.0401,5785358.1015],[32576141.5385,5785454.0632],[32576158.783,5785550.0247],[32576182.0252,5785645.4864],[32576208.516,5785739.4486],[32576275.7406,5785836.409],[32576328.2213,5785944.865],[32576369.4565,5786058.3192],[32576408.4427,5786173.2729],[32576473.1697,5786368.1943],[32576523.9024,5786567.6142],[32576557.6419,5786770.0331],[32576569.1403,5786975.4511],[32576556.8979,5787158.3784],[32576527.6622,5787340.3064],[32576487.4308,5787520.7351],[32576437.2034,5787698.665],[32576368.7336,5787897.087],[32576285.5195,5788091.011],[32576185.0623,5788275.439],[32576064.8626,5788446.3727],[32575956.1576,5788560.8287],[32575830.4591,5788658.7915],[32575690.7658,5788732.7641],[32575541.5758,5788773.75],[32575390.6359,5788771.753],[32575240.6951,5788732.2709],[32575099.2504,5788664.3],[32574970.8003,5788579.3357],[32574879.3354,5788482.8755],[32574786.1211,5788387.9146],[32574690.6578,5788295.9527],[32574592.1957,5788208.4889],[32574507.7284,5788139.5176],[32574422.0115,5788072.0457],[32574335.545,5788005.0737],[32574250.0781,5787939.601],[32574164.3612,5787866.1315],[32574074.8958,5787798.1598],[32573981.1822,5787736.6857],[32573883.7203,5787682.7086],[32573799.0034,5787642.2259],[32573711.038,5787610.24],[32573619.0744,5787591.7487],[32573528.1106,5787591.75],[32573445.8936,5787612.243],[32573367.6753,5787643.7316],[32573292.4558,5787683.217],[32573222.2344,5787729.6995],[32573154.7621,5787781.18],[32573099.2852,5787849.1537],[32573060.8016,5787925.6238],[32573043.3098,5788008.591],[32573049.3091,5788123.5452],[32573067.5535,5788239.9986],[32573103.7906,5788348.4548],[32573167.2667,5788440.9171],[32573250.7346,5788521.3839],[32573336.2018,5788602.3504],[32573421.6689,5788681.8175],[32573508.1356,5788761.7844],[32573636.5857,5788849.7475],[32573758.0388,5788947.7067],[32573872.2448,5789054.6625],[32573976.455,5789171.1146],[32574066.6709,5789292.0651],[32574152.8884,5789418.0137],[32574221.8628,5789551.4596],[32574264.8478,5789693.9022],[32574275.3451,5789794.8619],[32574283.5933,5789900.3197],[32574271.8494,5789997.2813],[32574224.3695,5790074.7512],[32574179.1377,5790092.2448],[32574130.1574,5790104.2408],[32574081.177,5790106.7405],[32574034.1956,5790099.2442],[32573997.4596,5790058.261],[32573953.7265,5790023.7754],[32573905.7452,5789994.2878],[32573857.0143,5789970.7979],[32573789.041,5789945.309],[32573719.3185,5789929.8162],[32573647.3471,5789924.3195],[32573577.1252,5789930.8179],[32573521.8979,5789979.2994],[32573459.4234,5790021.2836],[32573392.2006,5790051.7724],[32573322.2287,5790069.2665],[32573233.0143,5790074.2658],[32573144.0498,5790075.7665],[32573055.0852,5790073.2688],[32572967.1201,5790067.2725],[32572858.1634,5790057.7778],[32572750.2061,5790040.7862],[32572642.2489,5790021.7953],[32572535.5411,5790001.305],[32572340.6181,5789960.8239],[32572146.9447,5789918.3437],[32571954.2707,5789873.8642],[32571761.347,5789830.3843],[32571544.6827,5789790.9032],[32571331.017,5789736.9277],[32571120.35,5789675.4553],[32570910.6826,5789608.9848],[32570628.2937,5789517.5253],[32570346.9044,5789419.5683],[32570075.5108,5789303.6184],[32569820.6102,5789157.1804],[32569617.4391,5789018.7384],[32569415.2676,5788881.2961],[32569213.346,5788743.3539],[32569011.1745,5788605.9115],[32568827.9954,5788465.4701],[32568641.8176,5788330.0267],[32568450.6419,5788204.5793],[32568251.4696,5788092.127],[32568118.7716,5788031.1532],[32567984.0744,5787977.6766],[32567845.379,5787933.6962],[32567705.684,5787898.7123],[32567594.7278,5787870.7251],[32567478.7738,5787860.231],[32567365.8189,5787871.2284],[32567261.361,5787908.7151],[32567135.912,5787978.6891],[32567011.4626,5788050.6624],[32566888.0128,5788123.6352],[32566764.3131,5788197.1078],[32566684.8459,5788277.577],[32566596.3821,5788350.0495],[32566498.9217,5788406.0287],[32566393.714,5788436.5182],[32566289.5055,5788437.5193],[32566185.5468,5788433.0227],[32566083.5872,5788417.0306],[32565987.8748,5788383.5454],[32565911.1547,5788340.5637],[32565837.4333,5788293.0837],[32565766.7107,5788241.6053],[32565696.2381,5788191.1265],[32565604.773,5788092.1672],[32565506.3109,5788000.7051],[32565401.8512,5787917.7398],[32565291.3941,5787844.7705],[32565200.6796,5787799.29],[32565104.9671,5787762.3061],[32565007.0058,5787744.8146],[32564911.0442,5787753.8125],[32564837.574,5787795.2971],[32564771.3512,5787849.7764],[32564719.8726,5787916.7505],[32564693.1344,5787993.2205],[32564693.6356,5788088.6825],[32564712.8793,5788184.644],[32564747.367,5788277.1066],[32564792.8501,5788363.5715],[32564874.8193,5788484.0223],[32564963.0359,5788601.974],[32565057.4999,5788715.4274],[32565158.7112,5788822.3833],[32565279.9146,5788936.3361],[32565402.1176,5789048.2897],[32565526.5697,5789159.2437],[32565651.7715,5789271.1972],[32565768.9766,5789391.1476],[32565893.1789,5789504.6006],[32566026.6272,5789606.558],[32566170.0714,5789693.5212],[32566301.52,5789757.4937],[32566436.2173,5789819.467],[32566573.9132,5789863.4474],[32566715.8568,5789874.9406],[32566775.0831,5789859.9457],[32566834.0593,5789838.4534],[32566884.2888,5789806.9651],[32566919.774,5789761.9825],[32566932.0184,5789709.0034],[32566936.5158,5789655.0248],[32566934.7657,5789600.0467],[32566933.2655,5789546.0682],[32566889.5319,5789478.5958],[32566861.0422,5789402.6264],[32566846.7966,5789321.1591],[32566846.2957,5789240.1913],[32566867.0358,5789127.236],[32566901.7703,5789016.7794],[32566946.501,5788909.8213],[32567001.2277,5788809.3605],[32567054.955,5788718.3959],[32567135.4219,5788641.9251],[32567230.8831,5788589.9443],[32567333.8418,5788569.4509],[32567502.0251,5788582.943],[32567669.7087,5788607.9305],[32567831.395,5788653.4099],[32567981.0865,5788726.3786],[32568132.5276,5788822.338],[32568283.7188,5788918.7974],[32568436.1595,5789014.757],[32568588.6002,5789111.2164],[32568782.7746,5789230.6661],[32568975.9494,5789351.1154],[32569168.1247,5789474.5634],[32569360.3,5789599.0111],[32569516.7393,5789710.4645],[32569674.9279,5789819.9186],[32569833.3663,5789926.8738],[32569993.5541,5790035.3283],[32570165.7373,5790159.7763],[32570342.9185,5790277.2269],[32570525.3474,5790386.6807],[32570714.7734,5790485.1388],[32570866.2141,5790555.1087],[32571023.9022,5790616.0822],[32571184.5889,5790664.5605],[32571349.5236,5790693.0468],[32571523.4545,5790705.0395],[32571698.3849,5790713.5336],[32571873.3153,5790719.5287],[32572048.4956,5790722.0251],[32572251.4146,5790712.526],[32572454.5836,5790705.026],[32572657.7526,5790701.5244],[32572861.6714,5790702.0213],[32573083.8329,5790705.5166],[32573305.7446,5790711.511],[32573527.9062,5790716.006],[32573750.8175,5790720.5009],[32573931.7454,5790721.9977],[32574112.9233,5790723.4945],[32574293.8513,5790724.9912],[32574475.0291,5790724.9886],[32574534.7555,5790740.4815],[32574594.732,5790763.9713],[32574647.4614,5790796.4576],[32574690.1951,5790840.9393],[32574708.9383,5790888.9199],[32574718.4353,5790940.899],[32574716.1869,5790993.878],[32574701.9433,5791043.8583],[32574665.4588,5791103.8349],[32574621.9769,5791158.3139],[32574572.7472,5791210.2939],[32574522.2681,5791258.7753],[32574429.0559,5791308.257],[32574339.5924,5791364.7358],[32574256.1265,5791426.7124],[32574178.6584,5791498.185],[32574103.9393,5791577.1547],[32574033.4686,5791661.6221],[32573968.7457,5791748.0886],[32573909.2707,5791839.5531],[32573854.5438,5791928.5184],[32573805.0648,5792018.9831],[32573758.3348,5792111.9468],[32573716.6028,5792207.4094],[32573492.4425,5792238.9001],[32573265.2832,5792250.8987],[32573038.1236,5792243.405],[32572814.4623,5792214.9196],[32572490.5904,5792154.4484],[32572166.9684,5792094.9768],[32571843.3465,5792035.5052],[32571519.7245,5791977.0331],[32571266.0746,5791912.0627],[32571009.426,5791858.0879],[32570750.5286,5791818.1076],[32570490.6317,5791793.1213],[32570251.7268,5791783.1287],[32570012.5721,5791788.63],[32569774.4172,5791806.6263],[32569538.2617,5791838.1172],[32569290.8609,5791878.1048],[32569046.459,5791932.5867],[32568807.8051,5792006.5607],[32568583.1462,5792111.0223],[32568388.9755,5792245.9714],[32568192.0558,5792375.4227],[32567992.1372,5792501.8754],[32567792.2186,5792627.8283],[32567607.2942,5792763.2772],[32567412.3736,5792888.7303],[32567206.7069,5792986.6944],[32566989.2943,5793041.6759],[32566782.1268,5793047.1768],[32566575.2093,5793056.6762],[32566369.0416,5793070.174],[32566162.8739,5793087.6702],[32566011.6843,5793103.6661],[32565861.4944,5793124.66],[32565712.3042,5793151.6516],[32565564.8633,5793185.1405],[32565426.6689,5793223.1275],[32565291.2235,5793270.6106],[32565159.0269,5793324.5912],[32565029.5793,5793385.5689],[32564992.841,5793182.1504],[32564949.1054,5792980.7312],[32564899.6222,5792781.3114],[32564843.8915,5792583.391],[32564781.1636,5792386.9701],[32564710.4389,5792194.5478],[32564630.7179,5792004.6246],[32564543.9997,5791818.6999],[32564443.287,5791632.7755],[32564330.5793,5791453.8484],[32564207.6257,5791281.9187],[32564077.675,5791116.9863],[32564003.4532,5791024.5243],[32563926.9823,5790933.5616],[32563843.5143,5790851.0957],[32563749.0509,5790784.1238],[32563674.3299,5790730.6462],[32563596.6101,5790681.1671],[32563516.8912,5790638.1854],[32563433.174,5790604.7],[32563371.9485,5790611.1984],[32563316.721,5790649.6839],[32563271.24,5790706.6619],[32563241.0029,5790768.6377],[32563168.5325,5790822.1175],[32563089.3148,5790868.6002],[32563006.0983,5790895.5907],[32562922.8814,5790893.093],[32562847.161,5790861.6066],[32562773.4398,5790824.1227],[32562704.7165,5790779.6414],[32562643.9899,5790727.1632],[32562589.5107,5790665.6885],[32562538.78,5790602.2145],[32562489.2987,5790536.7413],[32562441.8166,5790471.2681],[32562403.3307,5790385.8027],[32562359.8468,5790303.3362],[32562310.3654,5790224.3684],[32562253.8868,5790151.8981],[32562198.1581,5790096.421],[32562140.6803,5790044.9424],[32562078.9541,5789998.4618],[32562013.2297,5789959.9781],[32561977.2439,5789945.4844],[32561937.2598,5789945.9848],[32561899.0252,5789958.9802],[32561873.0359,5789984.9703],[32561841.2996,5790059.4411],[32561821.8085,5790138.41],[32561807.3155,5790219.378],[32561794.8217,5790301.3455],[32561771.8327,5790429.2949],[32561764.0877,5790560.2429],[32561768.088,5790691.1908],[32561779.0856,5790822.6383],[32561801.0794,5790998.0681],[32561835.8181,5791170.9988],[32561882.552,5791342.9296],[32561940.5314,5791510.3621],[32562037.9958,5791731.2727],[32562133.4611,5791954.1825],[32562225.9275,5792176.5926],[32562316.6447,5792402.5013],[32562394.1169,5792607.4186],[32562470.8394,5792813.8353],[32562544.3132,5793021.7514],[32562616.0377,5793230.6671],[32562684.5135,5793439.0832],[32562750.9901,5793648.4988],[32562815.7174,5793859.4139],[32562878.1957,5794070.8288],[32562795.2288,5794078.327],[32562712.0121,5794086.8249],[32562629.0452,5794096.3224],[32562546.8281,5794107.3193],[32562475.8565,5794114.8173],[32562405.6346,5794127.3134],[32562336.6623,5794141.8087],[32562267.44,5794156.304],[32562149.2377,5794198.7889],[32562029.036,5794231.7776],[32561906.8351,5794258.7687],[32561783.6344,5794279.7622],[32561625.4476,5794298.757],[32561466.2612,5794310.7546],[32561307.0746,5794315.2552],[32561148.1378,5794314.258],[32560966.2101,5794304.7646],[32560784.2823,5794287.2743],[32560603.3539,5794263.2865],[32560424.4247,5794233.801]]],"crs":{"type":"EPSG","properties":{"code":4647}}},"properties":{"fl_nr":2157,"NRKART":50,"NRKARTTXT":"50","KLARTEXT":"Pseudogley-Schwarzerden aus Loessen ueber Tonsteinen; im Bereich flacher Erhebungen Schwarzerde-Parabraunerden aus Loesslehmen ueber glazifluviatilen Sanden; in Hangverebnungen und Unterhanglagen Kolluvien aus Schwemmloessen","BULAND":null}}]}