{"type": "FeatureCollection","features":[{"type":"Feature","geometry":{"type":"Polygon","coordinates":[[[32565597.5859,5795509.9304],[32565582.6378,5795432.2438],[32565561.3954,5795346.2787],[32565546.9006,5795302.2958],[32565527.6579,5795258.312],[32565505.1664,5795217.3261],[32565481.6754,5795183.8367],[32565459.4341,5795160.8426],[32565415.4511,5795125.3498],[32565407.2043,5795115.8525],[32565401.2067,5795105.8558],[32565397.9578,5795093.8606],[32565396.4583,5795079.8668],[32565395.7076,5794988.409],[32565361.7536,5794972.0281],[32565339.3311,5794961.2105],[32565323.9555,5794953.7927],[32565289.9991,5794937.4107],[32565240.5186,5794911.9124],[32565189.5385,5794879.417],[32565143.5564,5794844.4238],[32565124.5637,5794826.9281],[32565109.3197,5794809.9329],[32565059.8386,5794739.4558],[32564996.3628,5794638.9901],[32564950.6301,5794563.0167],[32564931.1375,5794527.0299],[32564918.1424,5794496.5417],[32564910.3952,5794470.0527],[32564906.6465,5794447.5627],[32564905.5571,5794416.1987],[32564904.1468,5794375.5964],[32564894.1502,5794322.6198],[32564875.6566,5794243.1542],[32564816.223,5794015.356],[32564674.9786,5793473.9923],[32564665.238,5793485.5461],[32564586.5148,5793578.9231],[32564537.2849,5793642.8818],[32564518.5426,5793670.3646],[32564458.3176,5793773.3019],[32564386.3475,5793903.7235],[32564314.6238,5793690.8154],[32564300.379,5793643.8362],[32564335.8648,5793639.3452],[32564384.0955,5793627.8601],[32564410.0852,5793618.8695],[32564434.8252,5793606.3805],[32564456.8163,5793590.8924],[32564476.3084,5793572.4054],[32564513.0433,5793528.9341],[32564530.0364,5793504.9494],[32564561.0235,5793454.4806],[32564586.7629,5793403.5111],[32564630.4944,5793298.0725],[32564681.7227,5793161.1514],[32564591.2556,5792876.7809],[32564558.0189,5792878.774],[32564532.2791,5792875.7709],[32564478.0504,5792859.2698],[32564452.3105,5792848.2709],[32564427.3202,5792833.2742],[32564401.3303,5792812.7803],[32564320.1118,5792737.8051],[32564267.382,5792673.8295],[32564205.6557,5792592.3618],[32564115.2127,5792498.9188],[32564024.7254,5792405.4301],[32563881.0318,5792346.4366],[32563800.3134,5792310.4419],[32563769.0756,5792294.9449],[32563742.586,5792278.9488],[32563716.0963,5792260.4543],[32563667.865,5792220.4677],[32563619.3836,5792173.9847],[32563619.1342,5792207.9659],[32563621.6337,5792256.9394],[32563629.881,5792312.4104],[32563636.8784,5792338.8971],[32563646.375,5792365.3843],[32563670.8659,5792419.859],[32563700.1049,5792474.3346],[32563744.8379,5792546.3037],[32563817.81,5792647.2628],[32563923.5196,5792788.7066],[32563854.2966,5792756.2113],[32563786.8231,5792731.2123],[32563738.8421,5792719.7098],[32563628.1357,5792698.2012],[32563627.2614,5792689.0859],[32563624.6367,5792661.72],[32563616.3894,5792613.2446],[32563606.6431,5792584.7581],[32563597.1466,5792568.2654],[32563585.1512,5792550.7726],[32563555.9124,5792514.7867],[32563525.4241,5792483.2983],[32563496.4353,5792458.3067],[32563459.6996,5792422.8194],[32563417.7157,5792378.8358],[32563356.989,5792310.3623],[32563339.2459,5792286.3723],[32563322.7521,5792259.884],[32563307.7577,5792231.3969],[32563284.0165,5792179.4214],[32563271.5769,5792147.6121],[32563268.7722,5792140.4403],[32563252.2792,5792185.9121],[32563231.538,5792235.3811],[32563202.8,5792297.3418],[32563184.0577,5792329.8206],[32563162.5666,5792360.7998],[32563139.3261,5792389.2802],[32563096.0937,5792436.2469],[32563063.8568,5792466.7247],[32563051.3616,5792455.2287],[32563035.6177,5792444.2319],[32562966.3282,5792406.6996],[32562918.4136,5792380.7455],[32562858.187,5792341.756],[32562793.712,5792293.7708],[32562759.4597,5792263.6488],[32562729.4868,5792237.2903],[32562708.7449,5792223.794],[32562691.5017,5792217.7942],[32562680.7559,5792221.7901],[32562672.0095,5792229.7842],[32562665.0124,5792240.2773],[32562660.0145,5792253.2692],[32562656.7659,5792269.26],[32562655.5167,5792286.2505],[32562658.266,5792325.7296],[32562663.5141,5792346.719],[32562672.011,5792368.7087],[32562682.5071,5792389.6992],[32562704.2489,5792426.1833],[32562722.2419,5792451.1729],[32562751.4805,5792457.1748],[32562772.8695,5792458.1779],[32562804.9593,5792459.6828],[32562847.9423,5792464.1878],[32562898.1726,5792473.1919],[32562945.6539,5792488.1921],[32562965.896,5792497.6905],[32562984.6387,5792508.688],[32563018.8754,5792534.68],[32563051.3628,5792566.1688],[32563086.0995,5792602.6553],[32563194.3079,5792723.6099],[32563236.5415,5792759.5982],[32563248.7868,5792768.5956],[32563282.0238,5792788.5909],[32563330.2568,5792988.494],[32563352.4991,5793092.4437],[32563375.74,5793101.943],[32563408.4772,5793118.94],[32563445.4629,5793146.932],[32563462.7062,5793165.4256],[32563496.4433,5793209.4088],[32563528.9309,5793258.3894],[32563556.4206,5793307.8689],[32563567.1665,5793330.8591],[32563575.1636,5793352.8493],[32563586.1593,5793368.3433],[32563595.4307,5793385.7264],[32563598.1548,5793390.834],[32563603.153,5793403.8282],[32563605.9021,5793417.3219],[32563606.1521,5793429.8156],[32563604.1081,5793451.845],[32563603.0935,5793462.7794],[32563601.6543,5793478.2901],[32563626.2458,5793486.662],[32563665.0547,5793499.8741],[32563685.3714,5793506.7907],[32563683.5878,5793626.93],[32563682.4842,5793701.2652],[32563680.1392,5793859.2161],[32563679.6216,5793894.0813],[32563679.5442,5793899.2924],[32563678.3563,5793979.3015],[32563677.361,5794046.3399],[32563676.6312,5794095.4964],[32563634.7414,5794094.9892],[32563606.8402,5794094.6513],[32563592.8571,5794094.482],[32563467.2142,5794092.9605],[32563507.2008,5794332.3519],[32563518.3937,5794392.8473],[32563534.9415,5794482.2851],[32563561.9327,5794661.7049],[32563565.683,5794831.1262],[32563565.6841,5794932.0795],[32563560.4367,5794992.5507],[32563540.1066,5795129.9373],[32563534.9487,5795158.9702],[32563517.9562,5795228.4359],[32563482.7215,5795349.3755],[32563432.7414,5795351.3665],[32563388.7589,5795355.8576],[32563348.275,5795364.8472],[32563330.2823,5795371.8412],[32563294.2968,5795392.3265],[32563245.6715,5795428.3192],[32563242.3179,5795430.8015],[32563244.4325,5795406.2919],[32563265.0569,5795167.2474],[32563273.552,5795107.9513],[32563288.795,5795025.4911],[32563259.0563,5794982.0064],[32563227.0685,5794930.5248],[32563215.3229,5794915.53],[32563202.0781,5794905.5325],[32563188.5834,5794900.0329],[32563163.5933,5794898.0299],[32563145.3506,5794902.0253],[32563141.6028,5794962.4971],[32563132.3573,5795035.4625],[32563125.1105,5795069.4459],[32563115.6146,5795095.9325],[32563103.6195,5795111.4237],[32563081.1081,5795122.5389],[32563065.7305,5795130.1317],[32563064.4049,5795130.7862],[32563041.8943,5795141.901],[32563038.0411,5795145.7262],[32563006.6587,5795176.8802],[32562969.174,5795221.3549],[32562968.3635,5795237.6192],[32562961.179,5795381.7826],[32562956.1813,5795411.2689],[32562948.6691,5795436.6769],[32562941.6876,5795454.2481],[32562927.1937,5795481.7341],[32562899.9549,5795517.2149],[32562879.2133,5795538.7028],[32562833.4819,5795580.6786],[32562768.5084,5795633.6474],[32562761.637,5795630.0861],[32562753.0851,5795625.6538],[32562720.3998,5795608.7135],[32562713.5299,5795605.1529],[32562519.6056,5795481.683],[32562505.3269,5795471.97],[32562502.6688,5795470.1618],[32562491.0476,5795462.2564],[32562485.7346,5795458.6422],[32562476.7691,5795452.5434],[32562470.7246,5795448.4317],[32562457.8797,5795439.694],[32562426.2888,5795471.1023],[32562413.6478,5795483.6702],[32562227.7201,5795345.2096],[32562198.4815,5795324.2156],[32562150.0003,5795292.724],[32562069.786,5795232.1456],[32562022.0501,5795193.7537],[32561991.8118,5795166.7624],[32561955.076,5795138.7708],[32561914.342,5795111.2788],[32561878.6059,5795090.7841],[32561864.8613,5795084.7855],[32561761.4019,5795044.7931],[32561767.7297,5795054.3606],[32561813.6321,5795123.7641],[32561856.116,5795192.7386],[32561878.6075,5795239.2208],[32561889.6035,5795265.7107],[32561922.3416,5795353.6764],[32561922.8617,5795362.9283],[32561929.5902,5795482.6229],[32561931.0907,5795580.5822],[32561940.837,5795598.0757],[32561959.5799,5795623.5667],[32561989.0685,5795653.5568],[32562008.311,5795668.5523],[32562058.2914,5795701.0432],[32562121.2668,5795735.5345],[32562189.74,5795770.0265],[32562257.2135,5795801.02],[32562325.9365,5795827.0158],[32562362.672,5795837.5151],[32562399.9073,5795845.5155],[32562437.6424,5795850.0175],[32562474.8776,5795851.021],[32562511.1131,5795847.5264],[32562546.099,5795838.534],[32562563.0922,5795835.5372],[32562595.8293,5795835.041],[32562609.8237,5795836.5419],[32562633.0381,5795841.8828],[32562675.5478,5795859.0399],[32562727.6991,5795885.522],[32562740.5224,5795892.0336],[32562756.0164,5795906.0296],[32562767.4782,5795924.5995],[32562773.7598,5795944.5154],[32562775.2593,5795955.5109],[32562775.0094,5795966.0065],[32562772.5105,5795976.0019],[32562767.7626,5795985.4974],[32562760.5156,5795993.9929],[32562750.7696,5796001.9885],[32562738.2746,5796008.4843],[32562704.788,5796019.4758],[32562660.3057,5796022.9693],[32562614.324,5796020.965],[32562563.5941,5796014.962],[32562561.8448,5796011.4632],[32562553.0982,5796004.4651],[32562544.3516,5795999.9662],[32562532.1064,5795996.4663],[32562493.1219,5795990.4647],[32562447.9073,5795989.9214],[32562404.1573,5795993.9542],[32562365.6726,5796000.9475],[32562329.937,5796010.4401],[32562313.1937,5796016.436],[32562290.3324,5796027.3084],[32562266.9624,5796038.4227],[32562251.7184,5796043.4192],[32562235.9747,5796045.9168],[32562219.7312,5796043.9161],[32562202.2381,5796036.9175],[32562182.2459,5796024.4208],[32562159.005,5796007.4257],[32562052.0465,5795921.4518],[32562026.0565,5795902.4573],[32562001.5661,5795886.9616],[32561939.8404,5795857.4688],[32561901.8553,5795841.9722],[32561772.4063,5795794.4817],[32561767.1464,5795798.2894],[32561717.1787,5795834.4616],[32561691.9389,5795850.4534],[32561664.4499,5795865.9453],[32561636.4612,5795879.4381],[32561609.2222,5795888.9326],[32561562.2411,5795901.9245],[32561524.7561,5795908.9194],[32561494.2683,5795908.4178],[32561480.7736,5795905.4182],[32561468.2785,5795899.9197],[32561456.7829,5795892.4221],[32561447.2866,5795883.4251],[32561433.7917,5795863.932],[32561424.0454,5795840.4408],[32561385.9653,5795815.1028],[32561298.5943,5795756.9671],[32561186.0366,5795693.7627],[32561168.0015,5795683.6354],[32560961.2263,5795567.525],[32560832.8544,5795498.5735],[32560738.8134,5795448.0619],[32560715.4954,5795437.4212],[32560555.8852,5795364.5867],[32560541.5607,5795359.0895],[32560512.8959,5795348.089],[32560498.5757,5795342.5934],[32560469.9189,5795331.5959],[32560360.2122,5795290.6072],[32560292.4889,5795267.6132],[32560053.3333,5795201.6287],[32559895.4568,5795175.2546],[32559889.9904,5795174.3414],[32559810.9293,5795161.1338],[32559623.5037,5795133.636],[32559572.5238,5795121.638],[32559500.8022,5795098.1431],[32559426.6568,5795070.9291],[32559391.8451,5795058.1519],[32559365.5074,5795047.6429],[32559139.5066,5794957.4659],[32559109.956,5794945.6749],[32559093.7125,5794940.1757],[32559073.7205,5794936.1758],[32559027.4888,5794930.1747],[32558980.0077,5794926.6726],[32558940.2736,5794925.67],[32558909.5359,5794927.1673],[32558882.7966,5794932.1636],[32558870.3017,5794937.1609],[32558847.5609,5794952.1542],[32558836.5655,5794963.1497],[32558758.2344,5794918.8927],[32558732.4885,5794904.4357],[32558574.4182,5794815.6752],[32558567.5043,5794843.2222],[32558561.2246,5794868.2424],[32558557.2492,5794884.0816],[32558552.3314,5794903.6752],[32558550.3409,5794911.606],[32558543.4322,5794939.1322],[32558483.2061,5794922.1317],[32558438.9735,5794904.1328],[32558299.2783,5794829.6404],[32558239.3017,5794793.6442],[32558219.3096,5794779.646],[32558080.6137,5794672.1598],[32558039.8804,5794702.1444],[32558008.893,5794720.1342],[32557974.6569,5794733.1248],[32557960.8519,5794735.8498],[32557932.4239,5794740.1158],[32557885.6925,5794742.6073],[32557789.4811,5794742.0907],[32557675.7766,5794734.0714],[32557635.0166,5794730.3002],[32557578.3154,5794725.0541],[32557576.0951,5794720.8241],[32557567.8193,5794705.0576],[32557554.0746,5794684.0607],[32557541.214,5794667.6915],[32557523.8362,5794645.5727],[32557515.5893,5794632.578],[32557509.8414,5794619.5833],[32557503.5936,5794595.0931],[32557503.5933,5794574.6011],[32557505.3425,5794566.6042],[32557509.3408,5794559.1072],[32557516.088,5794552.1098],[32557525.3341,5794546.1119],[32557536.3297,5794540.6139],[32557556.9478,5794534.928],[32557578.0629,5794532.6163],[32557593.5566,5794533.1158],[32557680.7719,5794549.1263],[32557792.9774,5794572.1415],[32557840.4584,5794579.6481],[32557854.2029,5794579.1506],[32557883.1913,5794570.6584],[32557896.6858,5794565.1625],[32557926.4236,5794548.6726],[32557770.2346,5794434.6781],[32557749.9924,5794420.6782],[32557729.5004,5794409.1775],[32557634.7877,5794366.6808],[32557432.6176,5794286.2165],[32557334.1565,5794242.2357],[32557305.9176,5794228.2418],[32557263.6842,5794204.2521],[32557229.6974,5794178.7629],[32557214.2035,5794165.2685],[32557171.22,5794118.7878],[32557143.4806,5794081.8029],[32557118.49,5794036.8212],[32557080.9625,5793954.089],[32557064.7598,5793918.369],[32557051.5147,5793893.879],[32557011.5299,5793827.9058],[32556945.774,5793726.1801],[32556926.4596,5793696.3003],[32556828.3492,5793544.5215],[32556785.3656,5793483.0466],[32556749.3793,5793438.0652],[32556697.6502,5793381.0888],[32556685.6558,5793369.5936],[32556660.1687,5793349.6021],[32556609.6971,5793322.114],[32556563.2255,5793300.6235],[32556510.259,5793280.1327],[32556482.2766,5793271.1368],[32556426.8098,5793257.6433],[32556376.3367,5793248.6479],[32556333.4253,5793243.8754],[32556299.4419,5793242.8785],[32556274.2043,5793246.8793],[32556260.9608,5793251.3788],[32556233.7243,5793265.3763],[32556209.7361,5793281.8726],[32556200.4908,5793290.8704],[32556191.0041,5793303.9056],[32556175.7534,5793324.8607],[32556118.2812,5793395.7516],[32556112.5351,5793402.8393],[32556092.6327,5793406.6207],[32556073.0535,5793410.3406],[32556055.2548,5793412.9838],[32555995.5889,5793421.8446],[32555966.3519,5793423.3472],[32555932.454,5793422.9804],[32555920.6221,5793422.8524],[32555901.6302,5793417.3565],[32555854.6499,5793396.3694],[32555779.3866,5793355.8676],[32555772.9335,5793352.395],[32555788.553,5793327.6074],[32555802.734,5793305.1026],[32555810.416,5793292.9116],[32555831.2413,5793297.1426],[32555912.7383,5793313.6998],[32555948.107,5793320.8855],[32556002.3332,5793330.3762],[32556022.3243,5793332.3734],[32556054.5596,5793329.8709],[32556076.0496,5793323.371],[32556088.2938,5793316.872],[32556112.8167,5793288.6143],[32556139.0001,5793258.4432],[32556166.0948,5793227.222],[32556181.647,5793209.3012],[32556204.9857,5793182.4081],[32556225.5887,5793165.8365],[32556229.2236,5793162.9128],[32556238.078,5793164.5635],[32556306.9365,5793177.4009],[32556367.4419,5793177.2735],[32556414.0653,5793177.1753],[32556463.7864,5793179.1734],[32556488.0214,5793181.672],[32556533.7424,5793189.6679],[32556576.7154,5793202.162],[32556617.1908,5793219.6543],[32556655.1696,5793240.1453],[32556689.9022,5793262.1359],[32556706.6445,5793274.6306],[32556739.6313,5793304.1183],[32556756.1249,5793321.1112],[32556796.1096,5793369.5912],[32556892.8227,5793499.5379],[32556975.2911,5793601.496],[32557081.2504,5793725.4449],[32557307.1633,5793957.8486],[32557384.1324,5793953.8487],[32557560.8116,5793949.8468],[32557633.2826,5793951.3448],[32557723.2467,5793960.3396],[32557792.4074,5793971.0099],[32557807.4632,5793973.3328],[32557802.5836,5793998.3622],[32557797.7789,5794023.0078],[32557794.4106,5794040.2856],[32557791.9705,5794052.8018],[32557977.2756,5794049.8311],[32558068.7964,5794048.3639],[32558347.2486,5794043.9],[32558418.9699,5794038.4122],[32558490.6911,5794032.9244],[32558465.1607,5793926.5434],[32558460.7014,5793907.9624],[32558442.2073,5793794.998],[32558364.8905,5793772.6515],[32558305.5113,5793755.4895],[32558281.7703,5793721.4969],[32558260.7783,5793697.5012],[32558235.2883,5793673.5049],[32558210.5479,5793656.0063],[32558184.808,5793642.0062],[32558138.0762,5793621.0045],[32558059.0021,5793591.5559],[32558026.6202,5793579.4963],[32557972.6415,5793554.9948],[32557914.914,5793521.509],[32557834.6953,5793467.0321],[32557813.5407,5793451.4233],[32557783.2154,5793429.048],[32557758.0123,5793403.917],[32557694.9995,5793341.0843],[32557674.2574,5793316.5944],[32557645.0185,5793278.1101],[32557626.2756,5793247.6226],[32557608.0324,5793209.1381],[32557582.5417,5793142.6648],[32557578.293,5793118.1746],[32557570.0452,5793042.2046],[32557558.2978,5792889.2652],[32557548.301,5792832.2878],[32557539.3036,5792767.3136],[32557538.5537,5792739.8245],[32557540.8018,5792666.3534],[32557521.6934,5792648.7654],[32557452.8358,5792585.3869],[32557381.6134,5792524.4125],[32557350.6254,5792500.4225],[32557326.8846,5792485.9287],[32557306.6426,5792477.4325],[32557258.9115,5792461.9396],[32557200.1848,5792448.446],[32557088.9789,5792426.457],[32557005.0123,5792412.4642],[32556968.204,5792407.8057],[32556965.528,5792407.467],[32556861.479,5792398.0315],[32556855.322,5792397.4732],[32556880.3113,5792358.488],[32556908.2997,5792325.0007],[32556925.0428,5792309.5064],[32556943.5352,5792296.5111],[32556965.5263,5792285.0152],[32557023.7526,5792263.5225],[32557118.1086,5792236.4784],[32557185.9372,5792217.0375],[32557256.6587,5792192.0459],[32557348.1216,5792156.5581],[32557436.5858,5792119.071],[32557498.8106,5792089.0816],[32557538.2945,5792066.0899],[32557555.7874,5792054.0942],[32557570.5313,5792040.5992],[32557581.7766,5792025.6049],[32557589.2734,5792008.6115],[32557592.022,5791988.6193],[32557589.2728,5791965.6283],[32557578.2764,5791913.1493],[32557550.5353,5791755.212],[32557536.2896,5791650.2536],[32557476.0629,5791593.2772],[32557429.3309,5791546.2966],[32557397.3431,5791509.3118],[32557388.8462,5791494.8177],[32557376.1008,5791460.3316],[32557369.603,5791420.8473],[32557368.853,5791401.355],[32557373.1008,5791363.8696],[32557387.0947,5791326.8839],[32557410.3349,5791288.3986],[32557439.8226,5791252.4121],[32557455.816,5791236.4181],[32557472.3093,5791222.9231],[32557516.7912,5791193.4338],[32557605.2553,5791142.4521],[32557679.4752,5791103.9657],[32557698.2177,5791095.9684],[32557738.9513,5791083.9724],[32557802.9256,5791070.9762],[32557808.0226,5791072.4943],[32557838.1618,5791081.4713],[32557869.8993,5791093.9657],[32557885.6432,5791101.9623],[32557913.3824,5791119.9547],[32557939.8721,5791140.4461],[32557977.1078,5791172.4327],[32557983.9426,5791173.7554],[32558015.8425,5791179.9289],[32558056.3264,5791183.4268],[32558287.8244,5791169.1775],[32558307.7263,5791167.9525],[32558671.5101,5791296.9293],[32558730.3103,5791316.5038],[32558762.7975,5791324.5086],[32558798.5334,5791325.517],[32558860.7586,5791320.0346],[32558886.4982,5791309.5454],[32558902.4918,5791301.053],[32558919.485,5791289.5621],[32558936.2282,5791274.5728],[32558950.972,5791256.0845],[32558962.2173,5791234.0969],[32558975.4615,5791191.1194],[32558981.2089,5791159.6349],[32558982.2081,5791134.6464],[32558955.718,5791082.1635],[32558756.5449,5790922.1836],[32558680.0744,5790855.1925],[32558609.3516,5790781.7051],[32558526.1334,5790685.7234],[32558484.3992,5790634.7335],[32558409.6777,5790538.753],[32558355.6981,5790460.7703],[32558333.4564,5790424.7791],[32558295.7205,5790354.7977],[32558280.726,5790321.3076],[32558268.4804,5790288.8179],[32558258.9838,5790257.3286],[32558252.486,5790226.8401],[32558248.4872,5790197.3519],[32558246.2377,5790168.8639],[32558246.4872,5790142.3759],[32558249.4857,5790116.8885],[32558255.9829,5790094.4009],[32558266.4785,5790074.4136],[32558281.2224,5790057.4265],[32558300.9644,5790043.9395],[32558334.451,5790029.4578],[32558385.6803,5790011.4838],[32558513.8791,5789970.5466],[32558682.3117,5789920.6264],[32558702.3034,5789895.1453],[32558726.5433,5789856.1721],[32558738.0385,5789832.1877],[32558747.2844,5789806.7032],[32558752.782,5789779.7183],[32558754.531,5789753.2319],[32558753.0312,5789728.7435],[32558749.7822,5789707.2531],[32558740.0357,5789672.7669],[32558730.7891,5789651.7741],[32558710.2968,5789620.2828],[32558692.5536,5789601.7859],[32558682.3075,5789594.286],[32558637.0751,5789569.7824],[32558610.6104,5789556.826],[32558578.8478,5789541.2759],[32558540.1127,5789509.7776],[32558508.125,5789475.283],[32558499.878,5789461.2869],[32558483.8838,5789421.8004],[32558461.8917,5789349.8276],[32558440.6813,5789219.1475],[32558443.0196,5789215.8434],[32558442.5884,5789212.7445],[32558441.0345,5789208.9545],[32558438.0884,5789201.7691],[32558433.7184,5789192.6279],[32558426.3908,5789177.2998],[32558415.5365,5789171.7856],[32558412.6439,5789172.4449],[32558408.6477,5789176.7642],[32558396.8205,5789194.2877],[32558391.5947,5789204.9789],[32558385.5343,5789206.2557],[32558382.9962,5789204.9404],[32558379.9029,5789199.7135],[32558380.4523,5789190.6436],[32558385.6464,5789185.0179],[32558390.3989,5789179.8706],[32558394.2167,5789164.9337],[32558393.772,5789162.1309],[32558388.2824,5789160.8985],[32558385.4873,5789155.8257],[32558385.1083,5789146.7886],[32558387.4608,5789128.9845],[32558382.3346,5789112.9965],[32558380.1802,5789106.2774],[32558380.3013,5789097.1948],[32558383.2053,5789092.0282],[32558387.9668,5789088.3783],[32558399.0902,5789084.0311],[32558403.0116,5789082.4985],[32558406.5412,5789079.5002],[32558405.798,5789076.3297],[32558398.7091,5789073.3568],[32558374.922,5789029.4539],[32558263.7135,5788842.0031],[32558250.2185,5788816.5103],[32558242.4713,5788796.0173],[32558237.9729,5788776.0255],[32558236.4733,5788756.5349],[32558237.4726,5788737.0452],[32558252.4656,5788651.0952],[32558254.9643,5788626.609],[32558254.4641,5788602.6211],[32558247.9662,5788558.6409],[32558234.9707,5788514.1582],[32558231.4716,5788478.675],[32558231.2211,5788435.1975],[32558233.9696,5788408.2128],[32558239.2173,5788378.7304],[32558248.2133,5788346.7511],[32558310.9361,5788174.8701],[32558406.895,5787926.0483],[32558400.1792,5787904.4965],[32558380.1533,5787840.2308],[32558363.9102,5787788.1047],[32558334.1707,5787699.1401],[32558327.4232,5787684.1452],[32558308.9301,5787655.1526],[32558285.1892,5787630.1552],[32558271.4445,5787620.1541],[32558256.9502,5787612.1515],[32558225.3008,5787602.3156],[32558198.9728,5787594.1335],[32558186.4777,5787588.6305],[32558162.2371,5787573.1272],[32558137.9964,5787549.1285],[32558127.0005,5787534.6311],[32558119.2534,5787519.6355],[32558114.0053,5787505.1408],[32558111.0063,5787490.6474],[32558109.7565,5787475.1553],[32558111.5054,5787441.6747],[32558122.2503,5787375.217],[32558151.2371,5787251.8008],[32558161.4834,5787248.809],[32558173.6958,5787245.2432],[32558234.9537,5787227.357],[32558269.4697,5787228.6494],[32558298.0704,5787229.7203],[32558338.1228,5787231.22],[32558361.9217,5787232.1111],[32558406.7532,5787233.7898],[32558480.0829,5787203.2345],[32558569.8363,5787155.7161],[32558722.9447,5787023.7224],[32558749.3427,5787002.6034],[32558778.4188,5787008.418],[32558781.9847,5787004.7582],[32558803.726,5786994.7749],[32558833.964,5786984.7956],[32558942.9205,5786953.8673],[32558973.1585,5786943.3884],[32559221.5592,5786843.57],[32559223.5406,5786842.5805],[32559223.6919,5786839.8554],[32559229.1463,5786850.7638],[32559350.6275,5786858.1996],[32559427.4816,5786771.4262],[32559420.1617,5786742.1488],[32559439.9715,5786726.2494],[32559453.7159,5786711.7655],[32559466.2107,5786695.2823],[32559476.4564,5786677.299],[32559484.453,5786657.316],[32559487.4515,5786631.8343],[32559486.2017,5786606.3506],[32559480.7034,5786576.8676],[32559471.2067,5786540.3873],[32559464.459,5786518.8984],[32559423.224,5786420.9436],[32559402.4815,5786367.469],[32559381.9885,5786292.0093],[32559377.7399,5786271.0212],[32559373.9909,5786233.0448],[32559376.9892,5786193.0731],[32559380.9873,5786170.0905],[32559387.2345,5786146.6096],[32559396.2307,5786123.6296],[32559407.7258,5786100.1514],[32559436.4639,5786052.1402],[32559491.1909,5785969.2697],[32559511.1826,5785941.6011],[32559530.6745,5785918.9542],[32559549.1669,5785901.8374],[32559580.4041,5785879.6827],[32559601.3957,5785869.6068],[32559681.6471,5785800.3667],[32559711.6006,5785774.5232],[32559729.0935,5785770.5243],[32559753.8336,5785760.028],[32559767.3282,5785751.5309],[32559780.8227,5785740.0353],[32559793.0676,5785726.0669],[32559823.555,5785682.1591],[32559843.0467,5785645.2013],[32559848.2944,5785626.4525],[32559850.2912,5785481.7836],[32559869.7828,5785422.8074],[32559883.5269,5785391.3202],[32559900.0201,5785361.3314],[32559917.2631,5785335.8392],[32559933.3521,5785315.5115],[32559936.2553,5785311.8434],[32559960.4958,5785316.8441],[32559994.2326,5785326.358],[32560032.7176,5785341.8816],[32560079.3009,5785368.8388],[32560121.4248,5785393.2154],[32560143.4249,5785405.9466],[32560171.6981,5785421.1803],[32560189.907,5785430.9913],[32560209.6811,5785444.9646],[32560232.3906,5785461.0122],[32560244.8858,5785465.5346],[32560259.63,5785467.0773],[32560277.6228,5785465.1488],[32560300.1137,5785457.7679],[32560365.3376,5785430.6821],[32560409.8196,5785408.4929],[32560425.5632,5785397.1165],[32560454.5449,5785369.7404],[32560457.1671,5785367.2635],[32560461.0371,5785363.608],[32560467.5461,5785357.4597],[32560474.2575,5785348.2178],[32560564.7561,5785223.5958],[32560600.9915,5785182.1116],[32560627.7309,5785156.6212],[32560656.9693,5785135.1291],[32560672.2133,5785127.132],[32560687.9572,5785121.6338],[32560752.6819,5785108.5333],[32560805.1615,5785101.322],[32560853.3928,5785097.1219],[32560873.1351,5785097.0442],[32560891.378,5785099.4808],[32560911.1205,5785104.4205],[32560931.6126,5785111.8659],[32561009.6378,5785148.5921],[32561041.5707,5785163.6228],[32561084.5544,5785181.0286],[32561133.7856,5785198.4261],[32561180.0181,5785211.8413],[32561257.743,5785223.2322],[32561321.9701,5785226.1477],[32561342.7117,5785224.6834],[32561362.2011,5785221.1819],[32561381.6928,5785216.9165],[32561420.9253,5785204.4149],[32561476.9019,5785181.912],[32561525.8838,5785097.9227],[32561560.6205,5785047.9267],[32561578.3647,5785027.4285],[32561633.3482,5784973.9326],[32561687.0834,5784928.4343],[32561717.075,5784908.4335],[32561731.8207,5784901.9323],[32561748.9325,5784896.1618],[32561800.0501,5784878.9237],[32561815.0456,5784870.4219],[32561827.5421,5784858.9209],[32561836.2898,5784844.4212],[32561848.0377,5784801.4245],[32561857.0363,5784749.9296],[32561864.785,5784687.9366],[32561954.5791,5784607.5627],[32561990.4897,5784575.4195],[32562047.9678,5784502.4199],[32562077.7065,5784457.9251],[32562087.4529,5784438.929],[32562103.4472,5784398.9397],[32562135.9365,5784308.974],[32562151.1849,5784251.4938],[32562168.4343,5784202.9831],[32562179.1832,5784179.9746],[32562191.1809,5784160.9681],[32562205.4269,5784144.9641],[32562222.9209,5784128.9641],[32562263.9042,5784099.4817],[32562322.7283,5784063.3943],[32562359.1192,5784041.0692],[32562400.8505,5784017.6329],[32562426.0855,5784003.461],[32562483.2981,5783966.0977],[32562511.2822,5783943.3889],[32562526.0254,5783921.9618],[32562541.5216,5783886.964],[32562556.3389,5783838.1708],[32562560.8455,5783812.2853],[32562564.2298,5783775.0826],[32562563.1144,5783728.7339],[32562551.4204,5783602.0614],[32562544.6917,5783532.6672],[32562543.6996,5783526.0817],[32568262.4637,5783598.296],[32568109.1378,5794719.3819],[32568095.5367,5795704.5888],[32568095.4426,5795704.5808],[32568018.1869,5795697.545],[32567816.0351,5795670.5832],[32567699.6931,5795655.4316],[32567315.9714,5795607.1427],[32567131.9279,5795585.8074],[32567080.3186,5795580.4922],[32567064.1768,5795578.2393],[32566895.4962,5795554.704],[32566773.6196,5795540.8772],[32566705.4393,5795532.0674],[32566504.0197,5795507.8001],[32566216.1268,5795492.1609],[32566124.3945,5795489.1601],[32566050.9487,5795483.5572],[32566004.2,5795474.1984],[32565938.7521,5795467.9521],[32565819.5434,5795466.3692],[32565741.0286,5795470.2229],[32565702.6722,5795475.694],[32565657.6426,5795492.6608],[32565597.5859,5795509.9304]],[[32567374.9111,5794067.6522],[32567390.155,5794066.1542],[32567408.1479,5794068.1551],[32567427.3903,5794072.6553],[32567464.1257,5794084.6539],[32567491.6149,5794096.1519],[32567721.7747,5794250.6121],[32567763.5082,5794274.6062],[32567781.2513,5794282.1047],[32567796.7451,5794285.6044],[32567809.7399,5794284.6058],[32567819.9858,5794279.1086],[32567828.7322,5794270.1125],[32567835.9791,5794259.1172],[32567841.227,5794246.6222],[32567843.476,5794232.6276],[32567842.2262,5794217.633],[32567836.4785,5794201.6386],[32567825.7326,5794184.6442],[32567808.9891,5794166.6498],[32567748.7626,5794115.165],[32567617.8138,5794011.6946],[32567539.3445,5793952.2113],[32567442.1325,5793883.23],[32567374.9088,5793831.7444],[32567366.137,5793836.2563],[32567288.4437,5793876.2194],[32567255.9567,5793888.7113],[32567243.4617,5793890.7093],[32567231.2166,5793890.2083],[32567218.9715,5793887.2083],[32567207.2261,5793882.209],[32567184.235,5793865.2136],[32567163.2432,5793840.2214],[32567145.7498,5793808.2324],[32567127.5065,5793751.7533],[32567117.0102,5793699.2733],[32567114.0113,5793684.2791],[32567105.0145,5793654.2903],[32567092.2693,5793625.8005],[32567075.7757,5793598.8097],[32567055.5335,5793575.3173],[32567009.5591,5793534.2301],[32566961.57,5793491.3424],[32566921.8355,5793449.3557],[32566844.3654,5793356.8863],[32566764.4326,5793254.7237],[32566741.9049,5793225.9308],[32566728.66,5793212.4352],[32566715.6651,5793201.9383],[32566702.92,5793193.9405],[32566690.425,5793188.4416],[32566664.9351,5793182.4417],[32566638.9454,5793180.9397],[32566613.7055,5793184.9355],[32566600.9605,5793188.9325],[32566575.4708,5793201.4244],[32566534.7373,5793231.407],[32566510.2472,5793246.3978],[32566491.7547,5793254.892],[32566480.0094,5793258.3891],[32566468.9362,5793259.6964],[32566462.096,5793260.504],[32566447.1755,5793262.2655],[32566442.9448,5793262.765],[32566425.0312,5793264.8798],[32566350.061,5793260.8723],[32566325.3211,5793276.3623],[32566311.8265,5793282.3579],[32566296.0828,5793287.8534],[32566277.84,5793291.8492],[32566257.3482,5793293.8456],[32566235.357,5793293.3429],[32566188.6255,5793288.3388],[32566162.8639,5793283.3789],[32566135.7834,5793278.165],[32566089.9146,5793269.3337],[32565955.2179,5793256.3201],[32565792.5325,5793244.3011],[32565719.0617,5793244.2896],[32565696.0709,5793246.2851],[32565676.5786,5793250.28],[32565662.5842,5793256.2749],[32565655.837,5793264.7698],[32565654.8375,5793274.2651],[32565656.5869,5793282.7613],[32565661.0851,5793290.7583],[32565668.3323,5793297.7561],[32565691.0734,5793310.7536],[32565724.0605,5793322.2534],[32565755.0566,5793331.1014],[32565904.4893,5793373.7579],[32565988.4562,5793404.7565],[32566023.9423,5793421.2543],[32566131.1503,5793481.2431],[32566234.8597,5793544.23],[32566283.8405,5793578.222],[32566323.825,5793611.7128],[32566343.3173,5793623.7103],[32566354.0631,5793627.2104],[32566383.0516,5793626.7148],[32566428.0336,5793618.225],[32566458.0215,5793608.7333],[32566460.4988,5793608.6033],[32566477.014,5793607.7364],[32566496.2563,5793609.7381],[32566517.498,5793617.7375],[32566559.7315,5793651.2286],[32566584.4719,5793675.7213],[32566594.7179,5793688.2173],[32566676.1861,5793749.7017],[32566723.4178,5793790.1907],[32566742.7029,5793809.9973],[32566822.8037,5793892.2644],[32566899.5994,5793971.1371],[32567055.2891,5794149.0829],[32567054.4466,5794186.4926],[32567059.0387,5794247.5425],[32567063.7869,5794271.0334],[32567070.7844,5794292.0256],[32567089.7773,5794335.0102],[32567123.7643,5794401.487],[32567146.2557,5794438.9745],[32567166.498,5794464.9663],[32567185.9904,5794484.4608],[32567205.2329,5794497.9578],[32567225.4749,5794504.9576],[32567235.9707,5794505.9585],[32567245.9667,5794503.9607],[32567253.9635,5794498.464],[32567259.961,5794489.4685],[32567264.459,5794477.474],[32567266.958,5794463.4802],[32567267.6526,5794440.3763],[32567261.1755,5794389.0877],[32567246.964,5794276.5543],[32567254.9603,5794214.0806],[32567264.4561,5794174.098],[32567271.2032,5794155.6062],[32567279.9495,5794138.6139],[32567290.9451,5794123.6212],[32567303.44,5794109.6282],[32567317.4342,5794097.6344],[32567331.9284,5794087.1401],[32567361.1666,5794071.6492],[32567374.9111,5794067.6522]],[[32560385.948,5794967.7325],[32560452.42,5794840.2861],[32560479.6586,5794796.305],[32560500.7432,5794768.5417],[32560558.6261,5794703.8465],[32560597.3602,5794668.8631],[32560613.1039,5794656.869],[32560590.6127,5794649.3705],[32560541.382,5794628.376],[32560507.3953,5794608.3817],[32560384.9792,5794520.9094],[32560333.4264,5794484.0725],[32560210.8165,5794396.4618],[32560159.0308,5794359.4584],[32560074.5809,5794299.524],[32560063.7009,5794291.8024],[32559991.2948,5794240.2008],[32559957.8042,5794216.5528],[32559938.6165,5794203.0042],[32559891.473,5794183.1437],[32559895.6258,5794176.8503],[32559898.4486,5794164.9],[32559899.279,5794161.3846],[32559902.5155,5794147.6826],[32559900.678,5794127.2418],[32559897.4626,5794124.0261],[32559891.7208,5794122.418],[32559862.3231,5794121.497],[32559852.3603,5794117.9315],[32559837.2889,5794112.5378],[32559787.1472,5794102.0706],[32559723.3725,5794088.7575],[32559710.2814,5794091.8571],[32559704.999,5794096.6798],[32559692.674,5794121.204],[32559676.4698,5794117.0172],[32559662.9751,5794116.5163],[32559608.7467,5794116.5118],[32559546.2716,5794119.0057],[32559478.5487,5794127.4968],[32559448.3108,5794134.4916],[32559420.8219,5794145.4851],[32559405.828,5794154.9803],[32559371.0922,5794185.4659],[32559312.6163,5794246.9382],[32559349.6131,5794326.9161],[32559355.1089,5794338.7965],[32559371.7394,5794374.7475],[32559420.8262,5794480.861],[32559441.1034,5794532.2908],[32559470.0581,5794598.8213],[32559495.5486,5794648.3049],[32559523.288,5794690.7911],[32559554.0263,5794733.2774],[32559585.0144,5794771.2654],[32559612.5039,5794800.2563],[32559651.4888,5794833.7462],[32559680.7274,5794853.2406],[32559714.714,5794867.737],[32559754.1984,5794876.7358],[32559797.931,5794880.7366],[32559904.3878,5794879.9975],[32559940.8741,5794879.7442],[32559965.1145,5794881.7447],[32560011.8459,5794888.7444],[32560084.0673,5794906.2413],[32560144.444,5794918.5396],[32560184.7154,5794926.7426],[32560265.1863,5794943.134],[32560285.3435,5794947.2399],[32560325.5571,5794955.4312],[32560385.948,5794967.7325]],[[32562723.2689,5794961.9373],[32562732.0153,5794952.9424],[32562738.0129,5794942.448],[32562742.0112,5794930.9538],[32562746.509,5794903.9665],[32562745.2594,5794889.4729],[32562739.2616,5794875.9781],[32562729.2655,5794862.9827],[32562716.2704,5794850.4866],[32562678.1619,5794821.5843],[32562656.2938,5794804.9991],[32562645.0481,5794793.5028],[32562637.0511,5794780.5077],[32562631.803,5794766.5133],[32562625.3458,5794741.834],[32562620.5571,5794723.5314],[32562615.309,5794710.5366],[32562607.5619,5794699.0407],[32562590.0687,5794681.5463],[32562581.5721,5794676.0478],[32562572.5756,5794672.5482],[32562563.5791,5794671.0477],[32562554.0829,5794672.0458],[32562532.8414,5794679.04],[32562507.6016,5794695.5292],[32562493.6073,5794707.022],[32562411.6407,5794782.9775],[32562394.6476,5794796.4693],[32562380.1535,5794805.4635],[32562367.4085,5794809.9598],[32562355.9131,5794810.4583],[32562344.9175,5794808.9577],[32562333.9218,5794804.9581],[32562315.9473,5794796.4979],[32562295.6867,5794786.9616],[32562210.0586,5794735.3111],[32562167.2369,5794709.4812],[32562119.6389,5794683.6526],[32562090.517,5794669.4903],[32562044.7849,5794651.9929],[32561968.8149,5794632.4933],[32561907.5891,5794620.9918],[32561882.8489,5794618.4903],[32561848.3625,5794618.4867],[32561837.6168,5794619.9848],[32561825.3717,5794623.9818],[32561754.9,5794651.4627],[32561702.671,5794666.451],[32561623.7024,5794680.9371],[32561577.4709,5794685.4309],[32561536.7371,5794686.4267],[32561501.2512,5794683.4248],[32561439.2757,5794672.4241],[32561399.7447,5794663.9695],[32561399.4511,5794663.9067],[32561366.8043,5794656.9245],[32561418.0344,5794701.4098],[32561480.0104,5794750.3941],[32561539.987,5794794.3806],[32561584.9695,5794822.3725],[32561760.6506,5794903.8534],[32561914.8402,5794971.8389],[32561944.3286,5794983.3368],[32561964.3207,5794988.8364],[32561983.5631,5794991.3373],[32562001.306,5794991.339],[32562033.5432,5794984.8452],[32562047.7874,5794979.8488],[32562061.3987,5794973.524],[32562083.2732,5794963.3597],[32562095.0185,5794960.8621],[32562106.7638,5794959.8637],[32562117.7594,5794961.3643],[32562136.5021,5794968.3633],[32562142.9996,5794974.3613],[32562146.9981,5794981.3587],[32562148.9973,5794990.8548],[32562150.1519,5795008.6457],[32562153.2463,5795056.3266],[32562156.2454,5795075.8185],[32562161.4936,5795095.3106],[32562168.9908,5795113.3035],[32562181.486,5795132.7964],[32562219.4715,5795178.2807],[32562294.6924,5795254.2559],[32562296.9409,5795195.2818],[32562302.938,5795155.2998],[32562307.9359,5795135.3091],[32562315.1828,5795116.818],[32562334.9245,5795084.3345],[32562355.666,5795060.3474],[32562371.9094,5795044.8561],[32562386.4313,5795039.2286],[32562404.3416,5795032.2881],[32562408.5336,5795030.7871],[32562433.6347,5795022.8731],[32562476.3675,5795012.383],[32562520.939,5795007.6755],[32562585.0743,5795000.9017],[32562653.5469,5794988.9159],[32562696.0299,5794977.4266],[32562711.5237,5794969.9321],[32562723.2689,5794961.9373]],[[32565213.2607,5793121.4076],[32565111.3002,5792956.3307],[32565096.3058,5792926.843],[32565085.8097,5792898.8553],[32565075.0635,5792851.8772],[32565067.316,5792798.4029],[32565067.1416,5792709.9188],[32565067.0648,5792670.9677],[32565063.5656,5792614.9956],[32565058.0675,5792582.5114],[32565049.5705,5792548.5274],[32565037.5748,5792511.5445],[32565022.0807,5792473.5617],[32565005.0871,5792437.5776],[32564987.8435,5792405.5915],[32564967.6013,5792373.6049],[32564954.8561,5792357.1116],[32564909.6236,5792304.1323],[32564877.4616,5792270.497],[32564778.6741,5792167.1845],[32564739.9397,5792184.6692],[32564715.1996,5792201.1566],[32564703.7043,5792211.6492],[32564683.9624,5792234.6338],[32564668.7186,5792258.6186],[32564655.2243,5792284.1029],[32564667.4942,5792308.8327],[32564688.9025,5792351.9809],[32564762.1841,5792502.5051],[32564803.6686,5792596.9627],[32564830.6586,5792673.4275],[32564837.4062,5792698.9155],[32564846.4032,5792748.3916],[32564851.6514,5792783.8742],[32564852.6512,5792810.8606],[32564848.9031,5792837.3463],[32564844.6549,5792852.8376],[32564838.1577,5792868.8284],[32564819.4153,5792895.8113],[32564798.9237,5792915.7975],[32564782.9301,5792927.7885],[32564771.19,5792935.7789],[32564768.8322,5792937.3836],[32564759.4426,5792943.7742],[32564754.7406,5792946.9744],[32564747.6944,5792951.7701],[32564759.131,5792987.0478],[32564763.5485,5793000.6743],[32564777.8149,5793044.6812],[32564784.8089,5793066.2553],[32564789.2497,5793079.9535],[32564800.675,5793115.1963],[32564840.6591,5793113.7042],[32564866.1491,5793117.7067],[32564877.8944,5793121.7068],[32564889.8895,5793102.2188],[32564903.8838,5793086.2294],[32564919.8773,5793074.2382],[32564937.1204,5793065.2458],[32564954.8633,5793059.252],[32564972.8561,5793055.7569],[32565007.8422,5793055.2632],[32565025.8351,5793058.7646],[32565066.3192,5793073.2643],[32565131.2937,5793106.2592],[32565169.9587,5793118.4746],[32565221.5082,5793134.7605],[32565213.2607,5793121.4076]],[[32559448.8044,5793653.1755],[32559426.8131,5793651.6737],[32559382.3309,5793652.6686],[32559314.8578,5793660.6582],[32559263.1286,5793673.1477],[32559203.9025,5793694.1332],[32559101.1939,5793735.606],[32559082.7014,5793744.6006],[32559064.2089,5793756.594],[32559026.7242,5793788.5779],[32559008.2319,5793808.0686],[32558972.4967,5793852.5483],[32558935.7619,5793902.526],[32558910.5224,5793930.0132],[32558854.2955,5793982.9879],[32558786.0734,5794039.9598],[32558809.9548,5794041.2236],[32558937.5132,5794047.9741],[32559010.4841,5794047.982],[32559111.9436,5794042.9941],[32559147.9292,5794039.4991],[32559215.6521,5794029.0095],[32559275.1282,5794013.521],[32559328.1069,5793994.5332],[32559376.3374,5793973.5456],[32559471.299,5793928.0718],[32559590.501,5793879.1018],[32559597.7471,5793801.6326],[32559596.2472,5793757.6497],[32559592.4985,5793740.1562],[32559586.7506,5793726.1611],[32559579.0035,5793713.1654],[32559569.2572,5793701.6689],[32559557.5117,5793691.1719],[32559528.523,5793674.1756],[32559510.7799,5793667.1765],[32559491.2876,5793660.677],[32559448.8044,5793653.1755]],[[32558850.542,5793600.1247],[32558763.3266,5793594.6149],[32558708.3485,5793596.1067],[32558659.3681,5793601.5976],[32558596.3934,5793614.5838],[32558580.15,5793626.0773],[32558566.1558,5793640.5701],[32558554.1608,5793657.5624],[32558544.165,5793675.5546],[32558535.9186,5793695.0466],[32558524.6736,5793732.0321],[32558517.1773,5793783.5131],[32558514.4291,5793843.9921],[32558514.9292,5793866.4843],[32558519.1782,5793911.9695],[32558529.4247,5793955.9559],[32558536.4221,5793975.9501],[32558550.1671,5794007.9411],[32558561.163,5794028.9354],[32558673.6182,5794032.9485],[32558678.6157,5793997.9613],[32558686.862,5793960.4754],[32558696.8576,5793935.4853],[32558713.6006,5793910.4962],[32558748.0863,5793872.014],[32558761.8307,5793859.0204],[32558778.8237,5793846.0272],[32558800.8148,5793833.5344],[32558836.4587,5793816.8756],[32558904.5229,5793785.0647],[32558926.0142,5793772.5718],[32558942.5074,5793760.0783],[32558954.2526,5793747.0845],[32558963.2488,5793734.0903],[32558974.7439,5793710.1005],[32558977.9925,5793699.1048],[32558981.2409,5793677.6132],[32558981.9903,5793657.6207],[32558980.4908,5793648.6238],[32558972.2439,5793632.1288],[32558957.2497,5793619.6315],[32558947.5036,5793615.1319],[32558900.7721,5793606.1292],[32558850.542,5793600.1247]],[[32558097.8514,5794288.2819],[32558071.8617,5794284.2789],[32558046.372,5794285.2743],[32558023.8811,5794290.7686],[32558014.1351,5794295.2656],[32557998.3915,5794307.2591],[32557982.6482,5794333.7482],[32557975.1515,5794355.2403],[32557973.1524,5794367.2362],[32557972.9027,5794379.7323],[32557974.9021,5794392.2288],[32557985.6482,5794419.2223],[32558011.3884,5794460.7139],[32558034.3796,5794487.7093],[32558048.1243,5794500.2077],[32558082.111,5794523.7058],[32558213.5271,5794604.247],[32558224.0554,5794610.6995],[32558530.4354,5794787.1799],[32558555.175,5794747.1956],[32558567.9194,5794715.7072],[32558572.1675,5794698.7131],[32558574.4163,5794681.2191],[32558573.9162,5794647.2302],[32558565.6688,5794599.745],[32558509.8814,5794570.7797],[32558501.6055,5794566.4828],[32558438.5673,5794533.7528],[32558386.9578,5794506.9567],[32558378.9572,5794502.8027],[32558323.014,5794473.7565],[32558268.8449,5794382.5456],[32558255.5713,5794360.1953],[32558239.2956,5794332.7899],[32558234.2367,5794331.2653],[32558156.3284,5794307.7852],[32558141.8333,5794302.9508],[32558097.8514,5794288.2819]]],"crs":{"type":"EPSG","properties":{"code":4647}}},"properties":{"FL_NR":2124,"BR":4,"BR_NAME":"BERGVORLAND","TKNR":3724,"TKNAME":"Hannover","UP_DATE":"2018-09-06T14:12:10.0000000"}}]}