{"type": "FeatureCollection","features":[{"type":"Feature","geometry":{"type":"Polygon","coordinates":[[[32568410.9918,5772810.5808],[32568410.8898,5772810.6542],[32568337.2089,5772846.5872],[32568305.5227,5772858.7812],[32568251.3798,5772879.6173],[32568170.5537,5772906.0373],[32568078.1644,5772927.5025],[32568010.4425,5772953.9221],[32567955.8934,5772980.342],[32567934.764,5772993.5676],[32567799.1859,5773074.0246],[32567713.171,5773119.4995],[32567625.2753,5773168.9739],[32567612.5188,5773178.9689],[32567591.289,5773206.456],[32567501.4257,5773366.8828],[32567474.8976,5773418.8599],[32567431.6775,5773521.8159],[32567401.4133,5773584.2883],[32567389.9135,5773603.3819],[32567366.7981,5773641.7617],[32567224.7436,5773846.6629],[32567217.4051,5773849.3058],[32567202.7902,5773868.5365],[32567123.6362,5773972.6894],[32567049.0996,5774062.9206],[32567019.3675,5774095.9573],[32566999.0185,5774118.5681],[32566998.7083,5774135.5171],[32566980.6912,5774160.5041],[32566964.6606,5774186.9902],[32566950.1163,5774217.9737],[32566931.2858,5774276.4432],[32566917.5317,5774333.8927],[32566908.8576,5774361.8839],[32566898.4605,5774386.6755],[32566886.9589,5774406.8651],[32566872.7385,5774426.3556],[32566852.7495,5774445.8445],[32566826.7432,5774465.8317],[32566797.9687,5774483.3186],[32566740.895,5774510.2921],[32566644.7787,5774566.8744],[32566572.7577,5774609.2721],[32566436.5742,5774683.7374],[32566394.8982,5774711.7237],[32566363.7686,5774737.5231],[32566289.5667,5774792.8053],[32566254.0218,5774818.6688],[32566226.5178,5774834.1606],[32566191.2158,5774850.6515],[32566143.3856,5774870.1617],[32566065.044,5774902.1176],[32566019.4781,5774922.6035],[32565977.9349,5774943.5898],[32565945.4109,5774962.5783],[32565844.3585,5775028.5407],[32565818.3545,5775048.5291],[32565742.587,5775112.3355],[32565646.8689,5775192.9431],[32565628.8843,5775212.4328],[32565615.9142,5775232.424],[32565602.0165,5775260.749],[32565594.2933,5775278.2339],[32565553.2222,5775380.3549],[32565527.9911,5775452.3687],[32565506.4708,5775513.7912],[32565455.1369,5775626.731],[32565416.3877,5775706.6845],[32565403.8993,5775737.4736],[32565349.0099,5775873.0835],[32565311.7251,5775892.5736],[32565279.2101,5775913.0626],[32565250.9926,5775935.5504],[32565189.0417,5775994.517],[32565152.8113,5776031.9957],[32565135.4609,5776053.6708],[32565118.8111,5776074.4708],[32565089.1139,5776117.9451],[32564987.81,5776275.7241],[32564968.5924,5776302.6648],[32564947.8589,5776324.6453],[32564839.2841,5776426.3688],[32564766.4432,5776494.6133],[32564745.9584,5776516.0939],[32564729.2315,5776538.0446],[32564718.7628,5776557.9778],[32564695.6984,5776628.4219],[32564660.0074,5776673.893],[32564647.2912,5776693.3816],[32564604.4901,5776780.8331],[32564588.8647,5776826.8082],[32564578.1515,5776845.7965],[32564537.493,5776905.2578],[32564504.1077,5776966.2204],[32564490.1289,5776984.2084],[32564461.9543,5777002.461],[32564415.3302,5777032.6658],[32564371.081,5777070.1364],[32564327.1073,5777114.6038],[32564298.1532,5777152.0785],[32564267.9803,5777200.0482],[32564234.5794,5777258.5124],[32564227.0593,5777259.8469],[32564183.9705,5777267.4936],[32564142.1314,5777277.4766],[32564124.0791,5777278.4705],[32564104.255,5777275.465],[32564083.299,5777268.6878],[32563980.6679,5777316.7951],[32563926.6513,5777353.4503],[32563890.8247,5777391.6664],[32563889.0201,5777388.9552],[32563885.1736,5777506.7966],[32563878.6118,5777565.2703],[32563871.9395,5777594.2559],[32563861.267,5777627.7386],[32563846.591,5777664.719],[32563814.9506,5777730.1834],[32563790.7525,5777769.6604],[32563773.0726,5777812.1398],[32563761.1399,5777850.1236],[32563744.2553,5777913.0991],[32563693.6337,5778129.0108],[32563662.1475,5778228.9602],[32563645.2916,5778271.4375],[32563624.1223,5778305.4176],[32563596.9031,5778334.8973],[32563547.4565,5778376.7033],[32563518.9025,5778400.845],[32563493.6673,5778425.3272],[32563469.4476,5778452.3089],[32563445.0428,5778484.9047],[32563353.4692,5778607.2132],[32563241.0145,5779043.4909],[32563226.844,5779082.4742],[32563212.3796,5779106.4617],[32563197.1386,5779121.9512],[32563181.5224,5779094.9525],[32563164.6336,5779060.4559],[32563160.4654,5779050.9424],[32563147.9866,5779022.4609],[32563133.5893,5778982.9678],[32563122.941,5778941.4777],[32563115.2822,5778896.4909],[32563106.4452,5778815.5532],[32563105.2562,5778773.063],[32563106.0076,5778718.5833],[32563111.2511,5778604.1229],[32563118.5864,5778539.6463],[32563143.5262,5778393.6966],[32563152.6763,5778349.2143],[32563184.1208,5778225.77],[32563190.7391,5778182.7872],[32563201.3358,5778131.3062],[32563221.1859,5778066.9661],[32563255.8811,5777968.348],[32563263.3675,5777939.8662],[32563268.638,5777902.8911],[32563271.8333,5777863.9169],[32563272.1554,5777831.9368],[32563268.3336,5777800.4547],[32563260.8468,5777763.974],[32563250.9551,5777727.4911],[32563240.5828,5777697.4954],[32563227.2219,5777673.4898],[32563208.6068,5777652.4746],[32563187.2409,5777633.452],[32563165.1309,5777616.9254],[32563133.2441,5777599.8858],[32563078.7912,5777578.386],[32563040.6468,5777566.2783],[32563001.2691,5777558.243],[32562964.6707,5777557.2173],[32562922.3186,5777559.6951],[32562880.7375,5777568.179],[32562846.6983,5777583.6647],[32562810.7096,5777616.6409],[32562765.7499,5777666.1069],[32562688.0966,5777760.0444],[32562657.1591,5777805.018],[32562621.7577,5777864.9883],[32562580.3868,5777939.4588],[32562576.1839,5778036.4765],[32562571.6238,5778099.9978],[32562560.8801,5778189.5272],[32562556.1894,5778212.0319],[32562549.4838,5778231.533],[32562540.2623,5778248.0302],[32562527.0271,5778263.5227],[32562498.7652,5778287.6116],[32562493.0308,5778292.4992],[32562472.0159,5778304.9825],[32562450.514,5778321.9671],[32562431.5218,5778339.9546],[32562411.5063,5778364.832],[32562386.083,5778396.4308],[32562363.0995,5778420.4168],[32562337.6063,5778443.3998],[32562314.0944,5778458.8816],[32562296.8248,5778466.8667],[32562282.5473,5778469.8528],[32562250.4877,5778477.3212],[32562235.4661,5778482.8073],[32562220.7079,5778492.2956],[32562208.726,5778507.7897],[32562202.0268,5778529.2927],[32562181.0923,5778649.4269],[32562173.9652,5778690.3261],[32562166.8224,5778723.827],[32562156.6816,5778759.3238],[32562142.0236,5778794.8156],[32562124.08,5778823.8044],[32562107.0978,5778841.7939],[32562089.0883,5778853.2832],[32562066.5881,5778870.7694],[32562048.8575,5778889.7585],[32562036.4072,5778912.7507],[32562027.7059,5778932.7449],[32562018.4755,5778945.239],[32562010.9781,5778951.7345],[32561996.2081,5778957.7262],[32561983.1666,5778956.7185],[32561969.3542,5778951.2093],[32561955.7727,5778941.1984],[32561943.4552,5778920.4796],[32561894.5835,5778920.4803],[32561826.9779,5778920.4813],[32561703.9895,5778929.9438],[32561707.9743,5778916.9387],[32561700.4165,5778904.9255],[32561681.8571,5778901.4052],[32561656.5492,5778903.8815],[32561599.688,5778915.3341],[32561553.2907,5778916.7994],[32561522.2444,5778917.7799],[32561503.4568,5778921.2698],[32561466.4049,5778935.251],[32561443.8669,5778941.7415],[32561418.5623,5778945.2339],[32561392.9878,5778942.7311],[32561392.8209,5778942.67],[32561380.4961,5778938.1597],[32561381.1469,5778940.4379],[32561293.4643,5778922.0871],[32561170.804,5778868.7925],[32561079.3365,5778809.1418],[32561002.6941,5778763.1578],[32561013.0602,5778758.7743],[32560964.0077,5778709.7234],[32560924.2388,5778658.0254],[32560876.5164,5778610.3045],[32560781.0719,5778534.7465],[32560725.3962,5778502.9328],[32560606.092,5778494.981],[32560574.2769,5778459.1902],[32560530.531,5778383.6315],[32560485.8254,5778316.5754],[32560480.4702,5778319.1113],[32560368.2011,5778229.2988],[32560328.9701,5778186.1458],[32560305.4307,5778115.531],[32560274.0448,5778021.3781],[32560234.8116,5777836.9954],[32560230.886,5777664.381],[32560246.5748,5777428.9976],[32560264.7326,5777307.9323],[32560256.1963,5777262.4109],[32560238.6977,5777198.4374],[32560234.3396,5777167.9499],[32560234.0046,5777141.4607],[32560237.7006,5777121.4686],[32560247.4347,5777108.4736],[32560263.6967,5777098.9771],[32560277.6921,5777094.4933],[32560297.5685,5777024.9223],[32560313.2595,5776942.5379],[32560379.9489,5776769.9226],[32560446.6383,5776609.0764],[32560554.681,5776397.8948],[32560558.7538,5776393.1791],[32560574.8333,5776374.5614],[32560579.0852,5776365.9827],[32560580.7848,5776351.5553],[32560580.7348,5776313.3771],[32560579.5859,5776285.8185],[32560570.777,5776274.4733],[32560543.1138,5776248.956],[32560491.9129,5776252.1525],[32560462.945,5776305.7944],[32560439.2414,5776339.781],[32560358.5712,5776441.3159],[32560355.0758,5776445.7154],[32560312.1694,5776499.7193],[32560278.7093,5776539.704],[32560256.7238,5776562.1954],[32560244.2135,5776569.1928],[32560232.1822,5776569.1932],[32560229.4195,5776566.0331],[32560223.8804,5776559.6973],[32560217.5538,5776540.7051],[32560203.1228,5776489.5588],[32560194.9911,5776460.7382],[32560185.8961,5776438.2476],[32560177.2332,5776424.0527],[32560174.3057,5776419.2556],[32560160.7339,5776407.7606],[32560144.4241,5776402.2632],[32560136.4727,5776401.6538],[32560080.5065,5776401.7651],[32560056.2045,5776405.2643],[32560019.1571,5776415.828],[32559947.5206,5776436.2544],[32559875.3856,5776452.7495],[32559850.8233,5776453.2499],[32559790.142,5776445.7545],[32559837.5604,5776538.7156],[32559853.4659,5776574.7006],[32559861.33,5776604.1884],[32559862.5445,5776621.25],[32559863.4291,5776633.6764],[32559861.5565,5776656.1616],[32559855.0805,5776688.1545],[32559846.3744,5776709.1462],[32559835.3904,5776723.1408],[32559821.6316,5776731.6377],[32559805.3489,5776734.6369],[32559783.8104,5776727.642],[32559780.4287,5776725.3712],[32559766.6897,5776716.1454],[32559747.0753,5776696.1539],[32559730.2116,5776674.1633],[32559715.8179,5776640.6772],[32559703.6466,5776596.6953],[32559692.1923,5776541.7179],[32559681.7334,5776563.2095],[32559665.7729,5776588.6995],[32559645.8051,5776615.1893],[32559616.289,5776644.803],[32559505.3457,5776748.2605],[32559505.1083,5776797.3963],[32559469.8028,5776922.9345],[32559438.4197,5777009.2422],[32559395.2666,5777048.4736],[32559375.6511,5777048.4739],[32559359.9589,5777044.5507],[32559336.4202,5777013.1668],[32559332.4967,5776981.7823],[32559315.6812,5776914.5243],[32558898.3976,5777292.6207],[32558854.0145,5777328.9194],[32558823.2513,5777349.9116],[32558790.7254,5777368.4049],[32558606.2548,5777449.8762],[32558461.6877,5777519.0948],[32558411.0444,5777543.3428],[32558366.2558,5777567.8338],[32558306.7153,5777603.8207],[32558206.9218,5777668.3155],[32558146.6278,5777707.2824],[32558081.0717,5777743.2692],[32558045.5206,5777756.2647],[32557951.3648,5777784.2555],[32557907.7992,5777799.2503],[32557870.254,5777815.7445],[32557835.4723,5777834.2377],[32557803.2004,5777853.7305],[32557773.1874,5777874.2229],[32557743.9392,5777898.7136],[32557716.2107,5777928.2023],[32557693.2431,5777957.1911],[32557678.531,5777981.1818],[32557642.1522,5778049.1551],[32557591.336,5778148.6161],[32557550.2219,5778225.0861],[32557534.5104,5778250.0764],[32557501.7816,5778283.5636],[32557480.7778,5778299.5575],[32557458.5112,5778312.5528],[32557432.9782,5778323.0491],[32557369.868,5778340.0435],[32557249.6428,5778367.5346],[32557230.6297,5778372.9838],[32557200.8104,5778381.53],[32557159.2552,5778397.5243],[32557123.7329,5778417.5168],[32557091.7243,5778439.0089],[32557059.9781,5778463.9994],[32557041.518,5778489.9892],[32557027.8167,5778514.9795],[32557019.3783,5778539.9696],[32557017.6623,5778552.0929],[32557016.1948,5778562.4606],[32557016.0154,5778583.952],[32557018.5862,5778603.4442],[32557031.9802,5778636.9305],[32557035.5585,5778657.9219],[32557034.6422,5778683.9116],[32557028.7301,5778714.8992],[32557016.0345,5778740.8891],[32556998.2817,5778753.3844],[32556977.7456,5778757.8829],[32556956.9472,5778758.8829],[32556931.8864,5778759.3831],[32556899.2973,5778756.8846],[32556844.7316,5778751.1466],[32556794.7512,5778745.8907],[32556755.4004,5778744.8917],[32556717.6151,5778746.8915],[32556686.3072,5778753.3894],[32556665.8012,5778767.3841],[32556655.3402,5778787.3762],[32556654.3465,5778792.4821],[32556651.1815,5778818.3639],[32556586.9184,5778786.8774],[32556556.8046,5778774.8826],[32556522.9416,5778765.8866],[32556484.5786,5778760.3893],[32556440.9624,5778757.8909],[32556394.6154,5778763.3892],[32556351.8082,5778778.3837],[32556317.5303,5778795.877],[32556297.5297,5778810.8712],[32556273.0626,5778841.0193],[32556226.1402,5778898.8367],[32556196.1571,5778926.8258],[32556169.1404,5778942.3199],[32556144.0991,5778948.8175],[32556119.0332,5778947.8182],[32556091.1939,5778941.8208],[32556049.5503,5778929.826],[32555958.4233,5778898.9875],[32555932.8783,5778890.3427],[32555880.3667,5778886.1793],[32555844.6336,5778883.3462],[32555816.3673,5778874.8957],[32555767.1165,5778861.3555],[32555737.5404,5778860.8559],[32555713.2521,5778867.8533],[32555672.2141,5778887.8455],[32555651.4346,5778894.8429],[32555631.1432,5778897.8418],[32555611.3302,5778893.8435],[32555592.4883,5778880.349],[32555579.6339,5778858.3579],[32555575.0454,5778834.8673],[32555575.7121,5778808.8777],[32555613.4755,5778783.8874],[32555643.997,5778766.8941],[32555682.7547,5778739.4049],[32555697.9694,5778716.9138],[32555708.1748,5778695.4222],[32555720.7767,5778640.4442],[32555727.4748,5778619.4526],[32555741.1747,5778595.2407],[32555716.1224,5778532.6123],[32555714.1666,5778535.4863],[32555692.3617,5778535.4864],[32555671.0399,5778529.9887],[32555648.6829,5778514.495],[32555627.3005,5778490.5047],[32555606.4062,5778462.516],[32555586.7537,5778431.0287],[32555568.8458,5778396.5426],[32555487.5572,5778218.1144],[32555471.7002,5778197.6226],[32555453.1238,5778188.6263],[32555431.0631,5778187.127],[32555414.5687,5778201.6212],[32555381.6045,5778238.1067],[32555369.4218,5778268.0947],[32555363.7036,5778316.0919],[32555346.8836,5778325.1492],[32555313.1227,5778322.899],[32555289.0081,5778321.2918],[32555227.448,5778288.1123],[32555219.5355,5778266.096],[32555203.639,5778233.609],[32555186.2633,5778208.6191],[32555168.9088,5778190.1265],[32555151.5675,5778175.6323],[32555110.3731,5778147.0237],[32555098.3115,5778138.6472],[32555083.4911,5778128.6512],[32555068.9314,5778121.654],[32555052.8775,5778117.6557],[32555008.5263,5778121.1543],[32554979.9684,5778125.6526],[32554933.8381,5778121.6542],[32554876.6519,5778109.1592],[32554856.5928,5778106.6602],[32554824.3265,5778107.4259],[32554795.6911,5778107.6599],[32554770.865,5778103.6615],[32554749.2904,5778097.6638],[32554728.8479,5778085.077],[32554703.8333,5778069.675],[32554665.928,5778051.6821],[32554649.5988,5778040.1867],[32554636.5133,5778024.1932],[32554624.6678,5778004.2012],[32554616.7794,5777984.7936],[32554608.7282,5777954.2105],[32554604.7009,5777922.8225],[32554602.283,5777891.4345],[32554603.0848,5777863.2659],[32554607.1062,5777840.731],[32554615.9569,5777822.22],[32554617.5226,5777820.306],[32554630.4409,5777804.5141],[32554642.5116,5777794.0514],[32554653.7778,5777787.613],[32554663.4351,5777786.0033],[32554674.7943,5777788.5849],[32554688.3841,5777792.4418],[32554702.0655,5777793.2467],[32554705.9305,5777791.786],[32554793.8024,5777773.012],[32554822.8967,5777766.796],[32554846.9269,5777757.2998],[32554859.504,5777749.4097],[32554868.4376,5777743.8052],[32554883.6741,5777727.8116],[32554905.3585,5777690.8263],[32554919.8383,5777673.3333],[32554939.8436,5777659.3389],[32554962.3699,5777649.8428],[32554984.4064,5777643.8452],[32555006.4543,5777641.3461],[32555029.2673,5777642.8455],[32555031.0748,5777643.2644],[32555028.9061,5777591.5406],[32555021.3793,5777573.3255],[32555002.4854,5777537.8017],[32554930.1827,5777477.3098],[32554929.8113,5777477.0059],[32554925.943,5777473.841],[32554918.2064,5777467.5113],[32554913.3342,5777406.3689],[32554884.8928,5777185.9536],[32554875.3618,5777168.8474],[32554849.3591,5777131.5541],[32554795.9491,5777104.4668],[32554791.1333,5777103.6922],[32554747.3064,5777103.6949],[32554746.1506,5777103.695],[32554616.2011,5777103.703],[32554509.2884,5777041.2347],[32554490.2428,5777036.4737],[32554466.6097,5777030.5659],[32554462.0888,5777035.088],[32554447.0798,5777044.0844],[32554422.7937,5777052.0811],[32554391.231,5777057.5789],[32554357.4026,5777060.0778],[32554287.9784,5777061.0772],[32554250.8704,5777057.0786],[32554213.4955,5777048.0821],[32554172.8507,5777035.5871],[32554150.2554,5777024.0916],[32554139.082,5777020.3821],[32554124.6621,5777015.5949],[32554092.0608,5777010.097],[32554043.6756,5777006.5982],[32554016.8652,5777009.0972],[32553948.4398,5777025.1619],[32553935.9703,5777028.0894],[32553878.8554,5777037.5853],[32553857.8064,5777039.0847],[32553836.2497,5777038.5849],[32553797.1305,5777032.7061],[32553773.0572,5777029.0884],[32553732.9547,5777029.0883],[32553715.169,5777032.0871],[32553696.3956,5777039.584],[32553653.6131,5777063.0744],[32553475.4046,5777062.0742],[32553344.846,5777069.5708],[32553202.7433,5777072.5691],[32553161.6336,5777071.0697],[32553073.6166,5777058.0746],[32553037.7702,5777056.575],[32553004.6926,5777058.5741],[32552977.1453,5777065.5712],[32552954.1227,5777076.5668],[32552934.1209,5777091.5608],[32552923.6761,5777105.2269],[32552907.9816,5776958.7657],[32552893.7304,5776927.6259],[32552880.6496,5776913.1317],[32552863.067,5776901.6361],[32552840.4751,5776891.1402],[32552821.6723,5776889.6408],[32552749.9519,5776878.1452],[32552701.2787,5776863.151],[32552660.3507,5776840.6598],[32552626.4291,5776814.6701],[32552598.2754,5776789.6799],[32552479.6125,5776679.7576],[32552303.6707,5776529.3749],[32552242.3358,5776474.9169],[32552222.9159,5776454.2824],[32552199.0747,5776428.95],[32552160.3152,5776379.9831],[32552121.2886,5776326.0185],[32552042.8066,5776240.08],[32552013.863,5776203.6049],[32551991.4377,5776167.6276],[32551949.298,5776081.6786],[32551911.6565,5775991.7302],[32551901.2651,5775956.7489],[32551889.0351,5775896.2797],[32551880.6569,5775863.7968],[32551870.0263,5775832.3142],[32551769.6727,5775574.4609],[32551760.2887,5775540.9789],[32551752.8915,5775501.9988],[32551749.2541,5775463.0175],[32551750.3952,5775429.0324],[32551756.0658,5775400.5435],[32551763.9988,5775374.0529],[32551773.6996,5775351.5599],[32551784.4177,5775333.5646],[32551800.6466,5775314.5679],[32551850.3704,5775268.0728],[32551894.6975,5775236.1631],[32551925.3843,5775214.0726],[32551950.8771,5775192.0741],[32551968.8475,5775169.0783],[32551986.5408,5775138.0863],[32552002.2192,5775104.0962],[32552013.3927,5775072.1067],[32552027.508,5775020.125],[32552035.2154,5775001.131],[32552045.1983,5774988.1333],[32552095.1885,5774946.1351],[32552129.2166,5774928.1315],[32552148.2226,5774915.1308],[32552189.7144,5774880.132],[32552211.7184,5774856.1273],[32552226.9107,5774834.6392],[32552239.6212,5774812.6445],[32552252.0631,5774785.1523],[32552261.543,5774771.1551],[32552277.8065,5774762.1534],[32552303.13,5774764.6435],[32552343.5338,5774780.1225],[32552393.4831,5774802.0954],[32552465.7832,5774837.0547],[32552479.0838,5774842.0477],[32552484.7567,5774842.0458],[32552492.1174,5774842.0432],[32552502.1269,5774837.0418],[32552506.6056,5774827.0445],[32552500.7799,5774808.0549],[32552484.1511,5774781.0724],[32552461.7622,5774755.5915],[32552437.9011,5774740.1068],[32552411.2989,5774729.6208],[32552382.6787,5774715.1372],[32552358.3149,5774699.1528],[32552344.7384,5774686.1633],[32552338.418,5774669.1729],[32552331.5677,5774643.1868],[32552322.3931,5774595.7109],[32552322.8371,5774577.7186],[32552327.0281,5774555.7268],[32552335.4896,5774536.7322],[32552347.7396,5774526.7322],[32552362.2756,5774526.2272],[32552392.6407,5774537.7113],[32552406.1854,5774540.7051],[32552418.6032,5774537.8957],[32552473.7239,5774554.431],[32552472.1072,5774555.4468],[32552472.1074,5774567.8956],[32552472.1076,5774587.5683],[32552480.5471,5774614.0909],[32552484.6272,5774626.9133],[32552495.358,5774644.7974],[32552535.881,5774646.4178],[32552540.0685,5774646.5852],[32552545.4157,5774605.5848],[32552546.5581,5774596.825],[32552542.7091,5774595.2808],[32552554.9038,5774519.3594],[32552573.165,5774405.6695],[32552563.4354,5774351.7189],[32552550.9074,5774282.2515],[32552554.4734,5774279.7616],[32552564.494,5774272.7651],[32552584.5332,5774268.7594],[32552607.8483,5774270.2502],[32552631.6727,5774274.2397],[32552753.59,5774306.1807],[32552804.5068,5774317.1689],[32552821.0561,5774319.1682],[32552831.0772,5774317.6688],[32552838.3317,5774313.1706],[32552841.3172,5774306.1735],[32552838.7821,5774297.1771],[32552824.955,5774284.1822],[32552798.8349,5774267.6887],[32552766.1964,5774250.7001],[32552732.5649,5774236.7187],[32552700.4499,5774226.735],[32552646.0145,5774212.7611],[32552629.4494,5774205.7704],[32552624.8427,5774192.9999],[32552600.4944,5774180.8264],[32552640.2764,5773878.4497],[32552629.9805,5773853.8869],[32552629.595,5773852.9673],[32552655.2457,5773805.9359],[32552678.6856,5773767.9437],[32552694.5242,5773746.9134],[32552655.4103,5773702.2128],[32552635.7945,5773674.7518],[32552612.256,5773662.9829],[32552553.4099,5773643.3686],[32552523.286,5773571.074],[32552513.6085,5773563.5962],[32552508.5143,5773538.1094],[32552509.2026,5773518.118],[32552513.3904,5773495.1267],[32552539.6996,5773413.6529],[32552576.1145,5773357.1642],[32552657.7774,5773263.1748],[32552697.251,5773222.6776],[32552740.4971,5773186.1772],[32552793.0124,5773148.1738],[32552894.5674,5773082.6647],[32552939.105,5773058.1746],[32553028.2104,5773018.6907],[32553052.9658,5773000.1982],[32553077.9798,5772984.2047],[32553105.2559,5772970.2103],[32553211.1358,5772924.729],[32553263.6814,5772896.2406],[32553340.5225,5772862.2544],[32553457.3625,5772795.2818],[32553473.1009,5772778.7884],[32553486.5691,5772757.7969],[32553498.0067,5772728.8086],[32553502.9209,5772697.8209],[32553502.0798,5772669.8323],[32553494.4155,5772624.3505],[32553489.6268,5772537.3853],[32553502.4934,5772484.9065],[32553517.3827,5772437.9254],[32553536.7932,5772393.943],[32553562.2449,5772357.9575],[32553591.7228,5772326.9701],[32553618.9704,5772303.9794],[32553636.9774,5772291.4844],[32553670.0026,5772272.4923],[32553693.2844,5772263.4959],[32553719.8374,5772258.498],[32553739.027,5772259.5608],[32553773.4584,5772238.901],[32553829.9644,5772187.1027],[32553826.8496,5772175.0319],[32553826.7621,5772147.5429],[32553836.4625,5772124.0524],[32553858.4561,5772104.0605],[32553896.3123,5772083.2066],[32553918.608,5771999.5926],[32553918.6072,5771940.7468],[32553887.1947,5771872.6889],[32553865.9476,5771859.1588],[32553848.552,5771843.0778],[32553826.4794,5771822.6733],[32553795.2746,5771783.6889],[32553775.6188,5771750.702],[32553765.7305,5771715.2163],[32553761.0803,5771671.7337],[32553761.6969,5771629.2508],[32553767.36,5771597.2636],[32553775.3309,5771578.4651],[32553778.8039,5771570.2745],[32553794.4978,5771539.7868],[32553812.2016,5771510.7984],[32553828.9267,5771489.307],[32553854.9179,5771465.3168],[32553939.1656,5771395.8449],[32553956.8946,5771398.7162],[32553969.5987,5771354.2494],[32553985.2904,5771322.8648],[32553997.0589,5771283.6341],[32553997.0579,5771209.0961],[32553997.0568,5771130.635],[32553973.5166,5771005.0976],[32553942.5874,5770886.5421],[32553920.9371,5770866.5573],[32553898.0213,5770833.0707],[32553883.8718,5770797.5849],[32553875.2255,5770758.6005],[32553874.9964,5770686.6294],[32553878.1402,5770650.6438],[32553886.2874,5770611.6596],[32553912.0685,5770521.6957],[32553897.4967,5770353.4357],[32553890.2101,5770269.297],[32553889.5992,5770233.8108],[32553888.9798,5770197.8257],[32553896.4332,5770098.3656],[32553832.2652,5770097.8658],[32553768.0971,5770097.366],[32553782.439,5770035.8907],[32553788.9034,5770019.3973],[32553803.1203,5769997.4061],[32553838.469,5769945.7235],[32553864.9935,5769906.9425],[32553885.9749,5769883.9518],[32553911.2125,5769859.4616],[32553962.5453,5769817.4949],[32553983.9624,5769799.9855],[32553986.5409,5769731.0667],[32553987.8892,5769695.0277],[32553956.1207,5769696.868],[32553923.5663,5769657.8037],[32553916.415,5769607.7498],[32553911.1479,5769603.0646],[32553906.5981,5769591.0694],[32553904.7956,5769576.0754],[32553905.476,5769553.5845],[32553919.6397,5769436.1316],[32553936.8803,5769339.2071],[32553953.8673,5769243.7088],[32553957.7328,5769198.2272],[32553955.1276,5769167.2396],[32553949.7572,5769133.7531],[32553940.1196,5769098.2674],[32553925.2213,5769063.7812],[32553870.5182,5768965.8206],[32553859.6558,5768939.3312],[32553855.0677,5768915.341],[32553856.2461,5768891.8504],[32553859.4694,5768880.4762],[32553795.8608,5768759.0458],[32553741.835,5768626.4426],[32553709.4001,5768448.0648],[32553706.4504,5768449.0681],[32553725.9056,5768419.0767],[32553742.3546,5768389.5861],[32553756.0386,5768357.5979],[32553764.4607,5768325.6117],[32553768.8823,5768296.6254],[32553771.2968,5768267.1401],[32553799.4219,5768202.1643],[32553811.8534,5768169.1772],[32553821.2813,5768137.6906],[32553833.6376,5768080.7165],[32553833.42,5768011.2535],[32553827.8202,5767984.2699],[32553815.7037,5767957.7883],[32553795.543,5767924.3133],[32553765.1159,5767867.0273],[32553749.8975,5767838.3751],[32553707.8243,5767772.425],[32553686.6796,5767744.947],[32553662.6067,5767717.1747],[32553620.7569,5767669.7055],[32553585.7895,5767630.0429],[32553523.5696,5767534.6147],[32553499.1101,5767488.6474],[32553480.1535,5767439.18],[32553454.3085,5767351.735],[32553444.1568,5767312.2594],[32553425.3299,5767224.812],[32553379.4176,5767053.9177],[32553338.3019,5766972.4741],[32553219.243,5766736.636],[32553198.0721,5766700.1616],[32553144.1828,5766621.7192],[32553128.0551,5766594.7382],[32553123.2211,5766572.2515],[32553123.6379,5766545.7653],[32553129.6972,5766480.7978],[32553127.3921,5766465.3067],[32553120.5751,5766449.8168],[32553107.7378,5766432.8295],[32553088.888,5766416.8433],[32553067.2921,5766404.356],[32553045.2093,5766396.3666],[32553024.6415,5766391.8748],[32553004.8193,5766385.3838],[32552986.2362,5766374.3948],[32552967.1373,5766358.9082],[32552940.4313,5766315.9381],[32552931.5948,5766295.9509],[32552920.4165,5766248.9785],[32552920.5286,5766205.5011],[32552924.161,5766165.521],[32552933.3077,5766125.5393],[32552950.2279,5766086.5551],[32552973.9172,5766048.0689],[32552999.1242,5766013.0805],[32553094.5079,5765889.6203],[32553115.9967,5765866.6268],[32553160.0203,5765834.6322],[32553205.3175,5765809.1339],[32553252.8895,5765789.6317],[32553281.4411,5765780.6291],[32553293.5221,5765770.6392],[32553336.4533,5765735.1391],[32553356.4517,5765716.6438],[32553370.6779,5765696.1512],[32553380.3575,5765677.1166],[32553383.3859,5765671.1614],[32553415.2331,5765593.1955],[32553426.2034,5765573.7033],[32553444.5895,5765555.1364],[32553444.5885,5765487.5976],[32553439.5697,5765402.3],[32553425.0963,5765378.3104],[32553418.2672,5765358.8228],[32553388.0849,5765245.8918],[32553374.7625,5765234.4014],[32553362.9382,5765220.9115],[32553351.6012,5765202.924],[32553343.2572,5765179.9386],[32553334.5729,5765127.9689],[32553339.0005,5765100.4828],[32553348.0393,5765066.225],[32553362.8569,5765032.5142],[32553376.5679,5765007.5247],[32553393.2901,5764983.5339],[32553412.7807,5764963.0405],[32553439.0416,5764943.0455],[32553507.5983,5764900.0534],[32553568.6938,5764876.5513],[32553595.9872,5764866.0521],[32553621.7681,5764853.0534],[32553675.3154,5764820.5593],[32553700.0641,5764798.0662],[32553721.3015,5764775.0742],[32553740.2703,5764748.0851],[32553753.7117,5764717.0996],[32553762.8881,5764685.1156],[32553769.802,5764651.1333],[32553769.505,5764555.1877],[32553771.642,5764516.709],[32553775.8496,5764499.218],[32553781.605,5764488.761],[32553783.8267,5764484.7245],[32553793.8125,5764471.23],[32553805.5592,5764459.734],[32553813.7823,5764455.3538],[32553807.9287,5764420.2353],[32553807.9281,5764374.8159],[32553821.2264,5764281.7177],[32553815.2557,5764271.8388],[32553837.1259,5764210.3693],[32553842.5961,5764195.8765],[32553866.7826,5764153.8956],[32553945.7124,5764061.433],[32554008.4217,5763992.9601],[32554125.5481,5763850.0207],[32554199.2443,5763768.0547],[32554223.984,5763743.0648],[32554237.6538,5763731.9495],[32554257.5004,5763719.0726],[32554281.0363,5763710.0735],[32554306.347,5763707.5702],[32554329.6741,5763712.0631],[32554348.7488,5763719.5549],[32554361.809,5763727.5477],[32554375.632,5763739.0381],[32554389.4551,5763750.5286],[32554457.0807,5763812.4779],[32554473.9135,5763824.4674],[32554494.2528,5763835.4567],[32554517.84,5763842.9474],[32554544.4196,5763845.4404],[32554590.0306,5763841.4335],[32554609.0682,5763836.9324],[32554707.9846,5763804.4321],[32554727.2991,5763808.4256],[32554746.6139,5763812.4192],[32554784.8893,5763787.4267],[32554801.9103,5763779.4281],[32554838.6915,5763765.0632],[32554845.2393,5763762.5059],[32554881.2777,5763748.4311],[32554917.1433,5763674.4699],[32554926.3433,5763650.483],[32554929.0537,5763635.4919],[32554929.4768,5763610.5074],[32554948.3895,5763512.897],[32554957.8455,5763464.0936],[32554969.5176,5763429.1133],[32554983.7135,5763399.6291],[32554989.659,5763377.1421],[32554987.6162,5763365.1501],[32554982.316,5763353.6583],[32554974.0063,5763341.6674],[32554955.0509,5763292.202],[32554951.4899,5763275.713],[32554950.9305,5763257.2248],[32554953.6237,5763236.7371],[32554959.325,5763216.249],[32554979.9929,5763172.2728],[32555059.4972,5763025.851],[32555090.1725,5762975.8773],[32555109.1464,5762951.3895],[32555126.3845,5762932.8982],[32555164.8835,5762899.9125],[32555192.9063,5762883.4181],[32555223.9544,5762872.4197],[32555260.0221,5762863.4192],[32555276.7994,5762857.9197],[32555308.5899,5762843.9232],[32555361.3686,5762808.4368],[32555406.1132,5762768.9545],[32555427.6215,5762753.4608],[32555449.6406,5762740.965],[32555485.8285,5762724.2289],[32555497.1974,5762718.971],[32555525.4501,5762694.2019],[32555553.4262,5762664.9963],[32555575.8945,5762636.0114],[32555624.783,5762559.553],[32555749.3228,5762388.6443],[32555768.5556,5762355.7027],[32555857.2734,5762203.7487],[32555873.9568,5762168.7692],[32555887.6259,5762131.7916],[32555909.4105,5762057.8461],[32555919.8651,5762022.3591],[32555932.127,5761983.3238],[32555971.9776,5761856.4614],[32555954.1083,5761833.4796],[32555946.0657,5761826.6022],[32555907.6563,5761807.9483],[32555898.3525,5761798.9521],[32555894.8089,5761788.3098],[32555896.2671,5761774.1026],[32555901.9758,5761756.378],[32555912.7046,5761740.7876],[32555928.4646,5761730.887],[32555962.508,5761716.1921],[32556002.0173,5761686.2848],[32556038.7495,5761650.2608],[32556050.1035,5761632.1863],[32556063.6886,5761610.56],[32556073.9468,5761604.6099],[32556098.1316,5761600.2138],[32556125.0524,5761595.3204],[32556141.3292,5761590.2626],[32556163.0884,5761575.2029],[32556194.3313,5761547.1628],[32556251.5533,5761491.1246],[32556269.7876,5761471.1239],[32556303.2356,5761427.1365],[32556325.6871,5761393.7203],[32556343.2633,5761361.4367],[32556359.3743,5761326.1874],[32556396.4437,5761225.2243],[32556399.3293,5761217.3649],[32556403.4839,5761205.1291],[32557128.4541,5761212.5972],[32568568.4873,5761356.6823],[32568415.5792,5772477.3965],[32568410.9918,5772810.5808]],[[32557535.194,5769777.5654],[32557590.5513,5769718.5549],[32557585.7655,5769706.754],[32557576.1691,5769683.0913],[32557531.3115,5769607.1397],[32557502.6148,5769568.6656],[32557411.5449,5769463.7396],[32557412.8665,5769485.2274],[32557408.6628,5769503.2181],[32557396.1811,5769519.2114],[32557377.909,5769527.2104],[32557334.0864,5769540.2117],[32557304.5716,5769559.7068],[32557273.3388,5769590.6959],[32557246.8763,5769624.1827],[32557227.6732,5769654.6698],[32557212.9206,5769686.3827],[32557171.4109,5769775.6141],[32557190.6777,5769765.1156],[32557210.9693,5769761.6128],[32557235.5539,5769768.1036],[32557261.5238,5769785.5571],[32557279.5235,5769774.9395],[32557336.7432,5769753.2018],[32557344.952,5769756.3272],[32557455.9394,5769850.6208],[32557466.8669,5769872.6368],[32557480.4275,5769910.7231],[32557482.8824,5769920.0366],[32557485.945,5769931.6553],[32557490.3889,5769940.0275],[32557497.8321,5769945.1253],[32557512.8771,5769950.99],[32557529.4083,5769954.0724],[32557539.5733,5769953.8073],[32557547.8822,5769951.1425],[32557557.1208,5769941.9146],[32557583.385,5769889.9577],[32557570.9522,5769863.6505],[32557568.3382,5769859.2604],[32557555.269,5769837.3113],[32557541.3149,5769817.03],[32557533.725,5769805.9987],[32557529.8051,5769797.3318],[32557529.3074,5769789.0932],[32557535.194,5769777.5654]],[[32557553.5838,5771425.164],[32557542.9914,5771408.8686],[32557500.2057,5771410.8118],[32557482.6912,5771411.6072],[32557463.9484,5771408.0462],[32557447.672,5771397.4536],[32557421.2847,5771372.9398],[32557386.4982,5771377.5595],[32557367.4946,5771381.875],[32557364.2002,5771385.0448],[32557330.9245,5771447.0354],[32557329.9867,5771557.5809],[32557331.5921,5771571.9937],[32557333.8662,5771576.1684],[32557421.7974,5771679.1087],[32557472.1621,5771679.9168],[32557491.436,5771676.738],[32557656.459,5771600.1552],[32557665.077,5771595.574],[32557673.1509,5771588.6829],[32557674.2985,5771587.2092],[32557641.6466,5771563.8873],[32557623.1828,5771532.236],[32557588.8929,5771479.4839],[32557553.5838,5771425.164]]],"crs":{"type":"EPSG","properties":{"code":4647}}},"properties":{"FL_NR":2631,"BR":5,"BR_NAME":"BERGLAND","TKNR":3924,"TKNAME":"Hildesheim","UP_DATE":"2018-09-06T14:12:10.0000000"}}]}