{"type": "FeatureCollection","features":[{"type":"Feature","geometry":{"type":"Polygon","coordinates":[[[32564886.5175,5787388.1947],[32564832.129,5787383.1587],[32564706.3736,5787371.5147],[32564669.0563,5787368.0594],[32564525.76,5787354.7912],[32564463.7862,5787350.8176],[32564447.0432,5787352.3256],[32564431.5496,5787355.8338],[32564417.3055,5787361.8421],[32564403.8111,5787370.8509],[32564371.5742,5787401.3737],[32564351.0826,5787427.8886],[32564294.1835,5787242.4477],[32564283.1078,5787206.3506],[32564266.1142,5787171.3468],[32564248.1212,5787143.8458],[32564234.1267,5787125.8462],[32564207.7952,5787223.2114],[32564201.745,5787245.583],[32564190.8896,5787285.7229],[32564179.4526,5787328.0133],[32564174.0355,5787348.0439],[32564157.1605,5787410.4423],[32564144.1663,5787414.4453],[32564130.9221,5787415.448],[32564117.178,5787413.9503],[32564103.6838,5787410.4525],[32564090.1892,5787403.9544],[32564077.1944,5787394.9562],[32564064.699,5787382.9578],[32564053.4527,5787368.4591],[32564043.2059,5787350.4601],[32564033.9583,5787328.4606],[32564017.7123,5787275.9599],[32564003.3695,5787217.8998],[32563985.4721,5787145.4504],[32563960.7319,5787054.4397],[32563941.2397,5786993.4321],[32563931.2438,5786966.9291],[32563910.0022,5786924.9263],[32563881.5134,5786879.4254],[32563850.0257,5786833.9258],[32563798.2959,5786768.9295],[32563788.5497,5786753.4292],[32563770.5569,5786717.927],[32563740.5689,5786645.4191],[32563722.576,5786614.4182],[32563710.8306,5786600.4194],[32563684.0909,5786575.9244],[32563670.0964,5786566.9282],[32563656.3516,5786560.4326],[32563643.6064,5786557.4374],[32563631.8608,5786556.4424],[32563611.3682,5786558.9521],[32563586.156,5786567.1591],[32563542.1425,5786581.4861],[32563521.6497,5786584.9947],[32563501.4068,5786583.5018],[32563481.4138,5786578.5078],[32563462.1708,5786570.513],[32563425.6842,5786549.5214],[32563376.2024,5786515.0317],[32563357.3083,5786500.6437],[32563326.9705,5786477.5414],[32563296.9815,5786459.0478],[32563284.2359,5786454.551],[32563273.2397,5786453.5539],[32563263.2431,5786456.5571],[32563253.2463,5786462.5604],[32563243.7494,5786470.0635],[32563228.7545,5786491.0687],[32563224.006,5786503.5706],[32563221.7567,5786517.0716],[32563222.5066,5786531.0722],[32563226.7551,5786544.5719],[32563234.0024,5786557.0709],[32563244.2487,5786568.5694],[32563271.7386,5786591.065],[32563308.815,5786614.8452],[32563468.9154,5786717.5313],[32563551.1349,5786772.5168],[32563608.3637,5786813.0067],[32563651.0977,5786851.5002],[32563700.0794,5786903.9941],[32563744.3128,5786960.4898],[32563761.5565,5786987.4888],[32563773.5522,5787011.4887],[32563781.5495,5787035.4893],[32563788.0477,5787061.9903],[32563792.7968,5787089.4913],[32563799.0477,5787145.4925],[32563805.0556,5787232.4898],[32563801.5613,5787270.484],[32563789.0587,5787326.9689],[32563139.3737,5787063.4834],[32562984.6338,5787000.7273],[32562968.6386,5786980.2307],[32562948.1457,5786959.7361],[32562924.9042,5786939.7428],[32562875.6721,5786905.7595],[32562853.1791,5786893.7686],[32562833.6834,5786886.2779],[32562819.1847,5786883.7868],[32562809.1828,5786887.2959],[32562801.6786,5786894.3058],[32562793.4171,5786914.3269],[32562789.9084,5786940.8514],[32562748.715,5786761.7898],[32562734.9641,5786714.2825],[32562713.716,5786669.7771],[32562687.9723,5786627.2724],[32562651.7344,5786574.9861],[32562642.7371,5786559.1137],[32562635.4879,5786542.1197],[32562629.7368,5786523.6261],[32562623.239,5786486.1086],[32562621.987,5786468.6139],[32562622.9818,5786438.1197],[32562630.4798,5786407.6233],[32562644.2187,5786368.1294],[32562680.4608,5786281.6433],[32562690.4602,5786263.1485],[32562702.2065,5786249.1517],[32562715.7004,5786238.6529],[32562730.4434,5786231.6521],[32562746.186,5786227.6501],[32562762.6789,5786226.6479],[32562779.9217,5786227.6455],[32562797.1647,5786231.1429],[32562826.6533,5786241.6383],[32562860.8903,5786257.6326],[32562872.3859,5786259.6308],[32562885.6308,5786259.1287],[32562900.6251,5786255.1262],[32562914.1202,5786248.1239],[32562922.1174,5786238.1222],[32562925.1165,5786225.6215],[32562924.367,5786211.6213],[32562920.6187,5786196.6218],[32562914.3713,5786180.6226],[32562898.6277,5786149.625],[32562842.1503,5786055.1344],[32562784.9233,5785966.6445],[32562755.9349,5785925.1501],[32562729.1953,5785891.1556],[32562706.7039,5785867.1605],[32562686.7111,5785853.6652],[32562666.4679,5785847.1701],[32562646.4744,5785846.6749],[32562627.4804,5785850.1793],[32562609.4861,5785856.6832],[32562593.2411,5785864.6865],[32562551.7541,5785889.6935],[32562415.3094,5785961.2091],[32562380.0722,5785981.7061],[32562351.3269,5786000.7005],[32562332.0802,5786017.1977],[32562320.5852,5786031.6976],[32562312.3415,5786045.6966],[32562303.3487,5786069.6931],[32562301.3501,5786092.1894],[32562335.0851,5786081.1896],[32562371.0656,5786071.6877],[32562413.5533,5786063.6867],[32562457.2934,5786060.6888],[32562497.7804,5786066.1884],[32562516.2736,5786072.6868],[32562533.517,5786081.1847],[32562549.5111,5786092.1823],[32562563.506,5786105.6795],[32562575.7518,5786121.1767],[32562585.4985,5786137.1737],[32562593.4958,5786154.1704],[32562603.4911,5786188.1631],[32562606.2365,5786220.655],[32562605.4842,5786235.6511],[32562600.9806,5786263.6449],[32562592.7331,5786291.1425],[32562578.7452,5786317.1402],[32562569.0014,5786329.6383],[32562557.0065,5786341.1368],[32562496.7858,5786390.1832],[32562456.3122,5786425.8529],[32562446.8185,5786436.365],[32562433.8225,5786454.8831],[32562426.5695,5786472.3984],[32562422.3121,5786493.4159],[32562413.8009,5786548.9747],[32562409.3031,5786591.0514],[32562402.0564,5786645.7026],[32562387.8123,5786693.3878],[32562378.3162,5786714.4838],[32562367.8203,5786733.576],[32562343.08,5786765.7429],[32562330.0851,5786777.3083],[32562317.59,5786784.8581],[32562305.0949,5786787.8954],[32562292.3498,5786788.4195],[32562279.3547,5786786.4206],[32562214.3796,5786764.9312],[32562155.6522,5786738.4434],[32562045.6944,5786682.4691],[32562041.1961,5786670.9738],[32562035.698,5786643.9847],[32562032.449,5786598.5029],[32562018.454,5786537.5277],[32562014.2053,5786495.5446],[32562014.7051,5786475.0527],[32562020.2027,5786434.9488],[32562024.4509,5786415.382],[32562035.1966,5786376.7286],[32562047.9063,5786340.5409],[32562059.1867,5786308.4226],[32562060.9359,5786290.8632],[32562057.6868,5786257.2784],[32562049.4398,5786229.2309],[32562041.1929,5786211.7123],[32561994.7103,5786154.21],[32561963.972,5786112.7009],[32561957.9742,5786100.1894],[32561953.9756,5786086.1704],[32561942.7295,5786028.0997],[32561936.9817,5786015.5944],[32561928.7349,5786004.5947],[32561918.7386,5785996.6004],[32561908.7425,5785991.61],[32561898.2465,5785990.1258],[32561887.5006,5785991.1483],[32561863.7599,5785999.7225],[32561836.2705,5786015.8474],[32561821.5265,5786026.4296],[32561794.7871,5786056.1259],[32561773.5456,5786089.8213],[32561759.8011,5786120.9736],[32561750.8048,5786157.1107],[32561737.81,5786183.1775],[32561728.3137,5786195.6728],[32561716.3185,5786207.1685],[32561701.5743,5786217.6648],[32561684.0811,5786226.1619],[32561665.8381,5786231.6602],[32561649.3445,5786233.6599],[32561622.1051,5786231.1617],[32561598.1143,5786221.6661],[32561579.3715,5786214.6695],[32561554.1311,5786199.6763],[32561540.3864,5786188.1813],[32561527.6412,5786173.6874],[32561516.6454,5786155.695],[32561499.6515,5786115.2116],[32561493.9036,5786094.2202],[32561490.1549,5786072.2291],[32561488.9052,5786049.2384],[32561490.6544,5786025.2479],[32561495.1524,5785999.758],[32561512.8952,5785943.78],[32561528.6386,5785885.1097],[32561544.1364,5785813.7896],[32561551.8787,5785778.1599],[32561579.6174,5785701.3337],[32561602.6084,5785645.1825],[32561632.9574,5785668.0332],[32561653.3603,5785683.3951],[32561693.7032,5785713.7705],[32561704.0271,5785721.5436],[32561754.5599,5785759.5913],[32561747.3763,5785776.3356],[32561739.3067,5785795.1449],[32561742.4308,5785794.6259],[32561803.0459,5785784.5564],[32561849.5269,5785772.4949],[32561900.7499,5785753.2728],[32562076.9335,5785680.275],[32562131.4104,5785662.2713],[32562176.8919,5785656.7656],[32562201.1327,5785656.2623],[32562255.015,5785658.6108],[32562292.5998,5785660.2489],[32562347.0814,5785657.2403],[32562390.5676,5785650.7328],[32562412.8107,5785645.2286],[32562434.0542,5785638.2244],[32562453.7984,5785629.22],[32562471.0435,5785618.216],[32562485.7896,5785603.7121],[32562498.7864,5785586.2083],[32562510.0338,5785566.2047],[32562527.2802,5785525.6979],[32562544.5265,5785472.1894],[32562568.0202,5785406.6769],[32562576.3977,5785411.9211],[32562596.7595,5785424.6671],[32562639.4935,5785445.6521],[32562669.2325,5785455.1412],[32562701.1414,5785463.0866],[32562749.762,5785475.1933],[32562757.4492,5785477.1074],[32562737.9559,5785554.1229],[32562733.207,5785589.6286],[32562732.9567,5785604.6303],[32562733.706,5785618.6314],[32562740.9527,5785645.6316],[32562747.9499,5785658.6303],[32562757.946,5785671.6279],[32562788.4345,5785699.6194],[32562807.6773,5785713.6137],[32562827.42,5785725.1074],[32562848.1623,5785734.6003],[32562869.6545,5785743.093],[32562916.3873,5785757.5758],[32562996.1074,5785776.545],[32563044.339,5785785.5257],[32563102.3164,5785793.0021],[32563132.3044,5785794.4896],[32563145.549,5785793.484],[32563172.7879,5785784.972],[32563185.2826,5785777.4664],[32563196.7777,5785767.4612],[32563206.7733,5785755.4568],[32563214.7696,5785740.9533],[32563220.2669,5785723.951],[32563222.2656,5785702.4503],[32563220.2659,5785676.4515],[32563209.0196,5785619.4579],[32563189.5267,5785551.9704],[32563191.8479,5785550.4316],[32563230.2572,5785524.9698],[32563250.9904,5785503.987],[32563257.7476,5785492.4871],[32563236.1058,5785482.4437],[32563146.7902,5785440.9947],[32563065.3252,5785400.514],[32563034.8374,5785383.5211],[32563017.5942,5785371.0259],[32563009.0975,5785361.5288],[32562996.3524,5785341.0347],[32562990.3549,5785320.5398],[32562991.5993,5785302.0435],[32562995.5971,5785294.0445],[32563002.5973,5785288.0447],[32563013.0937,5785284.0462],[32563041.3262,5785282.0538],[32563062.9737,5785282.3973],[32563103.5529,5785283.0413],[32563129.2979,5785277.5443],[32563141.8049,5785272.5471],[32563175.547,5785251.0168],[32563297.5029,5785134.7915],[32563311.2465,5785124.8059],[32563331.4891,5785114.8329],[32563380.2261,5785096.382],[32563442.9587,5785077.9376],[32563497.4243,5785053.8803],[32563511.6615,5785046.1411],[32563531.1418,5785030.6109],[32563535.1362,5785022.2839],[32563538.3783,5785003.4272],[32563535.3725,5784971.4324],[32563494.1449,5784958.949],[32563478.9032,5784952.4554],[32563445.1713,5784935.8063],[32563426.9303,5784924.2272],[32563407.1897,5784910.1635],[32563365.9578,5784876.5903],[32563309.9799,5784823.5938],[32563281.2394,5784790.6722],[32563250.2466,5784745.8787],[32563234.7495,5784720.518],[32563195.5061,5784648.5996],[32563162.2624,5784574.1228],[32563151.266,5784554.6298],[32563138.5206,5784536.1372],[32563124.2761,5784519.145],[32563108.2825,5784504.653],[32563070.7984,5784481.67],[32563050.8069,5784467.1794],[32563009.5736,5784429.7002],[32562967.8399,5784382.2228],[32562927.1053,5784325.7468],[32562885.8721,5784255.7737],[32562828.085,5784147.9837],[32562767.4368,5784034.857],[32562738.2071,5783973.3797],[32562707.9803,5783902.4052],[32562683.7509,5783835.8311],[32562676.0083,5783809.7226],[32562663.2728,5783748.452],[32562636.2882,5783585.6134],[32562693.6614,5783576.9231],[32562716.1663,5783570.2389],[32562735.5037,5783559.362],[32562744.0008,5783562.87],[32562777.9903,5783589.3786],[32562822.478,5783634.8766],[32562844.2219,5783661.3841],[32562863.715,5783688.9067],[32562878.7097,5783715.9464],[32562940.1843,5783849.8634],[32562964.1738,5783890.7596],[32562975.6692,5783905.7445],[32562997.1612,5783927.2616],[32563017.4041,5783942.8153],[32563027.6509,5783947.3727],[32563038.6478,5783950.4517],[32563050.6446,5783951.5487],[32563063.8912,5783950.1376],[32563077.6375,5783945.156],[32563090.3832,5783936.544],[32563113.623,5783910.5848],[32563126.7433,5783891.6877],[32563167.3557,5783833.1936],[32563178.8525,5783819.7238],[32563193.3483,5783806.7548],[32563211.3429,5783796.2827],[32563233.5862,5783788.3073],[32563260.5778,5783784.8248],[32563293.0675,5783786.8332],[32563327.5563,5783793.3324],[32563360.0458,5783803.3236],[32563390.2859,5783815.8094],[32563444.5178,5783845.2721],[32563532.2953,5783906.8606],[32563603.9634,5783959.1171],[32563630.2043,5783980.0881],[32563678.6873,5784024.032],[32563698.6802,5784046.5081],[32563715.7657,5784008.6498],[32563738.4153,5783958.4623],[32563759.1565,5783923.4334],[32563766.4034,5783905.9253],[32563772.9006,5783885.4209],[32563776.8988,5783863.4234],[32563778.1484,5783838.9339],[32563776.1493,5783815.4507],[32563764.9925,5783762.2168],[32563759.653,5783736.7394],[32563758.4161,5783723.1314],[32563758.5916,5783709.0463],[32563766.6661,5783678.8257],[32563778.776,5783651.6266],[32563792.3982,5783628.9435],[32563816.6113,5783594.632],[32563862.8963,5783542.74],[32564263.7486,5783547.8018],[32564266.4551,5783552.4297],[32564294.2175,5783615.3765],[32564326.7031,5783698.3676],[32564353.4393,5783779.3687],[32564359.9354,5783810.8669],[32564362.9328,5783840.8591],[32564368.6783,5783958.7449],[32564370.9246,5784073.5668],[32564370.4294,5784125.2462],[32564365.4368,5784167.9635],[32564355.9391,5784206.0292],[32564341.936,5784240.4064],[32564333.4348,5784256.3196],[32564303.9428,5784299.7698],[32564277.1918,5784330.7037],[32564273.9654,5784334.4346],[32564263.7274,5784350.6036],[32564255.3703,5784363.8021],[32564243.6949,5784382.2413],[32564231.9483,5784400.7928],[32564225.9103,5784410.3287],[32564216.7399,5784424.8117],[32564187.7519,5784492.9532],[32564165.2563,5784555.0565],[32564152.7551,5784602.1003],[32564137.2492,5784674.6128],[32564137.2452,5784704.601],[32564131.744,5784730.0859],[32564125.9949,5784742.0762],[32564117.4973,5784751.5663],[32564106.8527,5784760.3519],[32564075.7576,5784786.0164],[32564058.7566,5784805.9919],[32564052.7552,5784816.9817],[32564049.0034,5784828.4723],[32564044.7469,5784870.438],[32564045.2418,5784947.7555],[32564048.9866,5784967.7511],[32564052.2336,5784976.7486],[32564055.9807,5784984.7462],[32564065.4753,5784997.7409],[32564084.469,5785010.2326],[32564098.9628,5785023.7256],[32564110.4552,5785043.2187],[32564113.9507,5785055.7157],[32564115.8231,5785101.8133],[32564119.6364,5785195.6943],[32564119.7102,5785264.1856],[32564117.4765,5785291.0503],[32564116.9832,5785296.9838],[32564115.2122,5785318.2839],[32564114.2816,5785329.477],[32564112.9345,5785345.6783],[32563965.2719,5785105.7606],[32563971.5127,5785138.2541],[32563976.3932,5785176.9759],[32563988.4623,5785272.7315],[32563993.4526,5785304.726],[32564003.6915,5785352.7169],[32564024.1826,5785424.7018],[32564046.4315,5785492.6868],[32564061.4317,5785529.589],[32564083.4289,5785569.7993],[32564122.9202,5785627.5008],[32564145.9133,5785655.9057],[32564157.6587,5785667.3988],[32564205.6372,5785706.4788],[32564246.0765,5785736.1854],[32564282.8508,5785763.1997],[32564333.4184,5785806.3603],[32564352.071,5785822.2807],[32564366.315,5785834.7921],[32564379.5604,5785850.248],[32564392.8059,5785865.704],[32564406.0514,5785881.1601],[32564419.2971,5785896.6164],[32564418.156,5785883.1074],[32564415.7182,5785854.2478],[32564415.019,5785845.971],[32564412.7848,5785819.5227],[32564463.5142,5785840.0026],[32564529.494,5785859.4771],[32564551.7393,5785863.9687],[32564582.9854,5785865.9573],[32564599.7349,5785863.4515],[32564606.7357,5785859.4494],[32564642.7864,5785748.2913],[32564667.1663,5785673.1186],[32564688.1917,5785614.4464],[32564697.4426,5785594.2245],[32564709.4422,5785574.2537],[32564723.6941,5785555.2673],[32564739.4476,5785538.2675],[32564755.7019,5785523.2662],[32564771.9561,5785511.2691],[32564787.2097,5785501.7768],[32564798.9747,5785497.4276],[32564800.7113,5785496.7856],[32564815.2114,5785494.7951],[32564833.9599,5785495.3068],[32564855.9564,5785498.3194],[32564880.7008,5785504.3307],[32564906.9429,5785512.3391],[32564934.6831,5785523.3431],[32564962.6725,5785536.3428],[32564990.1624,5785551.8399],[32565018.9018,5785570.3353],[32565049.1407,5785592.3297],[32565109.618,5785641.3185],[32565136.8575,5785665.8143],[32565178.841,5785707.3098],[32565190.8362,5785721.3094],[32565198.5827,5785733.8101],[32565210.0772,5785763.3111],[32565213.5754,5785779.3084],[32565215.3213,5785811.2896],[32565213.0679,5785826.2737],[32565208.3138,5785840.2551],[32565200.8091,5785852.7359],[32565189.8041,5785863.7177],[32565175.5493,5785872.7037],[32565158.5444,5785881.1955],[32565117.0367,5785895.7029],[32565073.5488,5785907.1432],[32565015.93,5785922.3009],[32564958.5624,5785937.3926],[32564908.1123,5785950.6645],[32564864.8237,5785962.0524],[32564844.2024,5785967.4772],[32564807.8868,5785977.0307],[32564760.9308,5785989.3834],[32564740.2647,5785994.5695],[32564724.0135,5785998.6477],[32564719.5965,5785999.7561],[32564689.182,5786007.3886],[32564675.8966,5786010.7226],[32564655.1905,5786015.9188],[32564660.9803,5786027.0013],[32564707.4199,5786115.8923],[32564751.6653,5786194.1469],[32564778.1517,5786240.9919],[32564795.901,5786281.6847],[32564806.6554,5786321.3613],[32564809.159,5786340.2268],[32564809.4131,5786358.6346],[32564806.4179,5786378.6088],[32564800.1716,5786401.0883],[32564782.1743,5786448.0282],[32564756.4256,5786501.4744],[32564714.688,5786554.446],[32564663.4589,5786531.4317],[32564635.2206,5786521.4171],[32564624.2255,5786519.4135],[32564604.9848,5786520.9165],[32564595.7396,5786524.4257],[32564587.9939,5786530.9418],[32564582.7471,5786539.4625],[32564580.9986,5786551.4873],[32564583.4981,5786566.5127],[32564591.2453,5786585.537],[32564564.2564,5786563.552],[32564531.7695,5786543.085],[32564516.7754,5786537.1091],[32564505.2798,5786537.64],[32564498.7817,5786546.1767],[32564498.7809,5786562.7129],[32564504.2781,5786584.2418],[32564514.5235,5786610.2621],[32564543.0098,5786666.2707],[32564586.6904,5786737.7582],[32564651.1317,5786826.7442],[32564740.8537,5786942.2312],[32564789.5912,5787000.2262],[32564890.055,5787111.7175],[32564919.5437,5787149.2143],[32564957.0913,5787217.7153],[32564968.1221,5787243.2191],[32564972.6415,5787262.7237],[32564961.085,5787293.7345],[32564939.7989,5787333.7316],[32564925.073,5787354.7046],[32564907.3114,5787373.1949],[32564886.5175,5787388.1947]],[[32564109.2001,5785738.6919],[32564077.7128,5785694.7126],[32564099.4498,5785776.6463],[32564118.9369,5785836.1043],[32564130.6799,5785866.5862],[32564174.4073,5785965.038],[32564202.1726,5786023.2649],[32564247.8209,5786118.9944],[32564256.6234,5786137.4541],[32564317.8525,5786247.964],[32564343.0933,5786287.4774],[32564355.5885,5786303.4803],[32564368.0836,5786316.9798],[32564380.3284,5786326.9745],[32564392.3232,5786333.465],[32564403.8178,5786335.9524],[32564414.8124,5786333.9391],[32564422.8079,5786327.9308],[32564425.8058,5786318.4293],[32564424.8056,5786305.9326],[32564421.0567,5786291.9395],[32564402.3143,5786243.9673],[32564395.1227,5786220.9543],[32564384.8224,5786187.9935],[32564365.3326,5786133.5152],[32564340.846,5786075.5404],[32564327.353,5786049.0525],[32564313.6098,5786025.563],[32564260.884,5785949.5946],[32564109.2001,5785738.6919]],[[32563891.2752,5785888.6732],[32563880.0296,5785878.6786],[32563873.2819,5785880.1973],[32563870.5323,5785889.7233],[32563870.5313,5785905.2554],[32563872.7791,5785923.2861],[32563879.2742,5785957.3311],[32563909.2408,5786050.3514],[32563981.7118,5786258.3271],[32564001.9249,5786307.8243],[32564043.4305,5786399.7898],[32564063.9178,5786439.2781],[32564083.4073,5786472.2756],[32564101.6465,5786496.2728],[32564118.3925,5786510.7705],[32564132.8897,5786512.7684],[32564136.6418,5786504.7737],[32564134.1433,5786486.7858],[32564126.3858,5786460.7999],[32564069.941,5786308.8073],[32564007.4711,5786132.3393],[32563968.7401,5786035.2958],[32563948.5001,5785990.2526],[32563928.0096,5785948.713],[32563908.0183,5785913.185],[32563891.2752,5785888.6732]]],"crs":{"type":"EPSG","properties":{"code":4647}}},"properties":{"FL_NR":35737,"BR":4,"BR_NAME":"BERGVORLAND","BGL":10,"BGL_NAME":" Lössbörde","BL":10,"BL_NAME":"Lehmgebiete","BR_BGL_BL_NAME":"BERGVORLAND /  Lössbörde / Lehmgebiete","TKNR":null,"TKNAME":null,"UP_DATE":"2018-09-06T14:14:17.0000000"}}]}