{"type": "FeatureCollection","features":[{"type":"Feature","geometry":{"type":"Polygon","coordinates":[[[32565236.4212,5774780.9848],[32565220.9674,5774788.712],[32565138.5835,5774812.2517],[32565075.8146,5774812.2526],[32565032.6611,5774812.2532],[32564973.8155,5774827.9462],[32564934.5856,5774871.1002],[32564879.6636,5774926.0238],[32564826.2031,5774992.8515],[32564825.3907,5774935.4168],[32564737.0331,5774839.6789],[32564734.3208,5774830.5186],[32564731.547,5774806.8535],[32564725.3339,5774745.2582],[32564728.5785,5774731.3407],[32564745.8989,5774701.96],[32564752.3555,5774691.0077],[32564825.2682,5774567.3251],[32564826.3931,5774547.6354],[32564825.3827,5774387.4283],[32564944.8266,5774208.1525],[32564955.6573,5774176.7318],[32564958.6323,5774168.1012],[32564962.905,5774155.7058],[32565006.4664,5774203.6219],[32565064.0376,5774266.9484],[32565100.9478,5774312.375],[32565115.0382,5774329.7165],[32565117.8719,5774343.1755],[32565146.4248,5774478.7919],[32565166.0405,5774514.0992],[32565260.1949,5774592.5588],[32565303.3496,5774667.0962],[32565303.3503,5774714.1729],[32565291.5818,5774753.4035],[32565236.4212,5774780.9848]]],"crs":{"type":"EPSG","properties":{"code":4647}}},"properties":{"FL_NR":469130,"BKF_SZ_1991_2020":3.8,"BKF_FJZ_1991_2020":6,"EIGNUNG":4,"BKF":6}}]}