{"type": "FeatureCollection","features":[{"type":"Feature","geometry":{"type":"Polygon","coordinates":[[[32562899.8164,5773985.2343],[32562915.7819,5774004.6531],[32562940.3773,5774027.9568],[32562966.2671,5774049.1035],[32562987.8419,5774062.9146],[32563009.4166,5774070.6855],[32563033.5801,5774075.4368],[32563060.1669,5774076.8974],[32563109.4682,5774073.0509],[32563146.2772,5774061.5647],[32563160.2913,5774054.5712],[32563170.7883,5774045.0782],[32563180.7681,5774030.5877],[32563186.9044,5774015.1733],[32563189.7199,5774008.1008],[32563197.6323,5773974.1195],[32563196.0137,5773938.1371],[32563182.8953,5773911.6476],[32563168.056,5773895.6523],[32563161.0203,5773890.1535],[32563067.3744,5773863.8166],[32563020.5301,5773850.6421],[32562974.3578,5773834.1397],[32562936.473,5773822.6368],[32562906.3741,5773816.133],[32562886.0715,5773816.1283],[32562880.3979,5773817.0572],[32562867.7835,5773819.1225],[32562850.768,5773828.114],[32562834.7774,5773844.1024],[32562825.8161,5773863.5907],[32562826.3747,5773881.5819],[32562833.6994,5773899.0749],[32562899.8164,5773985.2343],[32562893.7754,5773980.487],[32562882.1251,5773978.327],[32562843.291,5773983.0639],[32562811.7924,5773984.3508],[32562803.5941,5773988.2318],[32562803.5463,5773988.3121],[32562794.1017,5774004.1932],[32562782.8832,5774018.4282],[32562776.411,5774023.604],[32562761.3089,5774028.3463],[32562724.2008,5774031.3576],[32562712.9822,5774034.3749],[32562706.0785,5774043.0022],[32562701.3325,5774063.7104],[32562704.353,5774067.1628],[32562736.7541,5774082.5594],[32562738.8725,5774083.5661],[32562769.0772,5774101.6939],[32562810.5007,5774121.9817],[32562822.6718,5774125.5639],[32562775.5499,5774116.3646],[32562730.613,5774102.9264],[32562674.614,5774086.1802],[32562667.6766,5774084.4117],[32562653.4375,5774083.9768],[32562634.452,5774086.5609],[32562605.9739,5774096.4771],[32562583.9798,5774112.4083],[32562535.5018,5774158.8731],[32562510.7336,5774173.3597],[32562485.6876,5774179.3503],[32562462.1328,5774181.3434],[32562441.3241,5774179.8389],[32562367.079,5774163.328],[32562334.6029,5774152.2269],[32562263.1965,5774127.8186],[32562290.2206,5774113.3329],[32562319.0104,5774102.3459],[32562353.5794,5774095.8582],[32562386.4034,5774092.3683],[32562412.6995,5774085.3785],[32562426.573,5774079.1572],[32562434.9755,5774075.3892],[32562464.3272,5774053.4321],[32562489.7373,5774034.4235],[32562505.5076,5774027.9307],[32562543.1052,5774027.9401],[32562566.1475,5774022.4487],[32562589.1786,5774013.4588],[32562628.7194,5773993.9784],[32562648.5096,5773990.4849],[32562667.8081,5773989.9899],[32562706.9175,5773992.4981],[32562736.2357,5773990.0064],[32562761.6193,5773982.3232],[32562764.2815,5773981.5174],[32562783.2751,5773964.0307],[32562791.9555,5773935.0471],[32562794.3457,5773898.5658],[32562788.2122,5773861.5827],[32562771.5704,5773830.594],[32562745.1629,5773802.6015],[32562714.2437,5773774.6079],[32562683.3388,5773751.1119],[32562657.4804,5773738.112],[32562585.8533,5773756.5851],[32562558.0455,5773761.0759],[32562505.1662,5773763.5614],[32562482.8424,5773758.5582],[32562473.0224,5773744.5625],[32562478.4857,5773728.5718],[32562494.2432,5773718.081],[32562517.0301,5773711.0902],[32562608.9663,5773694.6214],[32562634.5071,5773686.6316],[32562641.9932,5773676.1387],[32562628.4182,5773663.6414],[32562619.8404,5773646.1479],[32562616.2595,5773623.658],[32562618.4341,5773598.171],[32562628.5929,5773561.1916],[32562647.2324,5773511.2206],[32562662.7304,5773476.1275],[32562670.6246,5773458.2522],[32562695.2908,5773411.7808],[32562727.7113,5773360.3137],[32562817.0203,5773227.3994],[32562907.7148,5773097.9447],[32562953.2714,5773038.0222],[32562988.9852,5772997.5496],[32563025.4735,5772964.0739],[32563060.7371,5772939.5934],[32563092.0126,5772922.1088],[32563117.0442,5772911.6193],[32563142.09,5772905.6276],[32563181.9763,5772903.8999],[32563214.025,5772905.1436],[32563257.4082,5772911.6498],[32563303.06,5772922.1545],[32563349.2242,5772936.1576],[32563394.148,5772954.1583],[32563435.5738,5772975.6566],[32563475.2627,5773002.6518],[32563515.4655,5773033.6451],[32563553.9202,5773066.6368],[32563589.3687,5773100.1278],[32563625.8548,5773144.6135],[32563665.1395,5773202.0934],[32563728.3811,5773305.0556],[32563756.085,5773346.5405],[32563830.3488,5773447.5048],[32563822.3662,5773459.4975],[32563817.8928,5773471.4909],[32563818.4372,5773484.9843],[32563826.9959,5773496.4802],[32563845.073,5773505.9788],[32563872.9175,5773512.9803],[32563911.2829,5773517.9846],[32563961.9782,5773519.6424],[32563996.5042,5773517.9992],[32564036.5939,5773513.508],[32564074.9226,5773507.0176],[32564107.4801,5773498.5271],[32564133.2604,5773487.0369],[32564155.5189,5773471.548],[32564177.514,5773452.0611],[32564198.2462,5773429.5753],[32564239.1918,5773379.1062],[32564253.4566,5773372.1118],[32564272.7503,5773370.1157],[32564293.8082,5773371.1184],[32564330.2532,5773377.6863],[32564355.7459,5773379.6235],[32564380.8014,5773376.6287],[32564407.0894,5773367.1372],[32564429.351,5773352.6474],[32564443.5887,5773337.157],[32564451.054,5773320.1662],[32564453.2523,5773302.1753],[32564454.308,5773240.2054],[32564477.1075,5773237.2101],[32564501.8981,5773229.7171],[32564531.6744,5773213.7289],[32564562.182,5773191.2439],[32564588.6792,5773168.7583],[32564614.1674,5773144.2733],[32564611.953,5773157.2669],[32564612.5213,5773178.2568],[32564615.6008,5773200.7464],[32564620.8445,5773213.9107],[32564622.1703,5773217.2393],[32564633.7338,5773227.7358],[32564649.0458,5773234.7345],[32564664.8494,5773238.7346],[32564688.6645,5773239.7372],[32564699.2094,5773245.2359],[32564706.0088,5773255.232],[32564705.3047,5773270.2247],[32564698.5913,5773287.2156],[32564680.6433,5773318.1983],[32564654.1652,5773346.6811],[32564618.172,5773378.1611],[32564442.8249,5773490.5821],[32564406.8126,5773516.0644],[32564374.5696,5773544.5457],[32564346.5924,5773574.5269],[32564322.8778,5773605.0083],[32564303.4435,5773641.4874],[32564287.0424,5773685.9629],[32564258.2603,5773777.9128],[32564241.3134,5773808.395],[32564222.3086,5773822.385],[32564185.2505,5773834.3733],[32564168.9981,5773846.8644],[32564152.7616,5773864.3532],[32564138.789,5773884.341],[32564129.3296,5773904.8291],[32564125.145,5773928.8164],[32564125.2487,5773961.3001],[32564133.0376,5774045.7589],[32564140.849,5774095.4308],[32564165.7139,5774231.6698],[32564202.6116,5774405.0869],[32564206.9938,5774443.0681],[32564204.1055,5774480.5483],[32564196.4629,5774520.5265],[32564180.4356,5774525.0217],[32564166.1533,5774526.5187],[32564152.1088,5774524.0178],[32564117.7171,5774507.5208],[32564098.3771,5774495.0241],[32564082.5351,5774479.0298],[32564071.1872,5774457.5389],[32564063.331,5774430.5516],[32564059.4224,5774403.8703],[32564058.7188,5774399.067],[32564055.5086,5774335.5989],[32564052.4243,5774311.6107],[32564046.0783,5774286.6225],[32564034.194,5774254.137],[32564017.067,5774228.1474],[32563997.2416,5774220.6479],[32563978.1906,5774220.145],[32563962.1377,5774216.644],[32563951.0613,5774201.6497],[32563943.2178,5774178.6602],[32563931.0224,5774127.1841],[32563920.9389,5774109.1915],[32563906.1187,5774099.194],[32563901.0933,5774098.2828],[32563889.5662,5774096.1926],[32563874.5352,5774098.6888],[32563860.5338,5774109.6808],[32563847.8403,5774127.5681],[32563836.3514,5774150.6558],[32563830.6485,5774170.1448],[32563827.5984,5774200.254],[32563820.9286,5774266.0944],[32563814.2949,5774308.0717],[32563802.3832,5774345.5506],[32563784.44,5774378.0307],[32563743.044,5774444.4893],[32563726.6221,5774482.4668],[32563717.2138,5774518.9463],[32563714.8141,5774552.4287],[32563720.1701,5774581.4147],[32563733.0251,5774603.9054],[32563752.1304,5774621.3999],[32563776.2358,5774634.8972],[32563803.3428,5774646.396],[32563837.709,5774654.8977],[32563880.0802,5774658.4033],[32563925.191,5774656.4121],[32563967.0241,5774648.4233],[32563997.8287,5774640.4326],[32564016.8781,5774640.4357],[32564027.6785,5774647.4338],[32564034.4922,5774661.9275],[32564028.285,5774680.4168],[32564004.2799,5774698.4036],[32563971.2386,5774712.3908],[32563938.4273,5774719.8814],[32563867.0188,5774728.3647],[32563832.9511,5774734.8554],[32563809.1695,5774744.3464],[32563793.4199,5774757.3368],[32563779.6915,5774775.3251],[32563768.9885,5774798.811],[32563761.8121,5774827.7946],[32563753.6262,5774933.2382],[32563750.3514,5775006.6992],[32563738.7149,5775209.091],[32563743.31,5775267.9954],[32563745.7711,5775299.5445],[32563750.3944,5775334.5269],[32563763.6561,5775405.9914],[32563767.2657,5775437.4754],[32563765.5569,5775530.4257],[32563763.53,5775557.0939],[32563761.2269,5775587.3948],[32563753.3638,5775636.8671],[32563713.083,5775817.2639],[32563710.1628,5775844.7488],[32563709.8144,5775892.7231],[32563705.6443,5775921.207],[32563694.7048,5775949.1902],[32563678.4842,5775971.6753],[32563643.0224,5776012.6473],[32563630.065,5776036.6321],[32563621.8828,5776064.6157],[32563617.4746,5776097.0975],[32563615.8396,5776134.5772],[32563610.7384,5776185.5489],[32563600.6498,5776244.5155],[32563586.5825,5776313.476],[32563576.1136,5776410.422],[32563569.3854,5776501.3719],[32563567.4227,5776593.322],[32563577.2661,5776693.2698],[32563596.6661,5776803.2137],[32563623.8842,5776928.1651],[32563628.458,5776947.6669],[32563641.6098,5776984.6812],[32563663.5614,5777030.2142],[32563695.0347,5777074.7601],[32563794.8843,5777181.821],[32563791.515,5777157.136],[32563780.9636,5777060.8318],[32563774.1486,5776967.3015],[32563775.1613,5776891.7789],[32563781.6739,5776811.7705],[32563785.8665,5776790.2733],[32563795.848,5776776.2803],[32563811.3725,5776771.2904],[32563827.6807,5776776.3019],[32563845.5152,5776788.3176],[32563940.6524,5776832.4173],[32563958.4613,5776836.4342],[32563977.0048,5776834.9496],[32563994.5248,5776826.9623],[32564009.2607,5776810.4712],[32564019.9591,5776785.4752],[32564026.3821,5776755.9739],[32564025.7851,5776725.9654],[32564015.4303,5776701.4488],[32563989.5479,5776680.9197],[32563952.6463,5776663.3862],[32563905.971,5776646.3579],[32563876.5826,5776626.8556],[32563853.9603,5776606.8628],[32563838.3482,5776584.3724],[32563832.4876,5776554.3877],[32563832.8678,5776516.4083],[32563836.7523,5776476.9303],[32563842.1599,5776443.4492],[32563854.7997,5776398.4757],[32563877.8872,5776328.5172],[32563934.2735,5776168.1129],[32563965.6038,5776089.1606],[32564002.9385,5776006.7109],[32564041.0459,5775930.7579],[32564073.6916,5775871.295],[32564155.9634,5775732.3824],[32564185.0412,5775672.7016],[32564210.4989,5775620.4507],[32564233.9183,5775575.978],[32564254.8646,5775541.9994],[32564273.582,5775516.5157],[32564295.3058,5775490.5329],[32564322.5375,5775462.5519],[32564357.2809,5775432.0733],[32564392.7968,5775408.0912],[32564420.3301,5775396.1016],[32564441.6147,5775389.6082],[32564457.8847,5775382.6142],[32564471.6243,5775368.1239],[32564484.0851,5775345.6376],[32564494.2677,5775316.1546],[32564500.6684,5775279.6749],[32564501.7781,5775234.6987],[32564497.7596,5775164.2609],[32564493.2821,5775085.7761],[32564494.3872,5775039.3006],[32564497.2164,5774983.3305],[32564505.8906,5774873.8889],[32564508.8844,5774790.9327],[32564526.0716,5774600.0342],[32564534.9324,5774549.0618],[32564567.8034,5774403.1414],[32564594.0566,5774304.1956],[32564624.2358,5774178.7636],[32564661.502,5773996.3607],[32564672.3744,5773947.3868],[32564680.3701,5773922.034],[32564684.037,5773910.4069],[32564700.4762,5773877.9252],[32564721.9221,5773843.4452],[32564744.8832,5773812.4636],[32564765.6122,5773788.9779],[32564783.5889,5773766.9911],[32564803.079,5773748.0029],[32564827.3363,5773730.5146],[32564858.6086,5773712.0275],[32564898.1221,5773684.0461],[32564940.3672,5773648.0688],[32564980.3341,5773605.0946],[32565022.782,5773554.1243],[32565118.1828,5773445.1879],[32565122.4647,5773451.6852],[32565136.5473,5773466.1796],[32565161.6587,5773480.6751],[32565199.0263,5773487.1759],[32565241.6257,5773483.6819],[32565279.4453,5773474.69],[32565309.7373,5773463.1985],[32565329.2529,5773452.2058],[32565342.4911,5773437.7141],[32565354.7044,5773416.2256],[32565363.648,5773391.2386],[32565367.5787,5773366.2511],[32565367.756,5773343.2622],[32565365.1331,5773306.7796],[32565444.2796,5773270.9871],[32565487.7747,5773251.3173],[32565505.2983,5773244.3231],[32565595.4339,5773208.3469],[32565678.1984,5773180.8642],[32565775.9962,5773148.3896],[32565816.8071,5773131.4007],[32565834.8925,5773144.3959],[32565848.2164,5773157.8904],[32565850.6519,5773163.3805],[32565855.5327,5773174.3831],[32565861.9105,5773213.3651],[32565867.4836,5773233.8556],[32565875.8098,5773252.8472],[32565886.6228,5773264.8422],[32565899.4183,5773268.8412],[32565928.7538,5773271.342],[32565943.0604,5773277.84],[32565952.6216,5773290.3347],[32565954.426,5773307.8265],[32565945.7123,5773328.8158],[32565921.9761,5773353.3025],[32565887.2187,5773379.2874],[32565851.1968,5773401.774],[32565823.1685,5773415.7652],[32565796.365,5773420.7608],[32565717.1801,5773427.2516],[32565672.8485,5773437.743],[32565630.0526,5773458.2297],[32565591.7989,5773488.2119],[32565562.8335,5773522.6927],[32565547.408,5773558.6739],[32565545.9998,5773588.6591],[32565555.3361,5773608.1504],[32565573.1658,5773618.6468],[32565597.2346,5773620.6479],[32565623.5242,5773611.6545],[32565648.5286,5773592.6658],[32565690.0043,5773551.1894],[32565709.5087,5773536.698],[32565733.5313,5773524.2059],[32565759.0641,5773513.7131],[32565791.2095,5773503.6018],[32565812.6475,5773496.2257],[32565850.4447,5773480.2361],[32565932.7731,5773437.7626],[32565968.7982,5773416.2755],[32565999.0631,5773396.2871],[32566023.8121,5773375.7986],[32566043.0433,5773353.8104],[32566057.1942,5773333.5168],[32566080.98,5773348.9363],[32566116.6638,5773348.9358],[32566176.8799,5773342.2442],[32566228.175,5773331.0923],[32566263.8586,5773328.8616],[32566301.7726,5773337.782],[32566346.3775,5773357.8533],[32566375.3707,5773373.4645],[32566419.9814,5773394.4571],[32566419.2484,5773392.9445],[32566466.8105,5773402.4562],[32566498.0338,5773402.4558],[32566515.8755,5773400.2252],[32566533.7173,5773389.0738],[32566540.4078,5773375.6924],[32566533.7167,5773346.6995],[32566498.0325,5773315.4768],[32566442.2762,5773277.5637],[32566359.7574,5773257.4929],[32566259.3969,5773248.5733],[32566179.1086,5773244.1141],[32566080.2626,5773219.698],[32566078.6605,5773214.0512],[32566073.9325,5773197.3869],[32566054.5358,5773163.9016],[32566029.4117,5773135.8515],[32566140.8976,5773124.3542],[32566221.32,5773121.4106],[32566346.8578,5773137.101],[32566446.1079,5773161.814],[32566510.1915,5773229.3965],[32566550.1824,5773276.8762],[32566590.6987,5773332.8518],[32566629.7252,5773393.8249],[32566679.5667,5773478.7324],[32566705.5526,5773523.7672],[32566720.9396,5773554.2535],[32566732.0623,5773583.7402],[32566736.9189,5773613.2264],[32566737.9023,5773685.6921],[32566740.5301,5773723.6741],[32566747.1412,5773753.1604],[32566761.7555,5773777.1498],[32566786.1516,5773803.1387],[32566840.7033,5773849.9303],[32566892.2167,5773894.1158],[32566921.3911,5773925.1071],[32566961.6479,5773976.5906],[32566974.2182,5773996.5843],[32566983.6914,5774016.5768],[32566995.6269,5774055.0597],[32566998.3758,5774077.5484],[32566999.0185,5774118.5681],[32566998.7083,5774135.5171],[32566980.6912,5774160.5041],[32566964.6606,5774186.9902],[32566950.1163,5774217.9737],[32566931.2858,5774276.4432],[32566917.5317,5774333.8927],[32566908.8576,5774361.8839],[32566898.4605,5774386.6755],[32566886.9589,5774406.8651],[32566872.7385,5774426.3556],[32566852.7495,5774445.8445],[32566826.7432,5774465.8317],[32566797.9687,5774483.3186],[32566740.895,5774510.2921],[32566644.7787,5774566.8744],[32566572.7577,5774609.2721],[32566436.5742,5774683.7374],[32566394.8982,5774711.7237],[32566363.7686,5774737.5231],[32566289.5667,5774792.8053],[32566254.0218,5774818.6688],[32566226.5178,5774834.1606],[32566191.2158,5774850.6515],[32566143.3856,5774870.1617],[32566065.044,5774902.1176],[32566019.4781,5774922.6035],[32565977.9349,5774943.5898],[32565945.4109,5774962.5783],[32565844.3585,5775028.5407],[32565818.3545,5775048.5291],[32565742.587,5775112.3355],[32565646.8689,5775192.9431],[32565628.8843,5775212.4328],[32565615.9142,5775232.424],[32565602.0165,5775260.749],[32565594.2933,5775278.2339],[32565553.2222,5775380.3549],[32565527.9911,5775452.3687],[32565506.4708,5775513.7912],[32565455.1369,5775626.731],[32565416.3877,5775706.6845],[32565410.4243,5775683.699],[32565401.6055,5775665.2094],[32565387.6633,5775650.2167],[32565372.1772,5775642.2192],[32565358.4777,5775639.219],[32565345.33,5775640.7168],[32565331.7462,5775647.2124],[32565315.7428,5775659.2051],[32565297.5011,5775676.6952],[32565279.5212,5775697.6839],[32565264.5645,5775719.6724],[32565252.2286,5775744.6598],[32565201.6496,5775861.0992],[32565168.0269,5775922.0648],[32565145.5525,5775954.5462],[32565122.5667,5775983.5295],[32565101.827,5776005.5169],[32565081.836,5776022.5074],[32565036.5769,5776051.4912],[32565010.8165,5776071.4798],[32564959.0591,5776117.4534],[32564916.8357,5776161.928],[32564887.6377,5776200.4058],[32564876.6758,5776222.8927],[32564850.1646,5776291.3506],[32564832.3574,5776329.3269],[32564809.5822,5776362.8066],[32564765.8379,5776410.7334],[32564736.6067,5776442.7594],[32564644.9695,5776560.8308],[32564613.6657,5776601.1647],[32564563.4649,5776657.6314],[32564539.9873,5776640.6437],[32564533.4536,5776637.7276],[32564517.6017,5776630.6526],[32564494.3927,5776627.6562],[32564461.0729,5776630.1556],[32564448.0188,5776633.1538],[32564433.4847,5776642.1483],[32564419.9854,5776655.1407],[32564411.7867,5776670.132],[32564408.614,5776686.6224],[32564409.4264,5776704.6113],[32564415.4301,5776724.0983],[32564426.1001,5776743.5842],[32564448.7466,5776775.1236],[32564460.8644,5776791.9998],[32564465.9031,5776804.861],[32564466.1925,5776819.2723],[32564460.9918,5776837.754],[32564449.2126,5776863.5909],[32564431.1437,5776903.224],[32564426.9512,5776921.7165],[32564430.7639,5776934.7133],[32564441.3274,5776942.2139],[32564456.3894,5776945.7171],[32564472.444,5776946.7212],[32564491.481,5776940.7291],[32564512.7435,5776926.2415],[32564537.493,5776905.2578],[32564504.1077,5776966.2204],[32564490.1289,5776984.2084],[32564461.9543,5777002.461],[32564415.3302,5777032.6658],[32564371.081,5777070.1364],[32564327.1073,5777114.6038],[32564298.1532,5777152.0785],[32564267.9803,5777200.0482],[32564234.5794,5777258.5124],[32564227.0593,5777259.8469],[32564183.9705,5777267.4936],[32564142.1314,5777277.4766],[32564124.0791,5777278.4705],[32564104.255,5777275.465],[32564083.299,5777268.6878],[32563980.6679,5777316.7951],[32563926.6513,5777353.4503],[32563890.8247,5777391.6664],[32563889.0201,5777388.9552],[32563885.1736,5777506.7966],[32563878.6118,5777565.2703],[32563871.9395,5777594.2559],[32563861.267,5777627.7386],[32563846.591,5777664.719],[32563814.9506,5777730.1834],[32563790.7525,5777769.6604],[32563773.0726,5777812.1398],[32563761.1399,5777850.1236],[32563744.2553,5777913.0991],[32563693.6337,5778129.0108],[32563662.1475,5778228.9602],[32563645.2916,5778271.4375],[32563624.1223,5778305.4176],[32563596.9031,5778334.8973],[32563547.4565,5778376.7033],[32563518.9025,5778400.845],[32563493.6673,5778425.3272],[32563469.4476,5778452.3089],[32563445.0428,5778484.9047],[32563353.4692,5778607.2132],[32563384.269,5778488.2652],[32563401.3326,5778429.7942],[32563423.7167,5778365.8252],[32563494.6862,5778182.9121],[32563511.1262,5778145.9296],[32563535.8114,5778099.4531],[32563580.4701,5778025.4933],[32563611.4286,5777983.519],[32563627.1497,5777959.0329],[32563639.8587,5777932.0464],[32563650.2746,5777890.564],[32563659.1442,5777836.5867],[32563664.7524,5777786.6084],[32563665.9074,5777757.6205],[32563655.4175,5777626.2825],[32563650.2874,5777584.0762],[32563644.3387,5777554.5984],[32563627.6193,5777502.1352],[32563621.4622,5777477.1507],[32563620.986,5777451.6654],[32563627.04,5777427.1791],[32563636.9323,5777404.6917],[32563648.4049,5777386.702],[32563682.125,5777349.724],[32563725.611,5777309.7483],[32563740.5895,5777290.7594],[32563745.5468,5777273.2689],[32563744.2377,5777255.778],[32563721.2182,5777189.7961],[32563707.34,5777160.7886],[32563686.9575,5777135.7693],[32563660.5657,5777112.7392],[32563627.6556,5777089.1989],[32563592.0456,5777083.6618],[32563571.2415,5777083.6418],[32563539.6975,5777095.6158],[32563520.0289,5777109.149],[32563509.9354,5777116.0939],[32563484.4486,5777141.0769],[32563465.4787,5777166.0658],[32563425.3469,5777236.048],[32563400.4075,5777275.5367],[32563375.1921,5777307.0225],[32563346.4483,5777332.5026],[32563312.939,5777356.9774],[32563279.417,5777377.4509],[32563250.6351,5777390.9269],[32563223.0906,5777399.4031],[32563188.5198,5777405.3734],[32563144.4067,5777405.8388],[32563088.2416,5777399.8085],[32563029.04,5777384.8026],[32562979.0999,5777365.8039],[32562913.3161,5777330.311],[32562889.6975,5777312.3163],[32562864.3005,5777286.8251],[32562843.9116,5777259.8356],[32562836.8186,5777236.3468],[32562843.5416,5777222.3554],[32562858.5648,5777217.3609],[32562877.8697,5777218.8636],[32562936.0607,5777231.3676],[32562949.8402,5777229.3712],[32562957.0756,5777218.8781],[32562954.0232,5777204.885],[32562941.2001,5777192.3893],[32562902.7771,5777169.3944],[32562884.1748,5777152.4],[32562870.0683,5777130.4091],[32562864.9867,5777108.9195],[32562873.7101,5777093.4292],[32562888.9776,5777086.4359],[32562902.0099,5777085.9386],[32562915.8085,5777089.939],[32562961.7382,5777108.9374],[32563070.6849,5777160.4298],[32563097.7857,5777169.9295],[32563125.6271,5777175.9313],[32563154.1998,5777175.4367],[32563183.4989,5777166.9464],[32563211.0164,5777149.9602],[32563233.7493,5777125.9772],[32563252.7096,5777097.9955],[32563268.4019,5777067.0149],[32563280.0646,5777030.0368],[32563288.1975,5776986.5616],[32563295.4845,5776913.602],[32563293.6661,5776893.6124],[32563283.8462,5776879.6183],[32563264.5125,5776869.1204],[32563233.4015,5776859.62],[32563189.5041,5776849.1176],[32563089.167,5776825.1121],[32563050.7838,5776814.6106],[32563019.1556,5776800.1123],[32562985.2428,5776776.6184],[32562951.801,5776743.6295],[32562921.0862,5776701.146],[32562898.6348,5776656.1656],[32562885.7337,5776619.1826],[32562878.8546,5776584.1996],[32562878.5419,5776564.71],[32562880.4866,5776545.7203],[32562886.4353,5776524.7325],[32562915.3276,5776467.2687],[32562923.7829,5776446.2814],[32562924.4536,5776420.7951],[32562916.8464,5776393.308],[32562902.4621,5776362.8213],[32562903.6405,5776339.3339],[32562911.6087,5776322.8442],[32562929.8793,5776314.3524],[32563007.3385,5776316.8665],[32563068.7337,5776312.3809],[32563075.2362,5776307.8845],[32563076.9558,5776296.8906],[32563072.6406,5776279.8989],[32563050.459,5776240.9151],[32563040.1106,5776218.425],[32563033.0111,5776192.9371],[32563028.1595,5776164.951],[32563021.469,5776110.4784],[32563024.4417,5776099.4848],[32563031.9278,5776088.9919],[32563044.1762,5776078.4999],[32563057.4066,5776061.5114],[32563066.3488,5776036.0267],[32563070.0161,5776007.0427],[32563066.927,5775981.5556],[32563057.329,5775958.5658],[32563042.9686,5775935.5751],[32563025.1054,5775914.5825],[32563004.7454,5775896.5878],[32562937.1624,5775847.0999],[32562906.018,5775827.1038],[32562884.1588,5775810.6078],[32562859.5248,5775788.6141],[32562814.2468,5775738.1308],[32562764.1091,5775657.162],[32562705.0969,5775581.0666],[32562672.2439,5775538.7031],[32562678.9972,5775534.2069],[32562693.0209,5775530.2121],[32562719.574,5775525.2207],[32562858.8914,5775511.2587],[32562845.9196,5775530.7457],[32562839.4696,5775551.7334],[32562841.3086,5775578.22],[32562851.1653,5775603.7088],[32562863.7631,5775624.2009],[32562879.1006,5775639.1964],[32562903.9719,5775653.1005],[32562930.0736,5775667.6924],[32562943.8945,5775678.6895],[32562969.7975,5775705.6808],[32562983.8723,5775717.6775],[32562998.6878,5775726.1761],[32563014.2376,5775729.1777],[32563029.5211,5775727.1819],[32563043.7859,5775720.1885],[32563056.7719,5775705.199],[32563068.2206,5775679.7148],[32563077.4055,5775651.7314],[32563081.3378,5775627.2451],[32563077.0002,5775603.2567],[32563061.3691,5775574.7685],[32563037.2174,5775546.7781],[32563013.5909,5775526.2839],[32562988.2193,5775508.7877],[32562998.9878,5775505.7916],[32563008.9883,5775497.7978],[32563018.9617,5775481.3085],[32563026.4176,5775461.3205],[32563034.3364,5775429.3389],[32563037.1079,5775433.8371],[32563046.4091,5775442.3346],[32563065.2334,5775450.3344],[32563095.0688,5775452.8393],[32563126.3907,5775449.8473],[32563148.4337,5775445.3541],[32563164.453,5775438.3611],[32563176.9505,5775427.3694],[32563187.43,5775412.3794],[32563195.3934,5775394.3904],[32563199.8399,5775373.902],[32563199.765,5775350.4143],[32563194.9262,5775326.4259],[32563185.0838,5775305.4349],[32563170.2397,5775287.941],[32563149.8923,5775273.9441],[32563110.9936,5775258.9439],[32563094.6917,5775255.942],[32563077.8965,5775255.4387],[32563059.8576,5775257.9336],[32563042.8292,5775262.9274],[32563025.0586,5775270.9195],[32563019.3339,5775204.9526],[32563014.7504,5775182.4633],[32563006.1392,5775154.476],[32562994.512,5775123.9892],[32562981.3874,5775095.5012],[32562953.4042,5775045.0212],[32562939.3008,5775024.0288],[32562925.7195,5775009.5334],[32562901.3378,5774988.0391],[32562888.2769,5774979.5404],[32562872.4668,5774973.5401],[32562855.4193,5774972.5368],[32562840.6421,5774976.0316],[32562826.1266,5774983.0248],[32562806.279,5774968.5276],[32562784.6816,5774955.5295],[32562757.5698,5774942.5299],[32562730.4709,5774933.5283],[32562705.8928,5774929.0248],[32562681.0767,5774928.5193],[32562653.5179,5774932.5108],[32562627.7311,5774941.9998],[32562609.4783,5774955.9883],[32562598.748,5774970.9781],[32562595.2772,5774982.9711],[32562596.8272,5774997.4642],[32562602.161,5775019.4541],[32562612.5142,5775043.4443],[32562629.6269,5775064.9374],[32562652.7251,5775076.9366],[32562676.5481,5775080.4404],[32562702.6078,5775077.9477],[32562694.1462,5775096.9359],[32562691.2053,5775117.9245],[32562691.7767,5775139.9133],[32562695.3559,5775161.9029],[32562701.8425,5775187.7907],[32562713.8892,5775235.869],[32562717.7525,5775268.3532],[32562716.3474,5775299.3369],[32562709.4025,5775322.3234],[32562697.6744,5775338.8122],[32562682.6752,5775351.3023],[32562664.4016,5775358.7943],[32562642.8536,5775361.2881],[32562618.0375,5775360.7826],[32562556.8548,5775353.2722],[32562439.2326,5775332.2551],[32562404.1271,5775327.7489],[32562376.0526,5775327.2424],[32562330.9625,5775335.727],[32562303.6526,5775339.2186],[32562271.571,5775339.7104],[32562233.7163,5775337.702],[32562199.0978,5775328.6979],[32562167.9789,5775316.6962],[32562138.5969,5775299.1976],[32562115.7209,5775278.2023],[32562099.1062,5775255.7096],[32562088.7578,5775233.2183],[32562085.1819,5775212.228],[32562086.1255,5775193.7375],[32562089.5852,5775178.2463],[32562097.314,5775165.2548],[32562110.5619,5775153.7641],[32562128.3358,5775146.7721],[32562147.8866,5775146.7772],[32562167.7039,5775151.7797],[32562186.7853,5775161.7794],[32562206.3805,5775175.7774],[32562248.1001,5775210.7701],[32562303.1042,5775245.766],[32562320.1692,5775252.267],[32562337.4673,5775253.2707],[32562352.7379,5775247.2775],[32562363.2286,5775235.7859],[32562367.6829,5775217.7962],[32562364.8445,5775192.3085],[32562345.5211,5775106.3476],[32562331.2505,5775032.8813],[32562328.6404,5775000.3972],[32562329.3334,5774981.9067],[32562332.0173,5774958.9191],[32562340.9532,5774931.4353],[32562355.4032,5774903.9528],[32562374.8617,5774874.9724],[32562417.672,5774858.9911],[32562456.97,5774842.0094],[32562495.2558,5774822.029],[32562527.0248,5774802.0469],[32562555.0339,5774782.0638],[32562582.7861,5774760.0818],[32562613.2793,5774733.1029],[32562644.7642,5774702.6259],[32562696.9654,5774644.6678],[32562759.0992,5774714.6468],[32562812.909,5774768.1319],[32562835.3045,5774795.623],[32562879.3803,5774862.0989],[32562891.959,5774876.5943],[32562904.7804,5774888.591],[32562931.4116,5774908.0869],[32562945.9972,5774923.0823],[32562958.3348,5774940.5761],[32562965.4088,5774958.0687],[32562969.7282,5775003.2161],[32562972.1504,5775028.5338],[32562981.5137,5775056.5213],[32562990.0725,5775068.0172],[32563002.118,5775072.5176],[32563015.6532,5775072.5204],[32563027.4402,5775074.522],[32563037.4758,5775077.5225],[32563052.7926,5775086.0214],[32563061.5749,5775089.0218],[32563072.3402,5775085.0261],[32563085.0692,5775068.0376],[32563104.4701,5775021.066],[32563115.4399,5775002.578],[32563134.7033,5774991.0879],[32563158.5024,5774987.0949],[32563179.8109,5774988.0989],[32563210.9076,5774993.1028],[32563222.685,5774992.1057],[32563248.4883,5774984.2239],[32563268.711,5774978.0468],[32563273.8516,5774976.5493],[32563271.7349,5774962.7928],[32563260.7488,5774891.3896],[32563238.6265,5774881.0952],[32563141.938,5774841.6049],[32563035.5825,5774798.1663],[32563019.263,5774789.6671],[32563009.2083,5774780.6695],[32563003.4036,5774768.1747],[32563000.0861,5774749.6834],[32562991.0298,5774660.727],[32562986.4463,5774638.2375],[32562979.3819,5774623.7433],[32562968.5672,5774612.2467],[32562955.0083,5774604.7475],[32562939.9564,5774600.7462],[32562924.9254,5774603.2415],[32562911.668,5774611.7342],[32562902.183,5774624.2257],[32562896.964,5774638.2174],[32562893.8139,5774672.1993],[32562887.8476,5774687.69],[32562873.8431,5774697.6818],[32562856.3135,5774702.6753],[32562840.5257,5774703.6711],[32562826.47,5774697.6709],[32562813.1299,5774680.1769],[32562783.8823,5774626.1976],[32562773.0581,5774611.7023],[32562759.9812,5774598.2062],[32562734.3495,5774577.7106],[32562780.9122,5774480.7707],[32562844.1775,5774355.3489],[32562867.8826,5774321.8713],[32562981.7729,5774194.4614],[32562996.7514,5774175.4744],[32563005.5758,5774156.8062],[32563006.6627,5774139.4947],[32563001.6194,5774129.9983],[32562992.5769,5774123.9992],[32562969.0046,5774120.4957],[32562948.146,5774120.491],[32562923.9826,5774121.1452],[32562901.7365,5774124.4849],[32562903.2707,5774105.6084],[32562893.3458,5774070.2276],[32562892.0509,5774049.9493],[32562895.9339,5774029.2409],[32562902.4055,5773994.7267],[32562899.8164,5773985.2343]],[[32563435.9624,5776949.1075],[32563403.8806,5776949.6017],[32563378.6015,5776961.0911],[32563359.3698,5776982.5762],[32563345.4224,5777010.5587],[32563342.2581,5777040.0422],[32563352.8619,5777064.0312],[32563371.9687,5777082.0248],[32563395.5666,5777093.5234],[32563425.4117,5777099.0331],[32563460.4965,5777097.0532],[32563492.5851,5777081.706],[32563510.2312,5777051.5869],[32563507.6434,5777026.088],[32563493.0036,5776994.0931],[32563468.3458,5776964.6047],[32563463.7153,5776962.3888],[32563435.9624,5776949.1075]],[[32563434.176,5776703.2397],[32563411.132,5776708.2329],[32563388.1166,5776722.2212],[32563369.142,5776745.7054],[32563357.9694,5776779.1854],[32563362.3372,5776812.6682],[32563380.9619,5776836.6585],[32563404.3219,5776852.1543],[32563423.3985,5776860.653],[32563455.9118,5776868.7848],[32563480.4969,5776874.9337],[32563500.9215,5776883.1542],[32563518.7288,5776886.6553],[32563533.7505,5776881.1608],[32563548.5023,5776869.6696],[32563541.8229,5776818.696],[32563535.9893,5776797.2067],[32563528.4124,5776779.2151],[32563510.519,5776748.7284],[32563483.1247,5776725.7361],[32563458.0086,5776709.7403],[32563439.7442,5776704.7584],[32563434.176,5776703.2397]],[[32565442.0311,5775175.3485],[32565408.2204,5775183.8388],[32565378.2125,5775205.8239],[32565354.493,5775234.8063],[32565339.5418,5775262.2908],[32565332.6128,5775290.2787],[32565332.2056,5775319.7718],[32565337.8045,5775346.2718],[32565349.6376,5775362.7782],[32565366.4584,5775371.2886],[32565386.7739,5775375.3011],[32565411.3314,5775373.3153],[32565440.3765,5775363.8314],[32565452.7112,5775357.7405],[32565464.6515,5775351.8443],[32565478.1547,5775341.8515],[32565498.8918,5775320.8634],[32565511.1227,5775304.8707],[32565519.581,5775284.8766],[32565523.2722,5775263.3797],[32565520.9706,5775245.0344],[32565520.7002,5775242.8788],[32565511.6067,5775220.8738],[32565495.7471,5775199.3658],[32565472.6345,5775182.8567],[32565442.0311,5775175.3485]],[[32564537.1816,5776354.294],[32564512.391,5776361.7818],[32564490.6354,5776377.7692],[32564473.1599,5776399.7584],[32564462.2078,5776423.7502],[32564456.7699,5776447.7433],[32564455.3425,5776471.7354],[32564459.6785,5776495.2251],[32564470.2808,5776518.714],[32564487.6892,5776536.2073],[32564510.2873,5776545.2045],[32564535.5027,5776548.2036],[32564561.5917,5776547.204],[32564564.7794,5776546.6837],[32564586.0917,5776543.2052],[32564608.0596,5776534.2095],[32564625.2876,5776521.7164],[32564636.2918,5776506.2258],[32564642.3088,5776488.2373],[32564645.3076,5776467.7502],[32564644.7458,5776445.7636],[32564641.7441,5776429.23],[32564640.5724,5776422.7765],[32564625.6673,5776398.7877],[32564598.6614,5776376.2957],[32564566.5254,5776359.801],[32564537.1816,5776354.294]],[[32565537.1467,5773799.0549],[32565508.3331,5773802.5506],[32565486.3172,5773815.5423],[32565470.8487,5773838.0297],[32565461.1627,5773866.015],[32565458.9993,5773895.0004],[32565466.6066,5773922.4874],[32565481.7158,5773944.4778],[32565500.8115,5773958.9724],[32565524.9043,5773968.4698],[32565554.2463,5773973.47],[32565580.8201,5773974.9716],[32565599.1129,5773973.474],[32565612.383,5773968.9774],[32565624.89,5773960.9825],[32565639.3782,5773945.4915],[32565654.3392,5773921.0049],[32565665.2801,5773893.5194],[32565668.7094,5773868.5321],[32565662.1223,5773846.5424],[32565647.0194,5773826.551],[32565625.414,5773811.0567],[32565599.0718,5773803.5582],[32565568.7335,5773800.557],[32565537.1467,5773799.0549]],[[32562782.8007,5773500.7588],[32562757.2551,5773507.2495],[32562737.4903,5773518.7391],[32562726.5191,5773536.7276],[32562726.3482,5773561.7154],[32562737.9672,5773589.7045],[32562755.2221,5773609.0844],[32562761.11,5773615.6974],[32562835.259,5773680.6831],[32562878.9582,5773707.6802],[32562891.2443,5773714.4756],[32562915.1155,5773727.6787],[32562944.9828,5773740.1795],[32562956.4952,5773734.6849],[32562978.4999,5773718.198],[32562993.1989,5773690.2152],[32562982.2967,5773651.2319],[32562940.2521,5773589.6783],[32562922.6186,5773565.2603],[32562889.9273,5773531.769],[32562852.5102,5773509.771],[32562838.4436,5773506.4269],[32562814.6334,5773500.7664],[32562782.8007,5773500.7588]],[[32564744.3767,5775146.2786],[32564709.0462,5775149.7721],[32564682.0173,5775162.7616],[32564666.8009,5775185.7474],[32564660.3781,5775215.231],[32564660.0581,5775250.3746],[32564664.3403,5775278.6981],[32564676.2086,5775306.1851],[32564694.0814,5775330.1749],[32564717.4636,5775352.6661],[32564744.8516,5775373.6587],[32564776.2229,5775386.1562],[32564812.2991,5775380.6639],[32564854.5523,5775347.187],[32564872.4779,5775309.2093],[32564871.0908,5775267.2314],[32564856.922,5775225.7513],[32564837.5022,5775188.2686],[32564812.3559,5775162.7788],[32564786.0116,5775151.711],[32564780.2295,5775149.2817],[32564744.3767,5775146.2786]],[[32564250.6619,5776940.466],[32564231.9649,5776943.9652],[32564215.995,5776952.9605],[32564197.5343,5776970.3396],[32564169.2838,5776996.9347],[32564146.3225,5777008.9285],[32564121.6039,5777013.927],[32564076.486,5777016.4269],[32564059.1318,5777018.9251],[32564044.0454,5777023.9218],[32564029.9997,5777032.9161],[32564015.7464,5777046.408],[32564004.8104,5777063.3982],[32564002.1894,5777080.3885],[32564006.5766,5777096.8789],[32564018.4083,5777112.3687],[32564032.6415,5777125.359],[32564046.3337,5777133.852],[32564060.0343,5777138.8474],[32564074.2661,5777140.8452],[32564088.5316,5777145.3376],[32564101.5986,5777156.7543],[32564111.9064,5777174.0342],[32564122.79,5777205.0661],[32564128.3761,5777220.9937],[32564142.6857,5777224.4984],[32564163.5346,5777233.0024],[32564173.8207,5777234.0052],[32564189.3542,5777230.0119],[32564207.871,5777219.0223],[32564225.8609,5777201.0356],[32564243.0841,5777179.0505],[32564259.8019,5777156.0656],[32564277.0043,5777128.5829],[32564293.9288,5777094.1029],[32564307.3388,5777059.1213],[32564314.4989,5777029.6343],[32564316.1649,5777006.1417],[32564314.3329,5776985.6445],[32564309.0174,5776969.2094],[32564299.9736,5776956.8793],[32564285.9185,5776948.4537],[32564269.1247,5776942.4635],[32564250.6619,5776940.466]],[[32563626.1327,5774646.3639],[32563608.3428,5774648.3595],[32563593.3357,5774658.3515],[32563564.9033,5774702.8232],[32563534.0043,5774759.7878],[32563503.6321,5774824.7484],[32563491.2143,5774860.7274],[32563484.5534,5774894.2086],[32563484.6507,5774924.6929],[32563489.7561,5774953.6787],[32563501.6212,5774980.1671],[32563521.4991,5775004.1585],[32563675.5913,5775143.1144],[32563689.2416,5775100.6391],[32563700.3886,5775059.1629],[32563709.516,5775013.1886],[32563714.1221,5774964.215],[32563715.1985,5774908.7441],[32563711.9979,5774848.275],[32563704.2758,5774784.8066],[32563689.8071,5774727.8335],[32563670.8713,5774684.8522],[32563647.4475,5774649.3663],[32563626.1327,5774646.3639]]],"crs":{"type":"EPSG","properties":{"code":4647}}},"properties":{"FL_NR":39938,"BR":5,"BR_NAME":"BERGLAND","BGL":14,"BGL_NAME":" Lössbecken","BL":13,"BL_NAME":"Lössgebiete","BR_BGL_BL_NAME":"BERGLAND /  Lössbecken / Lössgebiete","TKNR":null,"TKNAME":null,"UP_DATE":"2018-09-06T14:14:18.0000000"}}]}