{"type": "FeatureCollection","features":[{"type":"Feature","geometry":{"type":"Polygon","coordinates":[[[32589396.2151,5872935.5936],[32589189.4886,5884057.7882],[32588982.4918,5895180.1554],[32577851.2542,5894985.8358],[32566719.8299,5894817.4516],[32566875.0306,5883694.7173],[32567030.0293,5872572.1608],[32578213.2169,5872740.8826],[32589396.2151,5872935.5936]]],"crs":{"type":"EPSG","properties":{"code":4647}}},"properties":{"FL_NR":1825,"BR":3,"BR_NAME":"GEEST","TKNR":2926,"TKNAME":"Amelinghausen","UP_DATE":"2018-09-06T14:12:10.0000000"}}]}