{"type": "FeatureCollection","features":[{"type":"Feature","geometry":{"type":"Polygon","coordinates":[[[32576372.628,5886886.6244],[32576364.9564,5886872.7548],[32576347.4631,5886856.2616],[32576335.9676,5886848.265],[32576311.9769,5886837.2697],[32576300.2315,5886834.2711],[32576277.7404,5886833.7716],[32576255.4994,5886840.2694],[32576244.5038,5886846.2672],[32576235.2576,5886853.2645],[32576229.26,5886860.7616],[32576226.5113,5886869.7581],[32576226.5114,5886879.7541],[32576232.7593,5886904.2443],[32576253.5095,5886955.5599],[32576254.7439,5886958.6127],[32576227.7763,5886947.5089],[32576203.8685,5886937.6649],[32576185.528,5886902.7456],[32576177.2811,5886890.7505],[32576159.038,5886871.2585],[32576149.7916,5886863.7616],[32576113.3058,5886848.2683],[32576098.3117,5886839.2721],[32576092.064,5886831.7752],[32576085.7579,5886819.4869],[32576072.5712,5886793.7906],[32576045.9407,5886754.0668],[32576037.3758,5886711.6094],[32575966.1648,5886597.5176],[32575963.0866,5886559.184],[32575960.1297,5886522.3613],[32575969.5133,5886491.1981],[32575981.672,5886450.8191],[32575982.0633,5886449.5195],[32576013.782,5886427.0293],[32576021.7516,5886422.038],[32576053.3719,5886402.2344],[32576061.0672,5886306.2383],[32576060.7525,5886305.8731],[32576050.7459,5886294.2584],[32576040.8914,5886282.8203],[32576013.0409,5886263.071],[32575975.0993,5886236.1657],[32575965.5203,5886229.3731],[32575911.3391,5886213.0593],[32575883.5281,5886204.6856],[32575844.0945,5886176.7266],[32575724.5242,5886287.7715],[32575714.0023,5886290.9401],[32575709.1531,5886292.4004],[32575708.9014,5886293.8813],[32575701.8875,5886335.1445],[32575700.3409,5886340.1363],[32575668.8602,5886441.7461],[32575641.579,5886462.809],[32575610.2498,5886460.4301],[32575591.5072,5886456.4319],[32575558.77,5886443.4376],[32575516.5364,5886419.4478],[32575477.4435,5886392.5969],[32575467.0555,5886385.462],[32575447.1029,5886374.6773],[32575420.8235,5886360.4727],[32575384.5875,5886329.4855],[32575369.0933,5886310.9931],[32575363.8452,5886294.9995],[32575359.9913,5886245.2045],[32575357.3466,5886211.033],[32575356.4978,5886207.1854],[32575353.5978,5886194.0398],[32575334.1051,5886158.5542],[32575333.8326,5886158.1282],[32575304.3662,5886112.0731],[32575295.1196,5886090.082],[32575291.1209,5886073.0888],[32575290.1211,5886055.096],[32575291.3704,5886046.0996],[32575294.3691,5886038.1027],[32575304.2647,5886020.5099],[32575316.8597,5885998.1182],[32575322.1073,5885979.6255],[32575326.2529,5885951.1847],[32575384.2331,5885882.9707],[32575461.6375,5885824.2484],[32575489.0308,5885785.114],[32575499.0048,5885770.865],[32575501.6736,5885744.1735],[32575490.9967,5885722.8206],[32575477.6507,5885709.4751],[32575453.6283,5885698.799],[32575418.929,5885666.7697],[32575413.5903,5885637.4092],[32575386.8979,5885573.3502],[32575344.3126,5885547.1447],[32575351.8907,5885541.7317],[32575357.9214,5885511.5754],[32575345.8586,5885475.3882],[32575297.6081,5885457.2952],[32575237.2958,5885451.265],[32575201.1087,5885481.4215],[32575152.859,5885487.4536],[32575110.6399,5885481.4229],[32575092.5464,5885463.3296],[32575062.3896,5885439.205],[32575050.3257,5885336.6742],[32575062.387,5885252.2366],[32575074.4489,5885197.9555],[32575104.6042,5885149.7052],[32575146.8228,5885143.6732],[32575183.0101,5885143.6727],[32575213.1671,5885179.8597],[32575315.6991,5885252.2328],[32575376.0119,5885276.357],[32575454.4179,5885276.3558],[32575550.9177,5885276.3544],[32575647.4175,5885258.2592],[32575737.8853,5885228.1016],[32575749.9475,5885191.914],[32575774.0717,5885143.6638],[32575786.1338,5885101.4449],[32575774.0705,5885059.2265],[32575731.8519,5885047.1647],[32575665.5083,5885059.2281],[32575581.0714,5885077.3231],[32575490.6029,5885089.3869],[32575424.2595,5885107.4816],[32575345.8535,5885107.4828],[32575303.6343,5885071.2961],[32575225.2271,5885017.0161],[32575183.0082,5885004.9543],[32575128.7271,5885004.9552],[32575098.5713,5885023.0494],[32575062.3838,5885029.081],[32575020.1651,5885029.0817],[32574971.9152,5885035.1137],[32574923.6657,5885053.2081],[32574911.6036,5885077.3332],[32574911.6044,5885137.6457],[32574911.6063,5885276.364],[32574917.6391,5885396.9885],[32574887.4833,5885409.0514],[32574857.3268,5885409.0519],[32574827.1707,5885403.021],[32574803.0453,5885378.8965],[32574730.6699,5885330.6477],[32574664.3258,5885306.5238],[32574585.9191,5885258.2752],[32574555.7624,5885228.1194],[32574525.6054,5885173.8388],[32574483.3855,5885083.3709],[32574441.1657,5884986.8719],[32574411.0088,5884956.7161],[32574362.759,5884956.7168],[32574326.5717,5884962.7486],[32574260.2282,5884986.8746],[32574211.979,5885023.0627],[32574169.7606,5885047.1882],[32574121.5107,5885053.2202],[32574067.2295,5885053.221],[32574031.0421,5885047.1903],[32573994.8542,5885023.066],[32573922.4789,5884998.9421],[32573904.3845,5884950.6924],[32573892.3211,5884884.3491],[32573892.3202,5884824.0368],[32573868.1944,5884757.6935],[32573794.1027,5884691.8362],[32573804.9679,5884680.3989],[32573828.9306,5884655.1744],[32573854.4202,5884635.6818],[32573876.9112,5884625.1856],[32573886.1575,5884623.1863],[32573893.6545,5884622.6863],[32573903.6506,5884624.6854],[32573911.3975,5884623.6857],[32573915.3959,5884621.1866],[32573930.8895,5884603.6933],[32573946.383,5884581.7018],[32573968.6103,5884545.6338],[32573999.3608,5884495.7352],[32574022.8511,5884462.748],[32574031.5974,5884447.7538],[32574035.0958,5884433.7593],[32574034.5958,5884420.2647],[32574030.8471,5884407.2699],[32574024.8493,5884395.7746],[32574017.3522,5884385.7787],[32574001.8581,5884371.2846],[32573992.6117,5884365.787],[32573963.1233,5884356.791],[32573927.1374,5884351.2937],[32573893.6507,5884351.2942],[32573880.6559,5884353.2936],[32573869.9102,5884357.792],[32573859.9143,5884364.7894],[32573843.9208,5884381.7828],[32573835.1746,5884400.2756],[32573833.9252,5884408.7723],[32573839.4234,5884438.2605],[32573840.1736,5884471.7471],[32573837.925,5884507.7329],[32573833.1773,5884537.721],[32573827.1798,5884550.2162],[32573806.7516,5884572.1414],[32573795.7887,5884517.3273],[32573771.5275,5884505.1972],[32573735.1357,5884499.1324],[32573686.6133,5884499.1331],[32573638.0913,5884499.1338],[32573601.6999,5884487.0039],[32573541.0466,5884444.5478],[32573480.3934,5884408.1575],[32573425.8061,5884414.2234],[32573346.9582,5884444.5507],[32573249.9146,5884499.1397],[32573146.8056,5884559.7936],[32573086.1533,5884553.7294],[32573049.7615,5884547.6648],[32572995.1737,5884517.3393],[32572940.5861,5884493.0792],[32572922.3898,5884450.6227],[32572916.3236,5884420.2962],[32572922.3887,5884371.7742],[32572940.5834,5884305.0559],[32572928.4521,5884262.5995],[32572892.0596,5884208.0126],[32572867.7981,5884171.6215],[32572819.2759,5884153.4264],[32572758.623,5884123.1012],[32572697.9694,5884062.4495],[32572667.6421,5883989.6668],[32572667.6415,5883947.21],[32572667.6404,5883874.4269],[32572673.7047,5883813.7742],[32572685.8344,5883740.9911],[32572716.1596,5883656.0768],[32572734.3546,5883595.4241],[32572710.093,5883565.0981],[32572685.8318,5883552.9678],[32572631.2442,5883546.9035],[32572588.7873,5883546.9041],[32572570.5919,5883565.1002],[32572546.3315,5883607.5574],[32572528.1363,5883650.0145],[32572497.8107,5883686.4064],[32572431.2864,5883716.0627],[32572408.3681,5883759.991],[32572390.2242,5883782.9102],[32572377.81,5883794.3699],[32572357.0595,5883792.1859],[32572358.0014,5883788.0412],[32572355.0025,5883779.0448],[32572348.2551,5883773.0473],[32572341.3205,5883770.558],[32572338.5089,5883769.5488],[32572332.5108,5883759.5523],[32572326.5134,5883749.5569],[32572317.017,5883742.06],[32572301.5231,5883736.5625],[32572282.0308,5883732.0645],[32572251.043,5883732.065],[32572242.0466,5883734.0643],[32572222.5545,5883742.5613],[32572200.5634,5883755.5564],[32572189.8177,5883764.0532],[32572170.5757,5883786.0448],[32572162.579,5883799.0397],[32572155.3001,5883814.0979],[32572147.3272,5883830.5919],[32572103.5698,5883795.5869],[32572036.8507,5883704.6092],[32571994.3925,5883607.5657],[32571958.0009,5883613.6316],[32571945.8707,5883631.8274],[32571945.8712,5883668.2188],[32571933.741,5883710.6761],[32571915.5461,5883741.0027],[32571903.4158,5883771.3289],[32571909.4814,5883807.7205],[32571933.7431,5883856.2421],[32571927.6786,5883904.7643],[32571885.2225,5883959.3522],[32571800.3093,5883971.484],[32571751.7874,5883995.7457],[32571727.5265,5884001.8114],[32571660.8083,5883995.747],[32571594.091,5884032.1397],[32571545.5694,5884074.5972],[32571503.1125,5884068.5325],[32571478.8514,5884062.4678],[32571466.7202,5884032.1416],[32571478.8503,5884001.815],[32571490.9804,5883971.4886],[32571527.3717,5883941.162],[32571533.4366,5883910.8354],[32571533.4362,5883880.5093],[32571509.1747,5883862.3138],[32571448.5217,5883825.9233],[32571406.0646,5883807.7281],[32571348.1061,5883807.7289],[32571333.2814,5883807.7291],[32571254.4334,5883831.9913],[32571169.5202,5883880.5147],[32571133.1287,5883880.5153],[32571090.6717,5883868.3852],[32571054.2799,5883844.1248],[32571030.0179,5883789.5378],[32571030.0172,5883741.0159],[32571060.3424,5883662.167],[32571060.3408,5883546.927],[32571108.8633,5883565.1221],[32571163.4506,5883565.1213],[32571242.2989,5883559.0548],[32571353.3166,5883499.8435],[32571366.1405,5883501.1699],[32571382.8839,5883498.1709],[32571402.376,5883488.6744],[32571412.3719,5883479.6778],[32571419.6189,5883468.682],[32571424.3668,5883455.1873],[32571426.8656,5883440.693],[32571427.6151,5883425.1992],[32571425.3966,5883394.9775],[32571454.0439,5883322.6743],[32571448.5139,5883261.8541],[32571430.317,5883189.0711],[32571375.7282,5883085.9626],[32571236.2258,5882988.9206],[32571159.8031,5882975.5781],[32571120.9855,5882970.7266],[32571078.5288,5882976.7924],[32571054.2678,5882976.7928],[32571048.2022,5882958.5972],[32571060.3322,5882928.2706],[32571089.04,5882842.1436],[32571151.3099,5882825.1598],[32571260.4844,5882813.0277],[32571321.1369,5882800.8962],[32571363.5935,5882782.6998],[32571369.6583,5882758.4388],[32571357.5275,5882734.1779],[32571315.0706,5882715.9826],[32571260.4833,5882734.1793],[32571224.0917,5882728.1146],[32571187.6998,5882715.9846],[32571151.3083,5882715.9851],[32571066.395,5882740.2475],[32571033.1678,5882745.7858],[32571011.8066,5882667.4651],[32570969.349,5882612.8785],[32570884.4345,5882552.2271],[32570769.1938,5882503.7068],[32570653.9535,5882485.5127],[32570423.4735,5882497.6467],[32570345.4758,5882544.447],[32570334.5361,5882547.564],[32570326.7892,5882552.0624],[32570315.7937,5882562.5584],[32570306.2978,5882582.5506],[32570302.23,5882598.3578],[32570297.5517,5882616.5372],[32570289.0554,5882636.0296],[32570275.8109,5882656.0218],[32570257.5684,5882674.5148],[32570246.323,5882683.0116],[32570220.0835,5882697.0064],[32570176.8358,5882714.7317],[32570159.1081,5882721.9974],[32570127.1209,5882736.9919],[32570113.3765,5882745.4887],[32570103.3806,5882753.9855],[32570096.6334,5882762.9821],[32570092.6351,5882771.4787],[32570091.1358,5882779.4756],[32570093.8849,5882794.4696],[32570097.3836,5882800.967],[32570110.6285,5882811.9624],[32570134.0596,5882820.8897],[32570120.2154,5882855.5015],[32570162.6725,5882873.6966],[32570332.5016,5882988.9341],[32570387.0895,5883037.4553],[32570459.8728,5883049.5847],[32570611.5045,5883049.5824],[32570562.9826,5883073.8442],[32570484.1345,5883092.0413],[32570411.352,5883140.5643],[32570320.3735,5883183.0226],[32570290.0473,5883183.023],[32570277.9167,5883176.9579],[32570259.7205,5883152.6972],[32570235.4591,5883128.4365],[32570193.0018,5883085.9803],[32570144.4794,5883067.7853],[32570102.0226,5883067.7859],[32570041.3699,5883073.852],[32570017.109,5883073.8524],[32569992.8474,5883043.5265],[32569944.3251,5883025.3314],[32569901.8681,5883013.2015],[32569865.4761,5882988.941],[32569816.9535,5882952.5502],[32569762.366,5882940.4205],[32569669.6734,5882957.2751],[32569635.8182,5882921.9258],[32569624.3226,5882907.4317],[32569614.8261,5882891.4382],[32569600.3314,5882856.4523],[32569580.5882,5882780.9826],[32569575.0901,5882763.9894],[32569568.0927,5882749.9951],[32569559.346,5882738.9996],[32569549.8497,5882731.0029],[32569539.3537,5882725.5052],[32569528.358,5882722.0068],[32569507.1805,5882720.5077],[32569449.1612,5882616.0767],[32569441.9855,5882565.8514],[32569441.9852,5882541.0368],[32569441.9851,5882537.151],[32569449.1598,5882508.4505],[32569485.577,5882490.2413],[32569492.2099,5882486.9247],[32569542.4353,5882479.7489],[32569569.5193,5882456.5334],[32569592.6603,5882436.6977],[32569614.1853,5882415.1721],[32569657.2354,5882386.4713],[32569760.7928,5882386.4698],[32569786.3868,5882386.4694],[32569994.4649,5882443.8668],[32570030.3403,5882443.8663],[32570080.5654,5882415.1652],[32570102.09,5882372.1145],[32570123.615,5882350.5889],[32570145.1396,5882300.3631],[32570209.7151,5882293.1871],[32570274.2912,5882314.7114],[32570324.5167,5882321.8857],[32570360.392,5882300.3599],[32570338.8661,5882257.3097],[32570195.3628,5882135.3357],[32570059.035,5882049.2368],[32569994.4587,5881999.0122],[32569965.7583,5881991.8376],[32569915.5326,5881984.6633],[32569865.3058,5881898.5632],[32569786.3775,5881719.1875],[32569743.3261,5881654.6125],[32569750.5006,5881611.562],[32569800.7254,5881561.3357],[32569865.3007,5881532.6344],[32569944.2266,5881532.6332],[32570023.1526,5881539.8071],[32570087.7288,5881582.8566],[32570137.9547,5881597.206],[32570195.3554,5881604.3803],[32570224.0558,5881604.3798],[32570252.7558,5881590.0292],[32570281.4551,5881511.103],[32570317.3294,5881432.1767],[32570432.1299,5881374.7743],[32570503.8806,5881374.7733],[32570582.8065,5881374.7721],[32570661.7322,5881360.4208],[32570704.782,5881310.1946],[32570719.1312,5881245.6187],[32570697.6053,5881195.3935],[32570646.7502,5881124.1986],[32570738.8476,5881096.5678],[32570835.8912,5881072.3054],[32570860.1516,5881029.8481],[32570848.0208,5880987.3916],[32570757.0416,5880981.3276],[32570593.2798,5881029.8521],[32570548.3525,5881054.563],[32570502.3011,5881017.723],[32570332.474,5881041.9866],[32570229.3649,5881054.1186],[32570138.3856,5881041.9895],[32570089.8637,5881060.1861],[32570011.0157,5881102.6438],[32569926.1026,5881126.9063],[32569816.9278,5881139.0384],[32569756.2751,5881139.0393],[32569713.8185,5881139.0399],[32569665.2966,5881157.2365],[32569580.3838,5881223.9556],[32569513.6662,5881254.2829],[32569471.2098,5881290.6752],[32569392.3619,5881321.0025],[32569325.6447,5881363.4603],[32569283.1882,5881393.7872],[32569258.9272,5881405.9181],[32569216.4701,5881387.7231],[32569186.1435,5881357.3972],[32569180.0778,5881333.1361],[32569180.0772,5881284.6142],[32569204.338,5881254.2875],[32569234.6637,5881223.9607],[32569240.7283,5881187.5692],[32569252.8588,5881169.3731],[32569228.5974,5881139.0472],[32569167.9445,5881126.9176],[32569137.6178,5881102.6568],[32569137.6174,5881072.3308],[32569192.2041,5881029.873],[32569240.726,5881023.8072],[32569271.0522,5880993.4804],[32569283.1822,5880957.0886],[32569307.4426,5880914.6315],[32569374.1601,5880890.3694],[32569404.4859,5880853.9774],[32569422.6812,5880811.5204],[32569495.4636,5880775.1276],[32569531.8553,5880769.0619],[32569568.2466,5880756.9308],[32569653.1601,5880726.6032],[32569683.486,5880708.407],[32569683.4854,5880665.9502],[32569628.8974,5880617.429],[32569530.4471,5880563.7307],[32569525.7868,5880526.4516],[32569537.9166,5880477.9294],[32569537.9157,5880417.2767],[32569562.1761,5880374.8196],[32569574.3058,5880295.971],[32569604.6311,5880241.3833],[32569659.2178,5880192.8604],[32569762.3267,5880144.3368],[32569835.1096,5880126.1399],[32569950.3499,5880144.334],[32570004.9371,5880132.2027],[32570004.9367,5880101.8762],[32569974.61,5880077.6157],[32569938.2181,5880065.4857],[32569853.3045,5880053.3565],[32569677.4122,5880089.7507],[32569592.4985,5880101.8824],[32569556.1077,5880138.2746],[32569519.7173,5880229.2539],[32569501.5232,5880338.4289],[32569459.0675,5880423.3432],[32569386.2858,5880532.519],[32569289.2429,5880641.6951],[32569198.2649,5880702.349],[32569070.8956,5880787.2644],[32568973.8517,5880811.5271],[32568937.46,5880811.5276],[32568925.3291,5880781.2015],[32568907.1322,5880708.4186],[32568870.7402,5880665.9623],[32568779.761,5880641.7027],[32568682.7159,5880593.1821],[32568585.6713,5880562.8571],[32568476.4956,5880508.2715],[32568415.8424,5880453.685],[32568397.6458,5880399.0979],[32568409.7756,5880332.3799],[32568397.6435,5880235.336],[32568367.3158,5880138.2923],[32568349.1193,5880095.8357],[32568355.184,5880047.3135],[32568373.3791,5879992.726],[32568379.4438,5879944.2038],[32568306.6594,5879859.2913],[32568239.941,5879835.0313],[32568173.2226,5879792.5754],[32568051.9161,5879707.6636],[32567967.0018,5879653.0775],[32567930.6094,5879604.5559],[32567924.5434,5879549.9687],[32567936.6722,5879428.6634],[32567876.0176,5879283.098],[32567851.7564,5879264.9026],[32567833.561,5879301.2945],[32567809.3008,5879368.0127],[32567797.1718,5879471.1223],[32567797.1733,5879580.2969],[32567760.782,5879604.5585],[32567736.521,5879604.5588],[32567712.2598,5879598.494],[32567639.4763,5879568.1688],[32567493.9091,5879507.5183],[32567275.5583,5879410.4774],[32567111.7953,5879349.8273],[32567081.469,5879355.893],[32567081.4691,5879368.0235],[32567087.5349,5879398.3497],[32567105.7311,5879422.6104],[32567179.3155,5879467.3995],[32567157.8552,5879466.9623],[32567145.325,5879466.707],[32567139.2668,5879471.1981],[32567102.7395,5879498.2767],[32567064.8367,5879526.375],[32567056.347,5879542.8511],[32567049.9557,5879555.2545],[32567044.2508,5879566.3262],[32567049.1102,5879596.6682],[32567060.3055,5879666.5703],[32567069.1531,5879692.4004],[32567064.273,5879692.0404],[32567060.1331,5879691.7351],[32567049.7638,5879690.9702],[32567006.6128,5879687.7872],[32566999.2508,5879687.2442],[32566933.9357,5879662.3147],[32566931.2387,5879661.2853],[32566975.7192,5876469.4067],[32566988.0008,5876470.4863],[32567051.117,5876475.633],[32567254.3484,5876492.2051],[32567363.0091,5876501.4518],[32567437.9617,5876507.8301],[32567464.3926,5876507.2908],[32567521.243,5876506.1309],[32567531.606,5876511.1618],[32567550.0885,5876520.1345],[32567560.2273,5876525.0567],[32567620.0531,5876558.4969],[32567688.9187,5876596.9902],[32567690.3079,5876597.0186],[32567713.2013,5876597.485],[32567738.7625,5876598.0059],[32567774.2209,5876573.9656],[32567797.1414,5876558.4258],[32567837.9468,5876551.7823],[32567879.0164,5876545.0957],[32567881.5687,5876541.1461],[32567974.6325,5876397.1364],[32568103.6453,5876197.4981],[32568103.6521,5876197.166],[32568104.5735,5876151.9122],[32568105.2664,5876117.8789],[32568077.0126,5876090.7351],[32568064.2508,5876078.4746],[32568065.2857,5876075.2766],[32568079.1092,5876032.5604],[32568088.5281,5876003.4551],[32568132.1609,5875958.0449],[32568149.7574,5875951.105],[32568194.8562,5875933.3184],[32568245.1633,5875848.5706],[32568251.4578,5875837.9668],[32568251.7512,5875837.9608],[32568308.9305,5875836.7924],[32568328.8797,5875836.3848],[32568394.3529,5875847.5514],[32568419.3484,5875851.8145],[32568419.8997,5875851.2849],[32568430.454,5875841.1456],[32568434.2508,5875837.4981],[32568474.2878,5875774.2846],[32568522.2781,5875698.5137],[32568524.8218,5875697.2035],[32568548.8182,5875684.8434],[32568563.0789,5875677.4981],[32568565.6018,5875679.1003],[32568594.6087,5875697.5221],[32568617.8055,5875712.2539],[32568639.202,5875726.7593],[32568728.5086,5875787.3027],[32568728.6783,5875787.2729],[32568760.965,5875781.5951],[32568789.0945,5875776.6484],[32568790.5175,5875771.0961],[32568815.7759,5875672.5423],[32568834.0555,5875601.2188],[32568832.7895,5875599.4201],[32568819.7586,5875580.9063],[32568754.2508,5875537.9668],[32568754.2543,5875537.9543],[32568765.9153,5875496.3475],[32568774.7781,5875464.7246],[32568800.8501,5875414.1212],[32568822.0437,5875372.9863],[32568822.6354,5875365.4545],[32568837.2545,5875179.3624],[32568844.0555,5875092.791],[32568843.6226,5875092.1071],[32568830.8373,5875071.9038],[32568822.2586,5875058.3477],[32568750.311,5875029.9671],[32568730.5594,5875022.1758],[32568729.4581,5875021.1178],[32568637.6586,5874932.9284],[32568584.5437,5874881.9024],[32568584.4132,5874875.4287],[32568583.8489,5874847.4492],[32568583.5086,5874830.5742],[32568594.0555,5874787.3027],[32568631.5393,5874666.2735],[32568654.0555,5874593.5723],[32568632.1023,5874564.4609],[32568562.8159,5874497.8904],[32568504.5437,5874441.9024],[32568504.4138,5874435.4869],[32568503.7121,5874400.8392],[32568502.8641,5874358.9629],[32568516.7995,5874339.5817],[32568525.9926,5874326.796],[32568529.1531,5874322.4004],[32568551.9907,5874342.0823],[32568585.4852,5874370.9484],[32568604.3484,5874387.2051],[32568667.2113,5874444.2442],[32568780.0711,5874546.6484],[32568781.4547,5874546.7031],[32568802.0277,5874547.515],[32568830.0516,5874548.6211],[32568893.4695,5874489.8809],[32568893.476,5874489.7157],[32568895.2359,5874445.0864],[32568896.0477,5874424.5],[32568876.3346,5874340.3711],[32568861.243,5874275.9649],[32568863.9229,5874208.3382],[32568866.0672,5874154.2266],[32568859.7449,5874134.2737],[32568852.6687,5874111.9414],[32568831.3427,5874095.5853],[32568781.8094,5874057.5957],[32568733.9578,5874077.2051],[32568731.7755,5874078.3607],[32568706.868,5874091.5508],[32568686.1117,5874097.1194],[32568670.4725,5874101.3151],[32568634.9299,5874110.8506],[32568629.1531,5874112.4004],[32568629.6857,5874106.1712],[32568633.8797,5874057.1172],[32568652.1609,5873936.9512],[32568643.7009,5873927.4888],[32568626.282,5873908.0059],[32568614.44,5873906.4308],[32568573.1456,5873900.9384],[32568509.1727,5873892.4297],[32568349.1531,5873882.4004],[32568343.2352,5873836.1211],[32568339.6068,5873835.1068],[32568312.1269,5873827.4253],[32568274.6219,5873816.9414],[32568230.3844,5873809.0553],[32568203.1946,5873804.2082],[32568201.5109,5873800.5716],[32568182.7668,5873760.0859],[32568172.3867,5873728.4529],[32568172.2705,5873728.0988],[32568170.0212,5873714.1044],[32568169.7709,5873688.6145],[32568175.0186,5873666.1234],[32568180.2663,5873656.1272],[32568188.2631,5873647.6305],[32568199.0087,5873640.6331],[32568213.0031,5873635.6349],[32568217.631,5873634.7934],[32568229.4965,5873632.6358],[32568264.2327,5873630.6361],[32568316.4621,5873635.6334],[32568388.7816,5873616.1208],[32568404.6219,5873616.9414],[32568469.5242,5873631.3848],[32568497.6191,5873635.8284],[32568573.6844,5873647.8594],[32568579.1531,5873652.4004],[32568582.2721,5873653.8021],[32568641.6727,5873680.4961],[32568644.8488,5873682.1779],[32568690.325,5873706.2578],[32568739.039,5873724.206],[32568851.1062,5873765.4961],[32568858.5485,5873769.4343],[32568883.9187,5873782.8594],[32568937.1614,5873775.919],[32569013.8992,5873765.916],[32569013.9501,5873767.2004],[32569015.5598,5873807.8144],[32569016.6922,5873836.3848],[32569003.5956,5873898.9826],[32568994.3484,5873943.1817],[32568995.8673,5873944.2981],[32568997.8484,5873945.7543],[32569013.9578,5873957.5957],[32569037.7987,5873965.1397],[32569050.9305,5873969.2949],[32569059.4776,5874014.1003],[32569069.6023,5874067.1758],[32569130.4621,5874073.0051],[32569187.2586,5874078.4453],[32569188.6738,5874082.4841],[32569202.7185,5874122.5663],[32569212.2586,5874149.793],[32569219.0252,5874206.3351],[32569225.618,5874261.4238],[32569244.3012,5874259.7958],[32569257.8481,5874292.8583],[32569289.5864,5874356.3326],[32569361.5592,5874452.2934],[32569404.0431,5874500.7735],[32569422.2862,5874527.7625],[32569434.2818,5874555.7512],[32569438.2805,5874570.7452],[32569442.7791,5874600.7332],[32569442.2797,5874629.7217],[32569435.2828,5874654.2121],[32569429.5352,5874665.2078],[32569413.5419,5874684.7003],[32569403.0461,5874693.6969],[32569390.5512,5874701.1941],[32569375.3073,5874707.192],[32569340.8211,5874715.1893],[32569332.0981,5874716.5782],[32569331.878,5874716.2659],[32569329.1531,5874712.4004],[32569186.0281,5874719.627],[32569178.7586,5874721.015],[32569120.3808,5874732.1618],[32569057.2977,5874744.207],[32569056.3141,5874746.0655],[32569027.7502,5874800.0391],[32569023.9578,5874807.2051],[32569014.3484,5874827.5957],[32568994.4461,5874865.2129],[32568994.1258,5874873.2078],[32568993.6258,5874885.6914],[32568996.0143,5874890.7547],[32569006.4187,5874912.8106],[32569017.2506,5874922.637],[32569086.6617,5874985.6057],[32569154.5633,5875047.2051],[32569156.1268,5875047.0166],[32569236.2266,5875037.3608],[32569293.8211,5875030.418],[32569298.9821,5875028.785],[32569332.9008,5875018.0528],[32569336.907,5875016.7852],[32569342.6076,5875009.0571],[32569410.3741,5874917.1882],[32569461.8094,5874847.459],[32569462.2065,5874845.5613],[32569469.8034,5874809.2631],[32569478.5281,5874767.5762],[32569423.8355,5874762.8075],[32569431.7856,5874758.6707],[32569446.5297,5874749.1742],[32569513.5025,5874701.1923],[32569550.7372,5874667.2052],[32569557.4844,5874655.7097],[32569561.9824,5874641.2154],[32569564.7311,5874624.7219],[32569565.4803,5874588.7362],[32569563.9807,5874571.2431],[32569558.4824,5874540.2555],[32569554.4838,5874526.2611],[32569526.4937,5874443.2945],[32569505.3761,5874431.9239],[32569497.2557,5874427.5515],[32569476.1421,5874416.1831],[32569471.2637,5874413.5564],[32569455.0215,5874404.8109],[32569454.4564,5874399.2683],[32569449.7729,5874353.3314],[32569444.5247,5874330.8404],[32569445.0243,5874317.3457],[32569450.0221,5874303.851],[32569459.5182,5874291.3558],[32569466.0155,5874286.8575],[32569475.2618,5874283.3588],[32569506.2495,5874279.3599],[32569549.9821,5874278.3597],[32569655.4404,5874281.8567],[32569700.4226,5874287.3538],[32569719.4152,5874291.352],[32569748.5225,5874298.9841],[32569831.871,5874320.8386],[32569831.5337,5874324.3618],[32569829.6222,5874344.3293],[32569900.3445,5874367.8189],[32569921.1419,5874375.9462],[32569943.8275,5874384.8115],[32570000.1106,5874400.3161],[32570052.9674,5874414.8769],[32570083.5227,5874423.2941],[32570166.2403,5874450.2821],[32570189.4812,5874460.2778],[32570200.2271,5874467.7747],[32570210.973,5874478.7702],[32570221.823,5874493.6172],[32570221.8659,5874493.6759],[32570229.9658,5874504.7596],[32570245.4599,5874522.7522],[32570263.4529,5874535.7467],[32570283.695,5874541.7441],[32570304.6867,5874539.7445],[32570313.1833,5874537.2454],[32570325.6782,5874530.248],[32570335.1743,5874520.7516],[32570350.1681,5874501.2591],[32570359.3576,5874492.3478],[32570411.5852,5874477.8714],[32570432.0633,5874472.1953],[32570432.1627,5874472.4786],[32570442.5428,5874502.0593],[32570444.3484,5874507.2051],[32570448.8697,5874526.1876],[32570460.3836,5874574.5293],[32570460.5187,5874574.6008],[32570481.0305,5874585.4567],[32570521.1453,5874606.6875],[32570533.9499,5874607.1955],[32570561.7991,5874608.3004],[32570601.6336,5874609.8809],[32570653.3891,5874566.1422],[32570664.4266,5874556.8145],[32570687.0295,5874557.7109],[32570728.45,5874559.3535],[32570752.9195,5874549.8291],[32570782.3595,5874538.3699],[32570784.3484,5874537.5957],[32570862.565,5874473.0941],[32570898.743,5874443.2598],[32570900.6804,5874442.0736],[32570955.4185,5874408.5608],[32570986.3602,5874389.6172],[32571023.1928,5874377.9546],[32571053.6258,5874368.3184],[32571063.8462,5874216.9558],[32571073.9578,5874067.2051],[32571074.2127,5874065.7426],[32571081.0802,5874026.345],[32571084.3484,5874007.5957],[32571097.0828,5873927.5957],[32571099.8698,5873927.9028],[32571111.8052,5873929.218],[32571210.1687,5873940.0567],[32571214.8983,5873941.5542],[32571266.5823,5873957.9189],[32571290.2664,5873965.418],[32571298.949,5873970.5212],[32571341.7674,5873995.6881],[32571344.3484,5873997.2051],[32571438.157,5874056.5703],[32571467.0559,5874057.7166],[32571513.743,5874059.5684],[32571519.0067,5873955.3001],[32571519.1531,5873952.4004],[32571538.1747,5873950.4182],[32571539.4392,5873953.9586],[32571569.178,5874001.4393],[32571585.1722,5874034.9258],[32571593.4193,5874061.4151],[32571592.4199,5874077.9086],[32571585.173,5874094.4022],[32571571.4286,5874108.3968],[32571561.9325,5874113.8948],[32571507.4544,5874137.8861],[32571493.7099,5874144.8835],[32571482.2146,5874152.8805],[32571473.7181,5874161.3772],[32571469.4699,5874169.8739],[32571467.7208,5874187.367],[32571469.2203,5874194.864],[32571471.9693,5874200.8616],[32571476.4676,5874205.8595],[32571482.4653,5874209.3581],[32571490.4621,5874210.3575],[32571500.2083,5874209.8576],[32571512.628,5874207.0586],[32571535.6941,5874201.8602],[32571551.7514,5874199.3896],[32571531.0352,5874212.5622],[32571514.6414,5874222.9863],[32571509.2657,5874251.7784],[32571502.7078,5874286.9024],[32571416.6506,5874294.9785],[32571318.3133,5874304.207],[32571304.5937,5874316.4677],[32571284.4266,5874334.4902],[32571300.1793,5874423.2758],[32571300.9891,5874427.8399],[32571343.9969,5874521.5508],[32571344.0282,5874521.5605],[32571394.4266,5874537.1172],[32571409.7787,5874542.6239],[32571443.9773,5874554.8906],[32571500.1008,5874546.1471],[32571538.0,5874540.2427],[32571554.4266,5874537.6836],[32571583.3269,5874529.9435],[32571593.8797,5874527.1172],[32571604.4348,5874525.1473],[32571644.4266,5874517.6836],[32571649.528,5874511.9735],[32571658.5867,5874501.834],[32571687.1162,5874493.0239],[32571666.9193,5874541.7867],[32571661.1493,5874555.7178],[32571622.4156,5874622.6918],[32571616.1682,5874635.6867],[32571612.9197,5874646.6824],[32571613.6695,5874654.6792],[32571618.4177,5874659.6772],[32571634.4113,5874659.6769],[32571655.6528,5874650.1804],[32571677.144,5874634.1864],[32571686.3903,5874625.1899],[32571705.8822,5874598.7001],[32571726.8733,5874561.7145],[32571746.8648,5874520.2306],[32571768.3555,5874460.2541],[32571773.3532,5874439.7622],[32571780.1,5874397.7788],[32571781.4666,5874359.0418],[32571781.5988,5874355.2956],[32571780.0991,5874334.8038],[32571771.8518,5874296.819],[32571758.3567,5874262.3329],[32571743.862,5874231.3454],[32571733.8656,5874204.3563],[32571731.6163,5874191.8613],[32571731.7953,5874182.5478],[32571731.866,5874178.8664],[32571741.6115,5874127.8865],[32571766.1006,5874044.4193],[32571787.8412,5873986.9418],[32571807.083,5873948.9566],[32571817.5787,5873933.4626],[32571828.5741,5873920.9674],[32571840.0694,5873911.9708],[32571864.3097,5873901.9744],[32571877.3045,5873899.975],[32571890.7992,5873900.4746],[32571919.288,5873905.4722],[32571950.5257,5873916.4673],[32571967.769,5873925.9633],[32572024.3131,5873964.7082],[32572057.4843,5873987.4375],[32572088.7222,5874004.9301],[32572104.9659,5874011.9271],[32572139.4523,5874022.4224],[32572156.9454,5874024.4214],[32572174.6884,5874024.9209],[32572191.9315,5874022.4216],[32572208.6748,5874016.9236],[32572224.4185,5874008.9265],[32572238.1629,5873998.9303],[32572249.9081,5873987.4346],[32572259.9039,5873974.9395],[32572268.1505,5873961.4447],[32572274.3978,5873946.9504],[32572278.8958,5873931.9562],[32572282.8938,5873900.9685],[32572285.2135,5873860.6319],[32572286.2648,5873842.3515],[32572340.2896,5873893.9026],[32572345.7156,5873899.0801],[32572360.4552,5873929.4641],[32572403.9312,5874019.085],[32572403.9383,5874019.0996],[32572483.4976,5874325.3433],[32572482.3207,5874328.7956],[32572473.0748,5874363.7818],[32572460.8306,5874428.7562],[32572459.8114,5874436.4163],[32572455.0278,5874472.3702],[32572444.3389,5874552.7072],[32572428.0967,5874656.1664],[32572422.4052,5874676.2231],[32572417.6014,5874693.1519],[32572409.8547,5874711.6446],[32572391.8623,5874746.631],[32572372.8703,5874774.1204],[32572364.1239,5874783.6167],[32572354.1279,5874791.1139],[32572325.3895,5874802.6098],[32572294.2027,5874811.0067],[32572247.4207,5874823.6026],[32572202.1889,5874843.0956],[32572185.4456,5874851.5924],[32572157.7069,5874870.0855],[32572149.2104,5874879.0821],[32572145.9618,5874887.5787],[32572147.4613,5874894.0761],[32572151.2098,5874898.0745],[32572163.9548,5874900.5733],[32572175.2639,5874900.2231],[32572228.5557,5874898.5731],[32572293.1535,5874896.573],[32572331.1384,5874893.0738],[32572376.5044,5874884.4167],[32572401.8602,5874879.5781],[32572418.8535,5874879.5778],[32572424.8512,5874882.0767],[32572430.0991,5874886.5749],[32572448.3423,5874911.5647],[32572462.3369,5874927.0583],[32572469.834,5874931.0566],[32572477.5809,5874931.5563],[32572484.0783,5874928.0576],[32572488.0767,5874922.5597],[32572490.0757,5874914.063],[32572489.5757,5874893.5712],[32572486.9285,5874876.2643],[32572483.0776,5874851.0882],[32572482.8276,5874841.0921],[32572485.8261,5874820.6002],[32572493.3229,5874801.6076],[32572499.0705,5874792.6111],[32572502.145,5874788.7944],[32572506.3175,5874783.6146],[32572515.0639,5874777.117],[32572525.0599,5874772.1189],[32572536.3054,5874769.6197],[32572559.2963,5874770.1192],[32572581.0378,5874775.6166],[32572610.7762,5874787.6114],[32572662.7557,5874801.6051],[32572679.4815,5874829.3524],[32572694.0185,5874853.4685],[32572741.4029,5874932.0768],[32572733.2547,5874938.2598],[32572733.88,5874969.0167],[32572734.4705,5874998.0626],[32572734.7,5875009.3535],[32572755.1574,5875049.0661],[32572764.4461,5875067.0977],[32572773.945,5875096.3524],[32572782.0706,5875121.3773],[32572786.4773,5875134.9492],[32572779.7912,5875233.0617],[32572770.4571,5875370.0297],[32572770.032,5875376.2676],[32572764.9347,5875386.1631],[32572750.5729,5875414.044],[32572750.5594,5875414.0703],[32572490.3641,5875396.3555],[32572426.7898,5875397.6543],[32572420.0575,5875445.8791],[32572411.2234,5875509.1582],[32572413.1191,5875601.738],[32572414.1898,5875654.0302],[32572388.1265,5875660.768],[32572328.1504,5875672.2644],[32572305.6595,5875679.7617],[32572269.4241,5875698.2549],[32572255.9295,5875706.7518],[32572217.6951,5875735.241],[32572199.4526,5875757.2326],[32572188.2074,5875781.723],[32572181.4605,5875807.213],[32572169.9659,5875867.6892],[32572159.9703,5875901.6758],[32572145.7264,5875938.1615],[32572137.4799,5875955.1549],[32572123.0759,5875979.3544],[32572093.7483,5876028.6264],[32572063.8965,5876073.0582],[32572061.5117,5876076.6078],[32572042.0198,5876100.0988],[32572020.0288,5876123.09],[32571995.039,5876143.5822],[32571982.034,5876152.5002],[32571968.7997,5876161.5755],[32571942.8102,5876176.5699],[32571892.8303,5876199.0617],[32571846.5988,5876212.5571],[32571825.3573,5876216.056],[32571784.8734,5876220.055],[32571736.8924,5876222.0549],[32571609.4429,5876223.0565],[32571559.9626,5876225.0564],[32571394.5283,5876240.0529],[32571360.292,5876246.5509],[32571346.6124,5876250.583],[32571323.0693,5876257.5223],[32571312.811,5876260.546],[32571211.6016,5876296.5333],[32571172.8671,5876307.0297],[32571139.8802,5876309.5292],[32571103.3947,5876306.5309],[32571068.4084,5876300.034],[32571049.9808,5876294.6189],[32571051.9455,5876281.4435],[32571058.1375,5876239.9199],[32571082.0153,5876220.9872],[32571143.9578,5876171.8731],[32571144.0021,5876169.7144],[32571144.6813,5876136.5962],[32571145.0125,5876120.4473],[32571137.5651,5876097.505],[32571125.4052,5876060.0456],[32571106.1062,5876000.5938],[32571101.4794,5875999.4078],[32571077.118,5875993.1634],[32571051.282,5875986.541],[32571026.9959,5875987.0363],[32570974.6609,5875988.1035],[32570970.5568,5875980.137],[32570964.3623,5875968.1126],[32570954.7586,5875949.4707],[32570930.3355,5875881.8441],[32570907.1219,5875817.5664],[32570849.1531,5875816.3848],[32570833.2172,5875816.7097],[32570749.0555,5875818.4258],[32570726.6347,5875772.1999],[32570715.2078,5875748.6406],[32570627.468,5875737.9212],[32570560.618,5875729.7539],[32570554.8602,5875727.7826],[32570524.2508,5875717.3027],[32570500.8206,5875711.5884],[32570472.3172,5875704.6367],[32570454.5182,5875322.8125],[32570678.269,5875241.9577],[32570664.4906,5875155.3584],[32570648.7445,5875104.1862],[32570625.1257,5875056.9505],[32570607.4119,5875035.3008],[32570591.6663,5875021.5239],[32570544.4303,5875033.3336],[32570495.2265,5875068.7614],[32570501.1326,5875178.9789],[32570453.8968,5875208.5022],[32570451.3922,5875255.7538],[32570446.2625,5875145.7109],[32570446.2494,5875145.4846],[32570440.6531,5875048.3856],[32570434.2508,5874937.3027],[32570430.6984,5874931.4433],[32570421.4653,5874916.2142],[32570419.1531,5874912.4004],[32570024.2508,5874917.4297],[32570024.7403,5874921.1384],[32570029.5855,5874957.8468],[32570047.0437,5875090.1152],[32570154.0555,5875747.4981],[32570224.2508,5876177.3027],[32570265.633,5876431.5234],[32570235.2406,5876444.9889],[32570218.2475,5876453.4858],[32570206.2523,5876459.4836],[32570194.2572,5876465.4814],[32570167.0053,5876480.8166],[32570038.82,5876552.949],[32570002.0848,5876569.9428],[32569985.0916,5876575.9407],[32569968.0984,5876581.4388],[32569933.1124,5876588.9363],[32569896.8768,5876591.9357],[32569858.8918,5876590.9366],[32569839.6494,5876587.4383],[32569802.414,5876576.4432],[32569770.1766,5876562.4493],[32569745.936,5876547.9554],[32569700.7034,5876509.4713],[32569624.9824,5876440.9997],[32569512.2756,5876334.5436],[32569502.7792,5876318.0503],[32569495.0319,5876296.559],[32569484.7854,5876254.076],[32569483.7856,5876237.0828],[32569485.5348,5876229.0859],[32569493.7813,5876213.0921],[32569507.0258,5876198.0979],[32569522.7694,5876183.6034],[32569526.7677,5876175.6065],[32569528.0171,5876167.1099],[32569524.0184,5876150.6165],[32569519.5201,5876143.6193],[32569507.7746,5876131.6243],[32569500.2775,5876127.1262],[32569478.536,5876120.6291],[32569452.0465,5876116.1313],[32569420.358,5876114.8642],[32569402.0662,5876114.1328],[32569387.8218,5876110.6344],[32569356.3342,5876098.6396],[32569298.5464,5876067.4041],[32569273.1165,5876053.6588],[32569244.1278,5876041.1641],[32569228.384,5876036.1664],[32569195.8968,5876030.1692],[32569195.6241,5876030.1803],[32569193.8797,5876027.6836],[32569186.9126,5876009.5735],[32569174.4266,5875977.1172],[32569101.25,5875969.4941],[32569056.0281,5875964.7832],[32569050.5742,5875961.5974],[32568974.4266,5875917.1172],[32568966.9847,5875914.819],[32568943.8797,5875907.6836],[32568943.4064,5875907.1546],[32568939.1531,5875902.4004],[32568899.6023,5875909.7832],[32568873.8797,5875957.1172],[32568868.5018,5875968.8271],[32568848.45,5876012.4883],[32568832.7813,5876032.7166],[32568791.307,5876018.6798],[32568739.9596,5876007.0548],[32568698.5934,5875997.6896],[32568671.8539,5875989.1933],[32568659.6087,5875983.6957],[32568637.3673,5875969.7016],[32568610.2522,5875944.3366],[32568575.3911,5875911.7255],[32568549.6511,5875896.7319],[32568533.9072,5875892.2339],[32568498.921,5875887.7362],[32568463.9349,5875889.2361],[32568434.4467,5875894.7344],[32568406.208,5875905.2306],[32568356.9779,5875930.2215],[32568310.9965,5875959.7104],[32568299.0014,5875968.707],[32568281.0088,5875985.7006],[32568271.0129,5876000.6947],[32568268.764,5876014.1894],[32568273.5123,5876025.6848],[32568278.0105,5876029.1833],[32568290.5056,5876031.6821],[32568323.2426,5876027.1834],[32568394.2143,5876012.6881],[32568433.4487,5876009.1889],[32568477.4313,5876011.1875],[32568532.6595,5876022.1823],[32568594.8851,5876039.1746],[32568656.8608,5876060.6652],[32568753.5731,5876100.6478],[32568874.0261,5876153.625],[32568962.2417,5876196.6066],[32568991.9802,5876216.0984],[32569012.7222,5876235.5904],[32569019.9695,5876245.5863],[32569029.4661,5876268.577],[32569031.9654,5876294.0669],[32569029.7165,5876305.0625],[32569025.4683,5876314.5588],[32569019.4708,5876323.0556],[32569010.7324,5876331.5021],[32568975.2388,5876358.0423],[32568947.9998,5876371.5374],[32568898.2697,5876390.5306],[32568864.2834,5876401.5267],[32568833.7956,5876409.0242],[32568808.8055,5876412.0234],[32568767.3219,5876410.0248],[32568756.8261,5876410.0249],[32568696.5999,5876410.0258],[32568671.1207,5876407.7405],[32568601.8874,5876401.5306],[32568576.8973,5876404.5298],[32568569.9001,5876408.0285],[32568567.901,5876413.5264],[32568569.9003,5876419.524],[32568573.6489,5876424.5219],[32568579.3966,5876428.0204],[32568619.6309,5876442.5141],[32568626.6282,5876446.5124],[32568631.3764,5876452.5099],[32568635.8748,5876468.5035],[32568633.8761,5876504.9891],[32568635.8754,5876511.9862],[32568642.3729,5876514.985],[32568652.3689,5876515.9844],[32568709.0964,5876508.4865],[32568755.0782,5876510.4851],[32568786.5657,5876509.9848],[32568841.2939,5876501.9872],[32568921.012,5876481.9939],[32568954.3924,5876472.6924],[32569082.4474,5876437.0094],[32569123.1811,5876428.5121],[32569141.3928,5876427.6405],[32569168.1634,5876435.5087],[32569193.1537,5876450.5023],[32569205.1491,5876460.998],[32569215.6451,5876472.9931],[32569224.6417,5876486.4876],[32569229.64,5876501.9814],[32569230.14,5876519.9742],[32569226.6417,5876538.4669],[32569220.1445,5876557.9593],[32569211.898,5876576.9518],[32569186.1589,5876624.4334],[32569178.4121,5876634.9293],[32569169.9156,5876642.9263],[32569128.9322,5876666.9174],[32569096.1955,5876692.9075],[32569086.9492,5876698.4055],[32569070.9557,5876703.9035],[32569049.2143,5876707.4025],[32569034.7202,5876714.3999],[32569025.2241,5876724.8959],[32569021.7256,5876735.8916],[32569024.7246,5876745.8876],[32569033.4712,5876752.8846],[32569048.3657,5876756.8437],[32569072.9557,5876763.3799],[32569082.7019,5876771.3766],[32569091.6986,5876790.3689],[32569102.8749,5876825.1856],[32569117.6895,5876871.3363],[32569122.1878,5876879.3331],[32569127.1859,5876884.331],[32569131.934,5876886.3302],[32569136.7737,5876886.3301],[32569136.932,5876886.3301],[32569146.4282,5876880.3323],[32569157.1737,5876866.3377],[32569220.1473,5876757.8799],[32569246.6361,5876708.8989],[32569269.0874,5876651.692],[32569283.1204,5876615.9353],[32569288.618,5876605.4394],[32569296.1149,5876595.943],[32569307.6102,5876585.447],[32569339.0975,5876564.4549],[32569376.0825,5876546.4615],[32569394.5751,5876539.464],[32569412.0681,5876534.9655],[32569430.061,5876531.9665],[32569473.7936,5876529.4668],[32569523.0241,5876531.4653],[32569547.7643,5876533.9639],[32569572.0048,5876538.4618],[32569617.9867,5876551.4559],[32569643.2269,5876561.9514],[32569694.7068,5876586.9407],[32569788.1705,5876640.9178],[32569813.4108,5876659.4101],[32569837.1517,5876679.4018],[32569857.144,5876698.8938],[32569871.1387,5876717.3862],[32569876.1369,5876727.882],[32569882.8845,5876750.3729],[32569887.0147,5876772.212],[32569897.6298,5876828.3418],[32569905.1272,5876857.8299],[32569915.1237,5876887.8179],[32569934.8664,5876927.3019],[32569964.1054,5876969.2848],[32569984.5981,5877028.2611],[32569992.7896,5877057.3098],[32569995.2449,5877066.0167],[32570008.8397,5877114.2266],[32570010.3394,5877136.7176],[32570008.8402,5877151.2119],[32570001.3437,5877193.6951],[32569983.3519,5877268.6656],[32569970.6075,5877309.6495],[32569957.6131,5877343.1364],[32569927.1261,5877408.1111],[32569915.7626,5877428.5058],[32569851.6579,5877543.5584],[32569762.6082,5877712.2513],[32569762.6086,5877737.9566],[32569766.6148,5877753.9808],[32569780.6362,5877761.9927],[32569824.2483,5877774.8191],[32569869.404,5877764.9702],[32569886.897,5877762.9708],[32569919.3323,5877763.5698],[32570200.1512,5877857.1714],[32570399.8767,5877909.7272],[32570673.1844,5877930.7471],[32570778.3025,5877909.7215],[32570904.4436,5877846.6489],[32571030.5842,5877762.5527],[32571102.3622,5877674.2079],[32571108.0229,5877685.1992],[32571114.5633,5877697.8984],[32571132.012,5877697.5422],[32571160.3223,5877696.9642],[32571160.4812,5877696.9609],[32571503.1036,5877631.3118],[32571550.0711,5877622.3125],[32571682.0497,5877625.0093],[32571865.5008,5877628.7578],[32572189.7977,5877659.9785],[32572405.3055,5877684.4609],[32572434.6584,5877704.3614],[32572463.4695,5877723.8945],[32572444.7787,5877751.4713],[32572427.3172,5877777.2344],[32572419.1695,5877877.1458],[32572411.7703,5877967.8789],[32572391.716,5877993.535],[32572369.1531,5878022.4004],[32572360.1802,5878021.3818],[32572359.0436,5878021.2528],[32572318.1375,5878016.6094],[32572273.0203,5878017.5274],[32572258.8241,5878024.84],[32572234.2508,5878037.4981],[32572151.5077,5878042.5619],[32572033.3523,5878049.793],[32571939.5828,5878073.8262],[32571880.5193,5878110.9748],[32571826.1453,5878145.1738],[32571770.3301,5878156.0728],[32571732.9431,5878163.3733],[32571732.0242,5878163.5527],[32571722.1405,5878156.0535],[32571671.7508,5878117.8203],[32571604.3613,5878140.8804],[32571599.3484,5878142.5957],[32571550.849,5878158.3422],[32571547.1023,5878159.5586],[32571533.3717,5878194.3683],[32571521.0086,5878225.7109],[32571434.3709,5878324.2058],[32571411.999,5878349.6395],[32571411.6922,5878349.9883],[32571186.8377,5878536.0034],[32571180.3445,5878541.375],[32571163.3692,5878584.3938],[32571147.7859,5878623.8848],[32570959.1445,5878611.0377],[32570865.0125,5878604.627],[32570822.6288,5878605.4913],[32570725.3321,5878607.4755],[32570719.8285,5878601.1254],[32570713.0812,5878597.1271],[32570705.834,5878595.6278],[32570698.337,5878596.6275],[32570683.593,5878604.6246],[32570677.8453,5878611.1221],[32570673.5971,5878619.6188],[32570671.0983,5878629.6149],[32570668.1511,5878662.9227],[32570666.101,5878686.0925],[32570660.8533,5878704.0854],[32570651.1074,5878718.08],[32570644.3601,5878723.0781],[32570636.1135,5878727.0767],[32570626.6173,5878729.076],[32570615.3717,5878730.0758],[32570593.6303,5878727.0773],[32570574.6377,5878718.581],[32570526.4064,5878685.095],[32570470.9277,5878637.6147],[32570425.4445,5878547.6511],[32570399.7042,5878511.6658],[32570381.9609,5878493.1734],[32570360.7191,5878476.1804],[32570336.9784,5878463.6857],[32570324.2334,5878459.1877],[32570310.7387,5878456.6889],[32570281.7501,5878456.1896],[32570249.7629,5878464.1869],[32570233.2696,5878471.6841],[32570201.5324,5878491.6767],[32570187.0383,5878503.1723],[32570174.5434,5878514.6679],[32570155.8012,5878536.1597],[32570144.9647,5878551.4757],[32570099.5746,5878615.629],[32570067.5878,5878657.6128],[32570058.8414,5878666.1095],[32570036.3505,5878681.6037],[32569996.1168,5878702.596],[32569959.5016,5878703.0999],[32569923.3956,5878703.5967],[32569887.0388,5878704.097],[32569886.7804,5878704.1006],[32569850.6744,5878704.5974],[32569816.9375,5878684.106],[32569760.4595,5878656.118],[32569741.9668,5878649.121],[32569717.2252,5878641.7906],[32569694.7353,5878635.1273],[32569644.0051,5878614.6362],[32569598.2729,5878591.1462],[32569586.0276,5878583.1495],[32569575.5317,5878573.6535],[32569567.0349,5878563.1578],[32569555.5391,5878540.1671],[32569552.2903,5878529.1715],[32569550.7907,5878517.6761],[32569552.2898,5878498.1838],[32569564.5345,5878464.1971],[32569568.5327,5878447.7036],[32569568.5326,5878439.207],[32569563.5343,5878418.7152],[32569552.7882,5878392.7257],[32569528.5472,5878350.7427],[32569508.3048,5878322.7541],[32569483.8141,5878295.2654],[32569455.3251,5878268.7763],[32569423.5873,5878244.2865],[32569273.1455,5878144.3285],[32569242.14,5878124.6431],[32569210.1699,5878104.3453],[32569189.4279,5878088.352],[32569147.1942,5878051.8671],[32569090.7158,5877998.3892],[32569060.9772,5877969.4011],[32568984.7563,5877887.9346],[32568964.2641,5877867.9428],[32568944.5217,5877851.4497],[32568926.0289,5877838.4551],[32568907.2862,5877829.459],[32568886.7942,5877822.4621],[32568843.0614,5877813.4663],[32568799.8285,5877810.4681],[32568729.6063,5877812.9682],[32568683.6247,5877818.9665],[32568632.8949,5877831.9621],[32568508.1949,5877869.9489],[32568460.706,5877879.9766],[32568422.9789,5877887.943],[32568393.4908,5877898.939],[32568379.4964,5877907.4359],[32568365.5021,5877917.9319],[32568351.7577,5877931.4268],[32568339.7627,5877946.9208],[32568331.0164,5877963.9142],[32568324.7691,5877981.9071],[32568318.772,5878018.3927],[32568319.2723,5878051.8794],[32568322.6352,5878078.5695],[32568327.27,5878115.3541],[32568332.7688,5878186.8256],[32568331.7698,5878231.308],[32568325.5229,5878271.2922],[32568320.2752,5878291.2843],[32568314.2778,5878304.2793],[32568302.0328,5878316.2747],[32568293.5362,5878322.2724],[32568273.5443,5878331.7689],[32568250.5535,5878337.7669],[32568237.5586,5878337.7671],[32568222.8145,5878335.2683],[32568191.3268,5878323.7733],[32568175.8328,5878316.2766],[32568148.5934,5878299.2837],[32568119.4646,5878276.1766],[32568059.1278,5878228.3132],[32568003.1495,5878188.3299],[32567975.4102,5878171.3371],[32567949.6702,5878158.3426],[32567898.1904,5878138.8511],[32567845.4611,5878124.8575],[32567797.2301,5878115.8618],[32567759.9948,5878112.8635],[32567723.2594,5878118.3619],[32567678.5273,5878131.8572],[32567636.5442,5878149.8507],[32567606.8063,5878168.3438],[32567595.5609,5878179.3396],[32567581.8165,5878194.8336],[32567551.5791,5878234.3184],[32567524.0906,5878278.8011],[32567514.0948,5878299.7929],[32567507.8476,5878319.2853],[32567504.849,5878337.2782],[32567505.3493,5878374.2635],[32567508.5983,5878392.2563],[32567519.0946,5878424.2434],[32567526.3419,5878437.738],[32567534.089,5878448.2337],[32567560.8287,5878472.2238],[32567617.7166,5878517.125],[32567645.0463,5878538.6961],[32567684.0313,5878571.6824],[32567734.4406,5878619.6626],[32567744.1011,5878628.8576],[32567772.2475,5878655.6478],[32567802.7357,5878680.6374],[32567815.2309,5878688.1342],[32567827.4761,5878693.1321],[32567857.4643,5878700.6287],[32567905.9452,5878706.1257],[32567933.1844,5878707.1249],[32567957.9246,5878704.6256],[32568020.1497,5878692.6294],[32568038.8923,5878690.6299],[32568192.0815,5878686.1294],[32568206.3259,5878689.128],[32568230.0665,5878690.1273],[32568291.542,5878682.1295],[32568338.5233,5878672.6326],[32568362.5137,5878669.6334],[32568398.9993,5878668.6333],[32568418.9284,5878669.1328],[32568458.1682,5878670.1163],[32568478.7177,5878670.6313],[32568553.1594,5878665.0895],[32568686.885,5878655.1344],[32568747.8608,5878656.6329],[32568801.8395,5878663.6293],[32568834.5767,5878671.6256],[32568867.064,5878684.62],[32568898.5517,5878702.1126],[32568912.2964,5878712.6082],[32568924.042,5878724.1034],[32568933.2885,5878736.5983],[32568939.2863,5878750.0929],[32568942.0354,5878762.5879],[32568940.7861,5878782.0802],[32568930.5406,5878810.0692],[32568931.7903,5878823.5638],[32568937.788,5878831.5606],[32568948.2839,5878834.5592],[32568973.2739,5878832.5596],[32568984.0197,5878830.0605],[32569006.0108,5878818.5647],[32569052.2311,5878782.6411],[32569150.7019,5878706.1072],[32569159.8133,5878706.6171],[32569248.913,5878711.6036],[32569278.9011,5878709.1041],[32569342.3757,5878694.6089],[32569359.1191,5878692.6095],[32569392.6058,5878693.1088],[32569407.8498,5878694.6079],[32569435.8388,5878700.6051],[32569454.4283,5878705.7169],[32569475.8231,5878711.6002],[32569499.5201,5878716.8761],[32569522.7422,5878722.0463],[32569538.6336,5878725.5844],[32569561.8583,5878730.7551],[32569571.4965,5878732.9009],[32569583.125,5878735.4899],[32569603.7728,5878740.0869],[32569602.2736,5878758.0798],[32569604.2732,5878784.0695],[32569607.5221,5878799.5633],[32569613.0202,5878815.5568],[32569621.2671,5878831.5504],[32569646.5076,5878866.0363],[32569686.7819,5878914.2505],[32569717.4807,5878951.0015],[32569729.0371,5878967.2561],[32569740.2221,5878982.9884],[32569758.4651,5879001.9806],[32569770.2106,5879008.9777],[32569784.2051,5879013.9755],[32569800.9485,5879015.9744],[32569820.9405,5879014.4747],[32569857.9258,5879006.4774],[32569897.9097,5878992.4823],[32569920.6506,5878986.4844],[32569956.1366,5878987.9832],[32569980.1272,5878994.4803],[32570004.1178,5879005.4756],[32570028.1085,5879020.9691],[32570049.6003,5879039.4614],[32570066.094,5879058.9534],[32570072.5916,5879069.4491],[32570082.338,5879091.4403],[32570085.337,5879103.9353],[32570088.0863,5879131.9241],[32570089.5867,5879201.8963],[32570095.8344,5879217.8898],[32570109.0794,5879233.3835],[32570117.5761,5879240.8804],[32570137.0686,5879253.8749],[32570147.5645,5879258.373],[32570202.7927,5879269.8676],[32570226.5334,5879272.8661],[32570238.6119,5879273.3657],[32570262.769,5879274.3649],[32570275.0142,5879277.8634],[32570287.2595,5879283.8608],[32570298.755,5879291.8574],[32570309.5009,5879301.8533],[32570326.4945,5879326.8431],[32570332.2424,5879341.8371],[32570343.0274,5879386.2433],[32570353.4852,5879429.302],[32570365.231,5879462.7886],[32570381.475,5879489.2778],[32570390.2216,5879498.7739],[32570399.2182,5879505.2712],[32570418.7105,5879511.7683],[32570428.9565,5879511.7682],[32570439.9521,5879510.2686],[32570462.693,5879501.7716],[32570473.6885,5879493.2748],[32570494.6799,5879470.2837],[32570533.4137,5879412.8059],[32570546.9081,5879395.3126],[32570553.9052,5879387.8155],[32570569.149,5879376.8197],[32570577.1458,5879373.8207],[32570585.6424,5879372.821],[32570594.8888,5879374.3203],[32570604.635,5879378.3185],[32570614.3812,5879385.3156],[32570623.6277,5879394.8117],[32570631.8746,5879406.307],[32570638.6221,5879419.3017],[32570643.1205,5879434.2957],[32570645.12,5879450.7891],[32570644.2575,5879496.7067],[32570643.8714,5879517.2628],[32570642.3994,5879526.6846],[32570638.8738,5879549.2501],[32570634.3758,5879565.2439],[32570621.6313,5879596.2317],[32570604.8883,5879623.2213],[32570584.8965,5879645.7126],[32570562.4057,5879664.2056],[32570493.1101,5879704.9936],[32570395.973,5879762.1692],[32570349.7416,5879783.6614],[32570335.4974,5879792.1582],[32570302.2609,5879817.1488],[32570286.0176,5879832.6429],[32570271.5236,5879849.6363],[32570260.0283,5879866.13],[32570252.7815,5879882.6235],[32570248.2835,5879899.117],[32570240.0372,5879935.1029],[32570237.2886,5879954.0954],[32570237.5391,5879995.0791],[32570241.5378,5880016.5705],[32570248.5353,5880039.0615],[32570258.7816,5880062.0522],[32570272.5264,5880084.543],[32570288.2705,5880105.0347],[32570305.7638,5880124.5267],[32570342.7496,5880156.0136],[32570377.2362,5880175.0056],[32570393.7297,5880180.5031],[32570447.9584,5880192.9974],[32570482.1949,5880196.9953],[32570509.684,5880195.9952],[32570520.4297,5880192.9963],[32570540.1718,5880186.4986],[32570564.6619,5880173.5033],[32570573.62,5880171.8836],[32570626.097,5880162.3955],[32570635.0954,5880160.7685],[32570653.1266,5880157.5084],[32570689.612,5880143.5134],[32570733.3443,5880123.0209],[32570759.8337,5880113.5242],[32570821.5357,5880097.4521],[32570843.7864,5880091.6562],[32570867.2907,5880085.5338],[32570887.1629,5880079.4264],[32570969.7497,5880054.0447],[32570997.7385,5880049.0463],[32571022.1775,5880045.9831],[32571074.5603,5880039.4173],[32571093.4504,5880037.0496],[32571135.6837,5880039.548],[32571163.9225,5880038.548],[32571231.0547,5880028.5085],[32571241.4679,5880026.9512],[32571263.5879,5880023.6432],[32571297.6193,5880018.5539],[32571311.6139,5880033.0479],[32571325.3586,5880044.0434],[32571332.8557,5880048.0417],[32571347.5999,5880051.0403],[32571368.0918,5880049.5405],[32571416.3385,5880039.4269],[32571425.3189,5880037.5444],[32571460.8048,5880034.0453],[32571591.5029,5880029.5451],[32571695.2899,5880028.544],[32571747.1912,5880028.0434],[32571798.4209,5880030.0418],[32571856.8978,5880036.0386],[32571918.1237,5880046.0337],[32571948.3618,5880052.5306],[32572006.8389,5880069.523],[32572068.3148,5880092.513],[32572127.7916,5880119.5014],[32572178.272,5880147.4895],[32572197.7645,5880160.484],[32572236.7495,5880193.4704],[32572294.4774,5880249.9471],[32572309.7569,5880266.2257],[32572321.2172,5880278.4353],[32572368.7,5880397.3874],[32572399.9391,5880504.3445],[32572419.6821,5880562.3211],[32572438.9249,5880593.8083],[32572450.4206,5880608.8022],[32572496.403,5880658.7817],[32572508.1485,5880669.2773],[32572540.8859,5880690.2685],[32572580.6204,5880711.7594],[32572662.5885,5880751.7423],[32572711.0559,5880781.015],[32572595.3465,5880924.7059],[32572456.3992,5881097.2539],[32572429.1531,5881097.8106],[32572360.3655,5881096.404],[32572265.8133,5881094.4707],[32572262.2116,5881101.4619],[32572249.9446,5881125.2737],[32572244.2508,5881136.3262],[32572249.193,5881162.1047],[32572251.4917,5881174.0945],[32572254.1531,5881187.9766],[32572261.7761,5881195.3012],[32572343.9969,5881274.3047],[32572344.6609,5881307.4004],[32572344.3273,5881323.8117],[32572343.0594,5881386.1895],[32572355.9993,5881403.2455],[32572374.2508,5881427.3027],[32572380.1835,5881481.8883],[32572386.0672,5881536.0234],[32572390.8476,5881536.512],[32572523.6137,5881550.0812],[32572738.8406,5881572.0781],[32572754.3425,5881530.3572],[32572774.0555,5881477.3027],[32572794.9429,5881453.5578],[32572873.9187,5881363.7774],[32572929.649,5881291.7544],[32572989.5633,5881214.3242],[32573009.9577,5881204.4346],[32573038.118,5881190.7793],[32573054.7462,5881156.4887],[32573072.9812,5881118.8848],[32573084.6437,5881106.118],[32573187.9511,5880993.0284],[32573292.2391,5880878.8652],[32573307.7252,5880868.3678],[32573318.1961,5880861.27],[32573331.4969,5880852.2539],[32573359.6858,5880841.1379],[32573401.5555,5880824.627],[32573403.1155,5880820.0644],[32573403.5898,5880818.6774],[32573414.2508,5880787.4981],[32573420.4027,5880749.7384],[32573426.9266,5880709.6953],[32573461.8951,5880704.8142],[32573525.0125,5880696.0039],[32573546.9702,5880628.3287],[32573555.8328,5880601.0137],[32573559.1554,5880597.4439],[32573584.6584,5880570.0434],[32573645.1965,5880568.3003],[32573745.6116,5880561.4706],[32573770.1469,5880559.8018],[32573790.8272,5880559.3017],[32573852.864,5880557.8014],[32573963.3202,5880552.3019],[32574026.3704,5880545.149],[32574047.0369,5880542.8044],[32574089.52,5880540.8045],[32574155.9937,5880542.3029],[32574313.1815,5880551.7968],[32574359.4133,5880556.2943],[32574435.3832,5880556.2932],[32574489.3617,5880552.7937],[32574510.8532,5880549.7946],[32574536.8428,5880542.2972],[32574565.3314,5880536.2991],[32574667.038,5880521.9601],[32574678.7862,5880520.3038],[32574699.2781,5880519.8037],[32574709.0242,5880521.8027],[32574718.5205,5880526.3008],[32574728.0169,5880532.7981],[32574753.0073,5880557.288],[32574764.503,5880572.7816],[32574768.2516,5880580.2786],[32574771.0007,5880593.2734],[32574770.5011,5880610.7665],[32574768.0022,5880616.2643],[32574762.5044,5880622.262],[32574738.0143,5880635.2572],[32574708.8424,5880646.1662],[32574649.7997,5880668.2455],[32574432.637,5880754.2146],[32574404.3983,5880761.7121],[32574372.4111,5880767.7102],[32574310.6585,5880773.5307],[32574276.949,5880776.708],[32574236.7151,5880789.2037],[32574195.2318,5880807.697],[32574088.2751,5880869.674],[32574009.557,5880920.1551],[32573905.9541,5880995.2424],[32573866.1153,5881024.116],[32573727.6715,5881119.0804],[32573710.6784,5881136.5737],[32573705.1807,5881145.0704],[32573701.9322,5881154.0669],[32573700.9327,5881163.5631],[32573704.9314,5881182.5555],[32573713.4282,5881195.5502],[32573724.4239,5881201.5477],[32573730.9213,5881202.0474],[32573745.1656,5881196.5493],[32573831.3349,5881143.1862],[32573844.247,5881135.19],[32573915.5104,5881091.0579],[32574022.8032,5881024.6134],[32574047.5431,5881005.1208],[32574066.902,5880987.5354],[32574110.2675,5880948.1425],[32574137.7563,5880929.1496],[32574194.2335,5880900.1603],[32574229.5494,5880884.2746],[32574232.4181,5880882.9842],[32574256.4585,5880872.1704],[32574278.4497,5880865.1729],[32574341.9797,5880853.1473],[32574357.668,5880850.1776],[32574375.6609,5880848.1782],[32574395.4031,5880848.1779],[32574415.1453,5880850.6766],[32574433.8879,5880855.6743],[32574508.8587,5880890.1595],[32574544.8449,5880928.1439],[32574577.5824,5880959.6309],[32574609.0703,5880985.6201],[32574689.789,5881035.599],[32574750.0332,5881068.836],[32574841.9798,5881119.5634],[32574887.962,5881149.051],[32574911.453,5881167.0435],[32574934.694,5881186.5354],[32574957.1854,5881208.5263],[32574994.4212,5881249.5095],[32575019.1619,5881282.496],[32575035.9056,5881309.485],[32575055.6483,5881345.9702],[32575071.1427,5881382.9553],[32575078.3901,5881405.4463],[32575084.8879,5881429.9364],[32575089.6364,5881455.9261],[32575092.1357,5881481.9157],[32575091.6363,5881508.4052],[32575086.6389,5881553.8872],[32575079.6422,5881589.3732],[32575075.1442,5881604.3673],[32575074.5717,5881605.7205],[32575012.312,5881640.8623],[32574890.5008,5881709.6172],[32574838.3592,5881734.9149],[32574833.8602,5881737.0977],[32574793.0594,5881758.1231],[32574792.8483,5881758.2377],[32574787.8262,5881738.1506],[32574765.1275,5881698.4292],[32574697.0331,5881687.0812],[32574651.6371,5881704.1055],[32574623.2649,5881732.4785],[32574589.218,5881755.1771],[32574555.1711,5881772.2012],[32574532.4731,5881777.876],[32574498.4261,5881783.5511],[32574453.0303,5881811.9244],[32574424.6579,5881834.6228],[32574390.6112,5881868.6705],[32574345.2153,5881885.6948],[32574288.47,5881885.6956],[32574283.471,5881886.2511],[32574237.3994,5881891.3709],[32574186.3293,5881936.7679],[32574157.9572,5881976.4899],[32574101.2123,5881999.1889],[32574004.7124,5882095.6914],[32573995.3287,5882074.6969],[32573981.0838,5882034.2132],[32573954.5873,5881937.5066],[32573951.0941,5881924.7571],[32573945.846,5881910.2629],[32573932.1012,5881888.7717],[32573920.1058,5881877.7762],[32573907.1108,5881871.279],[32573901.1132,5881869.7797],[32573889.8676,5881871.2792],[32573881.3711,5881878.7764],[32573875.0374,5881897.3324],[32573863.6289,5881930.756],[32573849.3849,5881960.7443],[32573841.1384,5881974.2391],[32573832.8918,5881985.2348],[32573824.3953,5881993.2318],[32573806.6525,5882002.7283],[32573796.9064,5882006.2271],[32573786.6605,5882008.7262],[32573764.1694,5882010.7258],[32573739.6791,5882007.2275],[32573710.4405,5881998.7313],[32573681.4321,5881988.6831],[32573679.3195,5881987.9513],[32573689.3773,5881885.1487],[32573696.9266,5881807.9863],[32573695.7371,5881749.7943],[32573693.9459,5881662.1703],[32573693.9383,5881661.7949],[32573596.7598,5881654.4801],[32573372.3457,5881637.5881],[32573372.3172,5881637.5859],[32573345.4141,5881995.0123],[32573344.5633,5882006.3164],[32573337.2769,5882034.7332],[32573329.9148,5882063.4453],[32573320.2186,5882202.2059],[32573306.1258,5882403.8848],[32573295.4855,5882424.5285],[32573287.2,5882440.6035],[32573300.8643,5882474.2993],[32573315.4698,5882510.3163],[32573315.618,5882510.6817],[32573419.5098,5882589.6636],[32573639.699,5882757.0587],[32573652.9812,5882767.1563],[32573678.8253,5882775.5209],[32573715.2273,5882787.3027],[32573783.2547,5882716.502],[32573807.805,5882695.5874],[32573817.4959,5882708.5082],[32573874.2416,5882748.229],[32573930.987,5882753.9027],[32573933.9808,5882753.753],[32573900.2469,5882798.2109],[32573896.9327,5882808.4207],[32573879.8191,5882861.1409],[32573878.1961,5882866.1406],[32573879.9928,5882869.6259],[32573890.3422,5882889.7024],[32573894.2703,5882897.3223],[32574244.2508,5883077.3027],[32574264.0555,5883087.4981],[32574306.8622,5883109.4458],[32574644.9539,5883282.791],[32574644.5908,5883300.8216],[32574643.9315,5883333.5525],[32574643.9187,5883334.1875],[32574568.6456,5883461.7439],[32574424.4461,5883706.1016],[32574423.5933,5883708.7284],[32574420.1362,5883719.3768],[32574413.4891,5883739.8516],[32574413.7943,5883754.9411],[32574414.2759,5883778.7544],[32574414.3094,5883780.4082],[32574545.6939,5883861.9863],[32574589.2508,5883889.0313],[32574668.2215,5883935.9134],[32574667.8381,5883937.447],[32574663.0905,5883975.432],[32574664.0906,5884014.4165],[32574667.8393,5884025.9119],[32574670.4007,5884030.4098],[32574678.0855,5884043.9046],[32574686.0825,5884054.4003],[32574697.3282,5884063.8963],[32574712.5722,5884071.8929],[32574738.8119,5884078.8897],[32574753.806,5884082.8879],[32574776.7971,5884092.8836],[32574798.5382,5884109.607],[32574806.0358,5884115.3742],[32574820.0303,5884121.8714],[32574842.5215,5884124.3701],[32574859.2648,5884123.3703],[32574877.0077,5884119.8714],[32574892.7514,5884113.3737],[32574906.4958,5884104.8769],[32574924.4939,5884088.0782],[32574987.0828,5884125.2422],[32574995.4252,5884127.9483],[32575026.0086,5884137.8692],[32575037.3871,5884137.6399],[32575055.262,5884137.2797],[32575057.0242,5884137.2442],[32575082.0,5884103.5545],[32575107.2391,5884069.5098],[32575125.9305,5884063.4459],[32575129.1531,5884062.4004],[32575148.9471,5884070.6557],[32575181.7524,5884084.3375],[32575182.9617,5884084.8418],[32575296.3797,5884154.4414],[32575320.8119,5884192.8631],[32575325.4422,5884200.1445],[32575330.4664,5884204.6336],[32575359.2703,5884230.3692],[32575371.9209,5884271.3663],[32575379.8367,5884297.0195],[32575623.0594,5884264.4902],[32575623.0935,5884264.3796],[32575652.8641,5884168.0156],[32575652.8907,5884168.0099],[32575684.9077,5884161.1707],[32575719.1531,5884153.8555],[32575761.2049,5884162.8391],[32575828.0398,5884177.1172],[32575833.997,5884175.777],[32575877.0823,5884166.0843],[32575931.6141,5884153.8164],[32576011.8094,5884082.1563],[32576011.8104,5884082.1525],[32576018.4888,5884057.2215],[32576030.5497,5884062.8766],[32576055.0401,5884069.8735],[32576077.5313,5884072.8719],[32576098.5229,5884073.3714],[32576118.0152,5884071.8717],[32576151.7469,5884065.9806],[32576219.9239,5884054.0739],[32576269.7047,5884045.3799],[32576299.9426,5884036.8829],[32576325.4323,5884025.3871],[32576346.1739,5884010.8925],[32576372.1632,5883984.4026],[32576379.4102,5883974.4065],[32576384.1582,5883964.4104],[32576386.907,5883953.9145],[32576386.6568,5883932.9229],[32576379.1595,5883912.9309],[32576366.1644,5883895.9379],[32576348.9211,5883884.4427],[32576322.1816,5883876.9461],[32576314.4346,5883876.4464],[32576301.6897,5883879.4454],[32576271.2421,5883890.8253],[32576252.2096,5883897.9388],[32576201.4799,5883913.9332],[32576154.9984,5883921.9307],[32576098.2709,5883922.9312],[32576055.038,5883920.9327],[32576054.0917,5883920.6639],[32576058.7731,5883880.674],[32576070.0318,5883897.4419],[32576077.279,5883902.9396],[32576086.0256,5883906.438],[32576096.7713,5883907.4375],[32576107.2671,5883904.9383],[32576115.5138,5883899.9402],[32576122.0111,5883892.4431],[32576130.7574,5883872.4509],[32576150.2153,5883813.5879],[32576168.9195,5883812.4157],[32576244.4266,5883807.6836],[32576277.2708,5883803.1639],[32576393.8797,5883787.1172],[32576456.237,5883782.6111],[32576459.1531,5883782.4004],[32576464.4266,5883807.1172],[32576469.238,5883858.385],[32576476.3016,5883933.6504],[32576564.1531,5883938.8945],[32576574.2721,5883938.2909],[32576603.6062,5883936.541],[32576609.7848,5883940.8577],[32576635.7547,5883959.002],[32576673.9248,5883970.787],[32576713.8797,5883983.1231],[32576713.2865,5883985.9193],[32576707.4059,5884013.6396],[32576704.4266,5884027.6836],[32576675.7547,5884152.4004],[32576696.3103,5884163.5704],[32576703.8797,5884167.6836],[32576724.4266,5884177.1172],[32576743.8797,5884187.6836],[32576759.1775,5884191.2435],[32576857.6883,5884214.168],[32576859.2398,5884214.6221],[32577006.6633,5884257.7692],[32577054.7195,5884271.834],[32577091.2997,5884283.0769],[32577225.8523,5884324.4317],[32577231.1011,5884324.8799],[32577304.4339,5884331.1432],[32577309.8232,5884331.6035],[32577316.3376,5884332.1599],[32577319.1531,5884332.4004],[32577329.1142,5884342.7635],[32577333.4305,5884347.2539],[32577368.7261,5884361.1735],[32577395.1883,5884371.6094],[32577394.8768,5884386.8817],[32577394.0902,5884425.4461],[32577393.8016,5884439.5977],[32577380.5156,5884478.4241],[32577374.0555,5884497.3027],[32577369.648,5884520.8371],[32577365.2454,5884544.3456],[32577364.2508,5884549.6563],[32577375.5446,5884604.7821],[32577383.4518,5884643.3772],[32577384.8562,5884650.2324],[32577403.239,5884667.8925],[32577446.9377,5884709.8733],[32577450.1883,5884712.9961],[32577459.8293,5884716.1263],[32577479.4862,5884722.5084],[32577502.825,5884730.0859],[32577546.5129,5884721.1367],[32577603.7279,5884709.4165],[32577625.7742,5884704.9004],[32577696.6331,5884680.6442],[32577801.2475,5884644.833],[32577815.2859,5884640.0274],[32577848.3623,5884625.7195],[32577914.0555,5884597.3027],[32577947.7859,5884586.3555],[32577981.0597,5884587.0347],[32578039.6414,5884588.2305],[32578060.7135,5884544.7868],[32578089.6034,5884485.2256],[32578090.7937,5884482.7715],[32578099.1673,5884397.235],[32578104.0555,5884347.3027],[32578114.7587,5884331.5085],[32578125.2572,5884316.0163],[32578126.5164,5884314.1582],[32578162.6334,5884328.8101],[32578166.6893,5884330.4555],[32578165.8383,5884335.431],[32578162.7086,5884353.7288],[32578163.9583,5884366.2238],[32578165.9576,5884371.2218],[32578173.9545,5884381.2177],[32578180.452,5884385.7158],[32578197.6953,5884392.2129],[32578207.6913,5884394.212],[32578207.9691,5884394.2251],[32578218.3708,5884422.219],[32578230.7937,5884455.6524],[32578332.756,5884469.8851],[32578346.4237,5884471.7929],[32578346.4383,5884471.7949],[32578486.65,5884451.3035],[32578659.8953,5884425.9844],[32578677.851,5884426.3523],[32578729.8726,5884427.4183],[32578738.5281,5884427.5957],[32578736.9334,5884505.8455],[32578640.2713,5884519.6558],[32578615.2814,5884528.1528],[32578603.0363,5884534.6504],[32578579.7958,5884551.1442],[32578560.0539,5884573.1357],[32578552.0573,5884586.1307],[32578544.5605,5884601.6246],[32578531.3163,5884641.6089],[32578526.0687,5884662.6007],[32578520.3215,5884701.0855],[32578520.4369,5884707.7708],[32578462.5125,5884722.9375],[32578462.3182,5884723.0377],[32578441.6983,5884733.6642],[32578433.2547,5884738.0156],[32578433.8038,5884764.8949],[32578434.2998,5884789.1773],[32578434.5242,5884800.1641],[32578477.1983,5884883.0035],[32578499.9734,5884927.2149],[32578558.2034,5885013.1127],[32578558.5281,5885013.5918],[32578594.1441,5885007.5187],[32578654.0555,5884997.3027],[32578713.2937,5884987.4981],[32578721.5854,5885072.2506],[32578724.0555,5885097.4981],[32578734.7977,5885171.0039],[32578734.2291,5885199.0095],[32578734.0359,5885208.5234],[32578724.9147,5885226.2269],[32578707.4872,5885260.0519],[32578704.9539,5885264.9688],[32578644.4022,5885272.3696],[32578597.6492,5885278.084],[32578574.267,5885293.9362],[32578548.6453,5885311.3067],[32578486.7056,5885319.9531],[32578434.0555,5885327.3027],[32578430.5876,5885329.0893],[32578421.5785,5885333.7306],[32578427.6169,5885320.3407],[32578430.8654,5885306.3462],[32578431.8648,5885290.8524],[32578431.3648,5885274.8587],[32578428.6156,5885258.3653],[32578423.3675,5885240.3726],[32578405.8739,5885203.3875],[32578381.3831,5885167.4022],[32578353.3938,5885136.4149],[32578339.3992,5885123.9201],[32578325.9044,5885114.424],[32578313.9091,5885109.4262],[32578303.1633,5885107.4273],[32578293.917,5885108.4269],[32578285.9202,5885111.4258],[32578279.173,5885115.9241],[32578269.9268,5885125.9203],[32578238.9399,5885183.8977],[32578218.4486,5885227.3807],[32578203.6383,5885263.3401],[32578193.9234,5885286.9281],[32578178.3842,5885281.8852],[32578142.9879,5885270.3982],[32578123.4891,5885264.0703],[32578102.6107,5885271.2194],[32578080.8545,5885278.6692],[32578079.0555,5885279.2852],[32578058.8864,5885330.4065],[32578043.2547,5885370.0274],[32578033.3389,5885379.5562],[32577989.9082,5885421.2922],[32577986.9461,5885424.1387],[32577964.6134,5885412.6384],[32577951.6847,5885405.9807],[32577949.7195,5885404.9688],[32577942.4619,5885382.5944],[32577931.6922,5885349.3926],[32577928.9402,5885348.3072],[32577596.4578,5885217.1758],[32577589.2916,5885158.5396],[32577583.118,5885108.0254],[32577501.1028,5885077.5501],[32577462.4344,5885063.1817],[32577419.6615,5885034.1911],[32577412.3367,5885029.2266],[32577382.3563,5885022.0881],[32577367.3185,5885018.5075],[32577363.0789,5885017.4981],[32577348.8558,5885024.8258],[32577328.2124,5885035.4612],[32577320.032,5885039.6758],[32577330.7788,5885060.5566],[32577334.2508,5885067.3027],[32577337.8631,5885115.2701],[32577293.9437,5885083.3296],[32577227.5996,5885053.1745],[32577165.1473,5885041.4656],[32577149.1635,5885030.6234],[32577138.8406,5885023.6211],[32576966.4541,5885033.403],[32576721.4969,5885047.3027],[32576720.1862,5885046.6403],[32576658.0634,5885015.2395],[32576510.5203,5884940.6621],[32576396.9487,5884879.772],[32576376.8804,5884869.0126],[32576372.4344,5884866.6289],[32576352.9218,5884846.3224],[32576349.1531,5884842.4004],[32576283.7481,5884851.53],[32576272.825,5884853.0547],[32576193.0005,5884876.7977],[32576095.0711,5884905.9258],[32576093.4309,5884909.1064],[32576089.9311,5884915.8933],[32576081.4187,5884932.4004],[32576089.283,5884947.6622],[32576094.2508,5884957.3027],[32576096.6826,5884964.7884],[32576104.368,5884988.4453],[32576117.7152,5885008.1366],[32576194.0105,5885120.6955],[32576166.1034,5885210.0026],[32576160.0732,5885288.4087],[32576166.106,5885396.971],[32576208.3261,5885499.5012],[32576286.7333,5885577.9062],[32576395.2965,5885638.2167],[32576443.5473,5885698.5284],[32576479.7351,5885728.6841],[32576491.3339,5885751.8808],[32576455.6127,5885909.6214],[32576425.4568,5885927.7156],[32576389.2695,5885939.7786],[32576353.0822,5885951.8416],[32576322.9264,5885981.9983],[32576292.7706,5886006.1236],[32576274.6769,5886012.1552],[32576244.5208,5886018.1868],[32576208.3332,5886006.1249],[32576178.1765,5885969.938],[32576141.9889,5885957.8761],[32576123.8949,5885939.7826],[32576093.7387,5885939.7831],[32576063.5828,5885963.9084],[32576051.5214,5886036.2834],[32576057.5535,5886102.6271],[32576087.7104,5886150.8764],[32576129.9296,5886187.063],[32576160.0862,5886217.219],[32576202.305,5886223.2495],[32576244.5236,5886217.2178],[32576298.8042,5886181.0294],[32576310.8667,5886181.0292],[32576341.0231,5886193.0914],[32576353.0862,5886241.341],[32576371.181,5886313.7156],[32576371.1816,5886361.9653],[32576383.2446,5886392.1213],[32576407.3698,5886410.2147],[32576479.7448,5886422.2758],[32576534.026,5886422.275],[32576600.3695,5886410.2118],[32576648.6189,5886374.0235],[32576690.8373,5886349.898],[32576739.0867,5886319.7411],[32576775.2736,5886277.5219],[32576823.5229,5886235.3025],[32576853.6789,5886217.2085],[32576889.8663,5886211.1764],[32576896.6201,5886203.0716],[32576920.0218,5886174.9888],[32576950.1776,5886138.8009],[32576992.3962,5886132.7689],[32577040.646,5886120.7058],[32577082.8641,5886072.4552],[32577082.8644,5886090.5489],[32577114.4617,5886141.1033],[32577110.6509,5886159.527],[32577109.6515,5886174.0212],[32577115.3997,5886208.0076],[32577121.3975,5886226.0004],[32577138.1414,5886258.987],[32577147.8877,5886271.9817],[32577157.8839,5886281.9776],[32577169.3794,5886288.4748],[32577182.1244,5886292.4731],[32577210.863,5886294.9716],[32577240.3513,5886291.9724],[32577261.5896,5886287.7687],[32577288.3322,5886282.4754],[32577302.2011,5886281.7755],[32577308.1462,5886281.4755],[32577336.0448,5886280.0677],[32577269.8367,5886383.0608],[32577197.4632,5886485.5928],[32577137.1514,5886515.75],[32577100.9642,5886545.9067],[32577070.8089,5886594.1571],[32577070.8095,5886636.3756],[32577058.7474,5886678.5946],[32577034.6232,5886726.8447],[32576986.3737,5886763.0328],[32576926.0618,5886787.1587],[32576924.4604,5886787.4256],[32576923.8992,5886760.1836],[32576866.9266,5886722.8301],[32576866.4983,5886722.5289],[32576500.9891,5886465.4277],[32576467.7969,5886458.0855],[32576419.9344,5886447.4981],[32576384.2508,5886567.4981],[32576381.023,5886577.9225],[32576343.4109,5886699.3926],[32576340.4273,5886714.6706],[32576331.7174,5886718.3167],[32576324.7203,5886725.314],[32576320.722,5886733.8107],[32576319.2227,5886743.3069],[32576321.9719,5886764.2986],[32576324.7547,5886773.203],[32576328.2197,5886784.2905],[32576341.7147,5886808.7806],[32576365.2059,5886839.2681],[32576382.2683,5886857.702],[32576372.628,5886886.6244]],[[32571018.974,5882454.0803],[32571042.1301,5882473.3765],[32571078.5223,5882509.7674],[32571127.0446,5882515.8319],[32571157.3706,5882509.7662],[32571224.0887,5882509.7652],[32571321.133,5882521.8943],[32571351.4596,5882534.0244],[32571399.9814,5882521.8931],[32571448.5035,5882515.8271],[32571475.8298,5882521.2919],[32571497.8775,5882542.2892],[32571566.1125,5882590.8933],[32571582.0028,5882597.4361],[32571601.6318,5882597.4358],[32571628.7384,5882586.2188],[32571650.1113,5882571.5245],[32571655.5131,5882581.5308],[32571660.5111,5882585.0293],[32571666.5088,5882587.5282],[32571682.0026,5882588.5276],[32571701.9947,5882586.0283],[32571750.9751,5882575.5317],[32571809.4517,5882556.5384],[32571825.4453,5882549.5409],[32571874.6753,5882519.5521],[32571912.4129,5882500.7462],[32571948.8954,5882482.5657],[32572116.0778,5882388.1007],[32572157.0613,5882366.6086],[32572170.8058,5882361.6104],[32572224.0345,5882352.6132],[32572302.0036,5882346.1146],[32572390.7181,5882326.621],[32572428.2032,5882320.6228],[32572487.8975,5882314.9095],[32572584.8909,5882305.6264],[32572756.5724,5882271.6373],[32572872.1424,5882251.9908],[32572894.7673,5882248.1446],[32572947.996,5882237.1481],[32572973.7357,5882228.1513],[32572983.9816,5882222.6534],[32573000.225,5882211.1577],[32573006.4724,5882204.6602],[32573012.22,5882198.1627],[32573016.4682,5882190.1658],[32573018.2174,5882181.1693],[32573015.968,5882160.6775],[32573012.4693,5882150.1817],[32573001.9732,5882132.189],[32572988.2284,5882119.6942],[32572979.4818,5882114.6963],[32572959.9895,5882107.1996],[32572940.2472,5882103.2014],[32572924.0037,5882103.2017],[32572904.2616,5882110.1992],[32572844.7032,5882139.4966],[32572811.7989,5882155.6825],[32572749.5738,5882176.1753],[32572719.5858,5882182.6732],[32572707.1597,5882183.7446],[32572603.6319,5882192.671],[32572537.4082,5882201.1686],[32572508.3258,5882206.7701],[32572493.8308,5882209.562],[32572436.1986,5882220.6624],[32572377.9718,5882229.6597],[32572359.7291,5882234.1582],[32572321.9942,5882244.1548],[32572259.5192,5882263.648],[32572104.5814,5882320.6277],[32572056.8507,5882343.1194],[32571904.1624,5882426.5886],[32571815.034,5882472.2935],[32571776.0267,5882443.0391],[32571721.4387,5882406.6484],[32571660.7859,5882388.4535],[32571575.872,5882370.259],[32571315.0649,5882303.5451],[32571197.0601,5882285.8462],[32571231.1648,5882269.3047],[32571235.8959,5882264.7577],[32571278.6942,5882223.6248],[32571281.1062,5882221.3067],[32571322.0637,5882147.1235],[32571360.4617,5882077.5762],[32571361.503,5882077.5549],[32571396.3113,5882076.8427],[32571402.9422,5882076.707],[32571419.8584,5882081.0434],[32571522.2977,5882107.3027],[32571522.3367,5882107.2936],[32571550.6441,5882100.6787],[32571578.2547,5882094.2266],[32571581.1069,5882085.8947],[32571590.4886,5882058.4895],[32571604.0164,5882018.9727],[32571604.3078,5882004.5884],[32571604.4819,5881995.9945],[32571604.6414,5881988.1231],[32571579.5437,5881962.0],[32571535.4703,5881919.6438],[32571504.6023,5881889.9785],[32571502.3293,5881882.9784],[32571479.3484,5881812.2051],[32571469.9856,5881784.8451],[32571454.2508,5881738.8652],[32571455.0485,5881735.4827],[32571461.446,5881708.3546],[32571465.95,5881689.2559],[32571493.0394,5881649.2926],[32571514.0555,5881618.2891],[32571513.2952,5881615.883],[32571508.4992,5881600.706],[32571503.3719,5881584.4805],[32571444.3763,5881527.8073],[32571424.4852,5881508.6992],[32571424.4126,5881505.1115],[32571424.0697,5881488.1489],[32571423.6648,5881468.1231],[32571438.9578,5881452.2051],[32571473.6573,5881418.8581],[32571484.0555,5881408.8652],[32571483.5125,5881407.1161],[32571476.4127,5881384.2464],[32571465.9109,5881350.418],[32571456.6877,5881343.5807],[32571354.0555,5881267.4981],[32571351.7139,5881265.6082],[32571287.3367,5881213.6504],[32571282.4647,5881211.2859],[32571254.3628,5881197.6472],[32571254.0555,5881197.4981],[32571249.1531,5881192.4004],[32571205.9047,5881207.2051],[32571176.6922,5881217.2051],[32571134.4034,5881222.3691],[32571090.4031,5881227.7422],[32571089.2892,5881231.1746],[32571065.5789,5881304.2363],[32571047.2451,5881349.4306],[32571034.2508,5881381.4629],[32571035.1506,5881384.769],[32571042.669,5881412.3923],[32571044.3484,5881418.5625],[32571059.0624,5881432.7018],[32571088.3523,5881460.8477],[32571093.1905,5881474.9826],[32571105.6796,5881511.4695],[32571123.5672,5881563.7285],[32571123.7764,5881574.0046],[32571124.3874,5881604.0098],[32571124.4461,5881606.8926],[32571119.6882,5881611.8454],[32571099.4482,5881632.9146],[32571096.5555,5881635.9258],[32571007.2346,5881697.1462],[32570913.5672,5881761.3457],[32570846.5212,5881919.2671],[32570835.0125,5881946.375],[32570824.7565,5881961.5109],[32570813.2156,5881978.543],[32570644.4461,5882347.6543],[32570644.4425,5882347.833],[32570643.7549,5882381.7358],[32570642.8055,5882428.5527],[32570733.1388,5882426.7071],[32570777.5906,5882425.7988],[32570825.3829,5882436.5503],[32570962.0828,5882467.3027],[32570964.8147,5882466.6678],[32571009.0176,5882456.3943],[32571018.974,5882454.0803]],[[32573516.7794,5884039.0531],[32573516.7802,5884086.6982],[32573553.1719,5884092.7627],[32573607.7593,5884086.6968],[32573656.2809,5884038.1739],[32573692.6715,5883953.26],[32573692.6708,5883904.7378],[32573685.7893,5883887.5352],[32573732.4303,5883888.4856],[32573787.9617,5883889.6172],[32573881.6784,5883881.2857],[32573944.0555,5883875.7402],[32573927.9019,5883833.2238],[32573910.9891,5883788.709],[32573800.3698,5883656.9427],[32573734.7,5883578.7188],[32573663.9894,5883492.6357],[32573599.9149,5883414.6313],[32573594.0555,5883407.4981],[32573536.6538,5883337.0608],[32573499.8367,5883291.8828],[32573477.921,5883270.8225],[32573464.0555,5883257.4981],[32573462.9458,5883256.3442],[32573459.1531,5883252.4004],[32573410.0125,5883259.2559],[32573409.0929,5883261.0408],[32573349.1814,5883377.3339],[32573284.5437,5883502.8008],[32573284.3533,5883512.1904],[32573283.6512,5883546.7996],[32573283.5281,5883552.8692],[32573289.4494,5883589.248],[32573289.7808,5883591.284],[32573268.0982,5883607.5466],[32573286.294,5883656.0682],[32573355.4142,5883752.8329],[32573291.3809,5883743.045],[32573270.0147,5883742.0457],[32573205.9147,5883739.0479],[32573164.0539,5883735.2695],[32573133.9431,5883732.5516],[32573098.2073,5883731.0527],[32573054.6841,5883732.463],[32573036.4818,5883733.0528],[32573002.7451,5883732.5535],[32572986.5015,5883730.5546],[32572962.5096,5883725.2234],[32572946.0175,5883721.5587],[32572916.779,5883719.56],[32572900.2856,5883723.5586],[32572892.0389,5883727.5572],[32572875.7956,5883741.5519],[32572862.5511,5883761.5441],[32572858.3029,5883772.5398],[32572856.054,5883782.5359],[32572856.5539,5883792.5319],[32572860.3025,5883800.5287],[32572868.5494,5883808.0256],[32572898.2879,5883827.5174],[32572973.5086,5883866.5007],[32573000.9979,5883877.9958],[32573015.2423,5883881.4942],[32573047.7294,5883883.9927],[32573086.2141,5883881.9929],[32573165.9324,5883870.9961],[32573185.5886,5883864.8592],[32573217.1619,5883855.0017],[32573232.4058,5883854.5016],[32573253.6474,5883858.4997],[32573265.3929,5883863.9974],[32573275.8888,5883871.994],[32573285.6351,5883881.9899],[32573303.1285,5883907.4795],[32573334.8668,5883965.9558],[32573347.9397,5883998.0765],[32573361.1073,5884030.4298],[32573366.8551,5884039.9259],[32573373.8525,5884047.4228],[32573381.3496,5884051.9209],[32573389.5963,5884053.4202],[32573398.3428,5884052.9203],[32573437.0773,5884039.9248],[32573458.0689,5884035.9261],[32573503.3011,5884040.9235],[32573516.7794,5884039.0531]],[[32571093.7366,5874807.1665],[32571089.1531,5874802.4004],[32571044.3875,5874811.1406],[32571044.379,5874811.5552],[32571035.8328,5875229.9492],[32571046.5977,5875252.1421],[32571062.6297,5875285.1934],[32571078.5241,5875305.9276],[32571294.0555,5875587.0879],[32571319.2874,5875587.6063],[32571352.0437,5875588.2793],[32571369.5147,5875579.7992],[32571384.7781,5875572.3906],[32571448.3276,5875522.6211],[32571549.8367,5875443.1231],[32571550.6906,5875441.4654],[32571604.9198,5875336.197],[32571653.7625,5875241.3848],[32571653.9327,5875233.067],[32571654.7161,5875194.7959],[32571655.2469,5875168.8652],[32571575.8617,5875146.4748],[32571517.5125,5875130.0176],[32571504.0555,5875077.4981],[32571480.9846,5874968.9374],[32571470.1297,5874917.8594],[32571275.4916,5874911.0474],[32571168.2156,5874907.293],[32571138.4288,5874845.8946],[32571127.7273,5874823.8359],[32571117.9901,5874819.1113],[32571094.0555,5874807.4981],[32571093.7366,5874807.1665]],[[32572767.0961,5883358.9156],[32572780.3279,5883343.7113],[32572788.0746,5883331.7159],[32572801.8188,5883304.2266],[32572806.3168,5883289.7323],[32572808.0659,5883275.238],[32572807.316,5883261.2436],[32572804.317,5883247.2492],[32572793.8208,5883221.7595],[32572779.8261,5883200.768],[32572741.8145,5883160.3314],[32572674.1164,5883088.3143],[32572655.8733,5883062.8247],[32572621.636,5883000.8498],[32572604.8923,5882976.8596],[32572596.8954,5882970.3623],[32572582.9009,5882966.3641],[32572577.1531,5882966.864],[32572572.1552,5882969.363],[32572568.4559,5882973.5248],[32572479.6048,5882964.6408],[32572400.7566,5883007.099],[32572364.366,5883055.6216],[32572346.1707,5883098.0785],[32572334.0412,5883164.7966],[32572327.9765,5883213.3188],[32572315.8466,5883255.7758],[32572285.5206,5883298.2331],[32572273.3911,5883352.8205],[32572249.1308,5883407.4083],[32572249.1315,5883455.9303],[32572279.4582,5883498.3867],[32572321.9153,5883516.5818],[32572418.9595,5883516.5803],[32572540.2643,5883474.1218],[32572643.3735,5883443.7939],[32572734.3521,5883413.4664],[32572758.6129,5883401.3353],[32572767.0961,5883358.9156]],[[32574621.6706,5884465.6541],[32574526.9912,5884439.5372],[32574399.664,5884429.7448],[32574282.6582,5884441.4471],[32574266.5034,5884385.7749],[32574258.2565,5884369.7814],[32574248.5101,5884356.2869],[32574237.2644,5884345.2914],[32574224.5194,5884336.2952],[32574196.5303,5884322.801],[32574168.0414,5884313.805],[32574158.0454,5884314.8047],[32574150.7983,5884319.3031],[32574145.3006,5884326.3004],[32574134.1627,5884357.0774],[32574126.3089,5884378.7798],[32574121.561,5884394.7735],[32574119.562,5884409.7676],[32574119.8121,5884424.7616],[32574122.3113,5884438.756],[32574130.3085,5884465.7452],[32574135.5574,5884480.1305],[32574143.8037,5884502.7303],[32574157.2987,5884525.2211],[32574163.0465,5884530.7188],[32574184.8433,5884544.6732],[32574193.9839,5884576.6635],[32574239.6912,5884589.722],[32574321.3113,5884599.5151],[32574399.6666,5884615.8379],[32574513.9352,5884668.0728],[32574647.7926,5884723.5723],[32574700.0294,5884736.6307],[32574745.7366,5884736.63],[32574794.7085,5884730.0997],[32574837.1504,5884703.9807],[32574860.0036,5884681.1268],[32574886.1214,5884632.1545],[32574892.6503,5884579.9178],[32574860.0017,5884547.2703],[32574827.3534,5884517.8877],[32574797.9699,5884495.0346],[32574703.2906,5884475.4473],[32574621.6706,5884465.6541]],[[32568296.2683,5877111.7531],[32568340.2499,5877038.7814],[32568356.7429,5877004.7947],[32568360.7411,5876992.2996],[32568364.7392,5876968.8089],[32568366.7381,5876941.3198],[32568365.7382,5876926.8255],[32568357.741,5876897.3374],[32568340.2476,5876869.8485],[32568321.2548,5876848.8572],[32568311.0087,5876841.3603],[32568300.013,5876836.3624],[32568288.0178,5876833.8636],[32568274.5231,5876834.3636],[32568259.2792,5876837.8624],[32568197.8039,5876864.3528],[32568134.5794,5876897.3407],[32568109.3397,5876912.8349],[32568079.6017,5876933.827],[32568071.3551,5876937.8255],[32568054.3619,5876943.3236],[32568035.3694,5876944.8233],[32568009.8796,5876949.8217],[32567952.4026,5876968.815],[32567916.4171,5876983.8096],[32567885.9294,5877002.3027],[32567864.6881,5877018.7965],[32567859.9401,5877024.2944],[32567851.9434,5877039.2885],[32567842.6975,5877066.2779],[32567913.1701,5877103.762],[32567948.1562,5877101.2625],[32567987.1408,5877105.7601],[32568036.8713,5877123.2524],[32568114.8409,5877157.7376],[32568135.5827,5877163.2351],[32568161.3226,5877164.7341],[32568188.8116,5877162.7345],[32568223.9827,5877155.5194],[32568235.1055,5877153.2376],[32568257.0344,5877148.739],[32568273.2779,5877140.7419],[32568280.7748,5877133.7446],[32568296.2683,5877111.7531]],[[32572260.1311,5874212.8691],[32572243.2471,5874198.3976],[32572207.0678,5874198.3981],[32572026.1715,5874241.816],[32571975.5202,5874256.2886],[32571975.5207,5874290.056],[32571994.8171,5874340.7069],[32572030.997,5874376.8858],[32572052.7053,5874422.7127],[32572076.8252,5874439.596],[32572105.7688,5874446.8315],[32572122.6527,5874461.303],[32572125.065,5874485.4225],[32572122.6533,5874504.7182],[32572110.5938,5874524.0141],[32572088.8864,5874543.3101],[32572074.4149,5874560.194],[32572064.7672,5874574.6659],[32572069.5914,5874593.9616],[32572086.4753,5874608.4331],[32572110.595,5874610.8446],[32572298.7274,5874572.2505],[32572317.3758,5874566.7654],[32572339.7306,5874560.19],[32572346.9663,5874543.3062],[32572346.9659,5874519.1866],[32572334.9625,5874466.675],[32572327.6691,5874434.7683],[32572267.3677,5874265.9321],[32572260.1311,5874212.8691]],[[32575784.917,5885489.8132],[32575791.4143,5885481.8163],[32575814.9048,5885467.8215],[32575878.8792,5885444.8297],[32575904.8687,5885432.3342],[32575915.3644,5885424.8371],[32575931.1079,5885406.844],[32575936.6056,5885397.3477],[32575941.6034,5885378.8549],[32575941.3534,5885370.8581],[32575938.8543,5885364.3607],[32575933.6063,5885360.8622],[32575926.609,5885358.8631],[32575917.6126,5885358.8632],[32575862.3846,5885364.8617],[32575823.4001,5885370.3601],[32575783.4784,5885379.4118],[32575761.6748,5885384.3555],[32575754.1777,5885382.8562],[32575748.4299,5885378.8578],[32575742.6293,5885371.84],[32575728.1876,5885354.3679],[32575719.9408,5885349.8698],[32575710.1947,5885347.3709],[32575699.6988,5885347.8709],[32575676.9579,5885354.8685],[32575636.974,5885373.8615],[32575554.5072,5885406.3498],[32575522.0203,5885421.8442],[32575494.0316,5885439.8375],[32575483.5359,5885450.3334],[32575477.2886,5885460.3296],[32575474.2899,5885469.8258],[32575474.5399,5885478.3225],[32575477.7887,5885485.8194],[32575483.2866,5885491.817],[32575491.0336,5885496.3151],[32575500.5299,5885498.3141],[32575519.7722,5885497.814],[32575555.5079,5885487.3177],[32575576.7494,5885482.8191],[32575586.7455,5885483.3188],[32575594.7424,5885485.8177],[32575600.2402,5885490.3158],[32575606.7379,5885505.3097],[32575608.4875,5885529.2159],[32575609.7373,5885546.2934],[32575613.236,5885555.7896],[32575618.7339,5885563.7863],[32575626.2311,5885570.2836],[32575646.7231,5885579.2797],[32575673.7124,5885582.2781],[32575686.6594,5885582.8028],[32575710.6978,5885583.777],[32575730.9396,5885575.7798],[32575740.9356,5885568.7825],[32575749.9319,5885559.2861],[32575757.6786,5885547.7906],[32575784.917,5885489.8132]],[[32577912.3167,5884982.4826],[32577898.5722,5884981.983],[32577884.3278,5884984.982],[32577871.0832,5884990.9799],[32577860.5874,5884998.9768],[32577852.3409,5885008.973],[32577846.0935,5885020.9683],[32577841.8454,5885033.4634],[32577838.0972,5885059.9529],[32577840.8473,5885142.4201],[32577846.8454,5885180.4049],[32577852.0936,5885197.8979],[32577858.8411,5885212.8918],[32577868.0876,5885224.8869],[32577879.3333,5885233.3834],[32577892.0783,5885239.3808],[32577906.0728,5885242.8792],[32577934.8114,5885243.3786],[32577961.3009,5885238.3802],[32577974.0457,5885233.8818],[32578001.5346,5885218.3875],[32578015.279,5885207.8915],[32578039.769,5885182.901],[32578049.265,5885168.9065],[32578056.0121,5885154.4121],[32578059.0107,5885139.418],[32578057.0113,5885123.9242],[32578051.5133,5885107.4309],[32578042.7665,5885090.9375],[32578031.7706,5885074.4443],[32578005.7805,5885044.4566],[32577979.0408,5885019.4669],[32577952.8009,5884998.9754],[32577939.556,5884990.9788],[32577926.0613,5884985.4812],[32577912.3167,5884982.4826]],[[32576433.1405,5884083.8622],[32576416.1472,5884081.3634],[32576401.1531,5884081.3637],[32576388.908,5884083.363],[32576379.1619,5884088.3612],[32576372.1648,5884094.8587],[32576367.6667,5884103.3554],[32576365.4177,5884113.3515],[32576365.6678,5884124.3471],[32576368.4168,5884135.8425],[32576373.6649,5884148.3375],[32576383.4046,5884164.164],[32576417.6485,5884219.8084],[32576442.0429,5884265.6085],[32576454.3849,5884288.7804],[32576460.8824,5884295.7775],[32576468.3795,5884299.7758],[32576486.8722,5884299.2758],[32576527.6058,5884285.2807],[32576552.5958,5884274.2847],[32576563.8412,5884264.7883],[32576566.59,5884259.2904],[32576568.7764,5884251.4189],[32576572.8372,5884236.7993],[32576591.0793,5884187.3187],[32576592.5784,5884166.8268],[32576590.3292,5884156.331],[32576585.5809,5884146.335],[32576577.8339,5884138.8381],[32576567.8378,5884132.3409],[32576556.3422,5884127.343],[32576539.5304,5884121.2724],[32576520.3563,5884114.3487],[32576484.3704,5884098.8554],[32576450.6336,5884087.8603],[32576433.1405,5884083.8622]],[[32571961.8947,5882799.4397],[32571935.9049,5882792.9426],[32571914.1635,5882792.943],[32571897.6701,5882799.4406],[32571890.6517,5882806.3098],[32571866.3496,5882830.0956],[32571838.9442,5882856.9187],[32571824.7001,5882876.911],[32571821.2016,5882886.4072],[32571820.452,5882894.9039],[32571824.9505,5882909.3981],[32571834.6967,5882919.3939],[32571841.7627,5882922.2315],[32571896.9224,5882944.3831],[32571945.6533,5882959.3764],[32571979.3901,5882967.3727],[32572027.3711,5882974.3692],[32572054.3604,5882974.3688],[32572065.606,5882972.8692],[32572074.6023,5882968.8707],[32572081.0997,5882962.873],[32572085.098,5882955.3759],[32572087.3469,5882937.383],[32572085.8473,5882927.8868],[32572078.8499,5882912.3931],[32572051.6102,5882875.4082],[32572023.121,5882842.4217],[32572007.377,5882826.9281],[32571991.6331,5882814.4333],[32571976.389,5882805.4371],[32571961.8947,5882799.4397]],[[32571553.8042,5882641.5085],[32571529.3139,5882640.5093],[32571510.0715,5882642.009],[32571503.3242,5882644.5081],[32571498.3263,5882648.5065],[32571495.8274,5882654.5042],[32571496.0774,5882662.0012],[32571504.3244,5882683.9924],[32571511.8216,5882697.4869],[32571543.5597,5882746.9668],[32571578.2966,5882796.4466],[32571611.2841,5882835.9304],[32571634.2753,5882857.9214],[32571661.015,5882875.414],[32571678.5081,5882878.9124],[32571686.5049,5882876.913],[32571693.2521,5882871.9149],[32571698.0001,5882863.918],[32571700.7489,5882853.9219],[32571701.9983,5882842.4265],[32571701.2482,5882816.9366],[32571695.2501,5882782.4504],[32571683.5041,5882733.9698],[32571672.2581,5882700.9831],[32571665.5106,5882686.9888],[32571658.0134,5882676.493],[32571649.5166,5882668.4963],[32571640.2702,5882661.4993],[32571619.0285,5882651.5035],[32571594.5381,5882645.0065],[32571553.8042,5882641.5085]],[[32577716.3922,5884825.548],[32577692.4017,5884823.5491],[32577681.4061,5884826.0483],[32577670.6604,5884831.0465],[32577647.4198,5884843.5418],[32577611.4344,5884867.5329],[32577589.9431,5884884.5264],[32577581.4466,5884894.0228],[32577575.949,5884906.0181],[32577572.7005,5884920.0126],[32577571.7011,5884935.0066],[32577574.7003,5884966.4941],[32577582.1978,5884995.9823],[32577587.9456,5885007.9774],[32577595.4428,5885016.9737],[32577604.6892,5885022.9712],[32577615.435,5885025.9698],[32577627.4303,5885026.9693],[32577640.675,5885025.9694],[32577654.6694,5885023.4702],[32577681.3186,5885014.9284],[32577693.6538,5885010.9746],[32577710.1471,5885002.9775],[32577716.3946,5884997.9794],[32577722.3921,5884991.4819],[32577734.3871,5884972.9891],[32577745.3824,5884947.9988],[32577752.1294,5884922.0091],[32577755.3777,5884896.0194],[32577755.3773,5884869.0301],[32577752.6283,5884856.5351],[32577746.6305,5884846.0393],[32577738.1337,5884837.0431],[32577716.3922,5884825.548]],[[32571050.9713,5875394.7984],[32571049.5829,5875267.2251],[32570927.5566,5875306.0536],[32570812.4635,5875332.402],[32570827.6744,5875429.1897],[32571050.9713,5875394.7984]]],"crs":{"type":"EPSG","properties":{"code":4647}}},"properties":{"FL_NR":502095,"WPFL":126.9,"WPFLKLASSE":3,"WPFLKLASSE_TEXT":"gering"}}]}