{"type": "FeatureCollection","features":[{"type":"Feature","geometry":{"type":"Polygon","coordinates":[[[32538498.4857,5748548.7904],[32538373.0345,5748474.8216],[32538251.5815,5748391.8563],[32538146.1221,5748293.8967],[32538068.9011,5748177.4441],[32538034.6632,5748071.9865],[32538018.4181,5747961.0308],[32538002.173,5747849.5754],[32537969.9344,5747745.1173],[32537916.704,5747635.6616],[32537860.2249,5747528.2051],[32537798.9977,5747423.7475],[32537730.7735,5747324.288],[32537645.0565,5747252.3178],[32537540.3474,5747206.8374],[32537426.6422,5747179.8497],[32537312.6873,5747168.8557],[32537128.7599,5747134.3719],[32536945.0825,5747106.3856],[32536761.1552,5747081.8979],[32536576.2284,5747062.4083],[32536451.2775,5747027.4239],[32536329.5752,5746982.4435],[32536214.1203,5746925.4678],[32536107.4117,5746855.9969],[32536231.3629,5746888.982],[32536360.3119,5746903.4745],[32536490.2602,5746898.4746],[32536615.4601,5746871.4836],[32536732.9126,5746815.5042],[32536838.6195,5746730.0367],[32536921.3351,5746624.5775],[32536973.0629,5746506.1239],[32536973.061,5746371.1775],[32536917.8311,5746239.2307],[32536831.6136,5746116.7806],[32536735.4003,5746007.8252],[32536561.9678,5745909.3668],[32536368.2939,5745852.8919],[32536164.6244,5745824.4061],[32535961.4549,5745812.9135],[32535679.5648,5745664.9762],[32535406.6708,5745498.5461],[32535141.7735,5745320.6205],[32534884.8728,5745132.6988],[32534659.2095,5744922.7853],[32534455.7869,5744688.8811],[32534275.6049,5744437.4835],[32534115.4148,5744174.0906],[32533926.4854,5743860.7179],[32533747.552,5743540.8477],[32533579.6141,5743216.4791],[32533423.9212,5742886.1127],[32533344.4496,5742658.2044],[32533290.2177,5742421.7992],[32533268.7229,5742181.395],[32533290.4609,5741944.4888],[32533318.9464,5741724.5758],[32533366.4245,5741506.6617],[32533433.8947,5741295.2447],[32533524.3559,5741093.8234],[32533563.3383,5740947.8808],[32533602.3208,5740801.9383],[32533641.3032,5740656.4955],[32533680.2857,5740510.5529],[32533683.033,5740400.5966],[32533646.7959,5740290.141],[32533582.32,5740188.6823],[32533505.0995,5740102.7176],[32533420.3824,5740052.2389],[32533324.4201,5740024.2514],[32533222.4605,5740014.7567],[32533124.4995,5740023.7546],[32533074.2699,5740054.743],[32533033.7866,5740100.2255],[32533005.5486,5740155.2041],[32532996.0532,5740213.1812],[32532940.8256,5740244.6695],[32532884.5983,5740273.159],[32532826.6217,5740297.1503],[32532766.3959,5740313.6447],[32532677.431,5740297.6524],[32532594.7132,5740251.172],[32532519.2422,5740187.6984],[32532449.519,5740121.2258],[32532408.2838,5740010.7703],[32532415.2793,5739886.8195],[32532448.0144,5739758.8699],[32532490.9957,5739637.9173],[32532526.7298,5739519.9636],[32532567.462,5739404.5089],[32532615.4413,5739290.5535],[32532671.1676,5739182.0958],[32532667.6676,5739084.1347],[32532633.4299,5738987.6736],[32532576.951,5738899.2096],[32532508.4772,5738824.7402],[32532424.7598,5738783.7577],[32532330.7969,5738766.2661],[32532233.8354,5738767.2671],[32532140.6227,5738784.7615],[32532057.4064,5738829.2451],[32531983.9365,5738892.7209],[32531921.4623,5738967.1922],[32531871.7333,5739050.16],[32531807.761,5739215.5952],[32531768.5291,5739390.5263],[32531744.2912,5739569.4555],[32531728.0502,5739748.3847],[32531725.8037,5739927.3136],[32531737.5516,5740106.7421],[32531762.2943,5740285.1708],[32531800.0318,5740460.6006],[32531801.2833,5740603.5437],[32531800.2857,5740746.4869],[32531795.2898,5740889.4302],[32531783.2966,5741032.8734],[32531772.8017,5741098.8473],[32531756.3092,5741165.3212],[32531726.8217,5741223.2986],[32531680.5906,5741260.2845],[32531629.3615,5741301.7688],[32531573.1344,5741337.2555],[32531512.9087,5741365.7451],[32531450.6837,5741386.2379],[32531383.7101,5741374.7434],[32531322.9837,5741338.2588],[32531268.2547,5741286.7801],[32531222.772,5741231.8026],[32531160.2955,5741139.3403],[32531107.0653,5741041.8798],[32531061.5819,5740940.4208],[32531022.346,5740836.9625],[32530989.8577,5740751.4969],[32530958.6189,5740666.5311],[32530931.1286,5740580.0659],[32530909.6359,5740492.601],[32530858.6543,5740367.1516],[32530806.4233,5740242.7018],[32530752.1931,5740118.2521],[32530696.9633,5739995.8015],[32530497.5332,5739346.0627],[32530599.9917,5739283.586],[32530323.3441,5738760.298],[32530292.606,5738738.807],[32530264.6167,5738711.8183],[32530244.8741,5738679.8315],[32530235.1274,5738645.3455],[32530238.3755,5738601.3632],[32530258.8667,5738559.8796],[32530289.1041,5738521.8945],[32530325.3393,5738492.9057],[32530382.3162,5738465.4159],[32530446.5406,5738453.9196],[32530513.514,5738453.4189],[32530579.4878,5738456.9165],[32530620.7213,5738448.4193],[32530661.7049,5738439.4223],[32530703.6881,5738430.9252],[32530744.9216,5738420.4288],[32530773.9097,5738398.4372],[32530793.1515,5738362.4515],[32530803.3968,5738321.4679],[32530808.894,5738280.4843],[32530782.1537,5738213.5117],[32530731.6729,5738157.0353],[32530668.947,5738108.5557],[32530607.2209,5738063.075],[32530547.4938,5738009.5974],[32530488.0167,5737958.119],[32530428.2896,5737906.6407],[32530366.5634,5737858.1611],[32530321.8305,5737812.6801],[32530279.0968,5737766.1995],[32530239.6117,5737716.72],[32530202.8755,5737666.7407],[32530158.1429,5737638.2528],[32530107.1629,5737620.7606],[32530053.1842,5737613.2644],[32530000.2053,5737614.2648],[32529963.9699,5737628.7594],[32529934.7319,5737656.7486],[32529911.4916,5737690.7352],[32529897.2479,5737728.2203],[32529863.2617,5737749.2123],[32529829.0256,5737769.7046],[32529793.0401,5737787.6978],[32529756.8048,5737803.1921],[32529697.0781,5737776.7036],[32529673.0872,5737745.7165],[32529656.3433,5737713.7296],[32529650.595,5737671.7466],[32529654.8427,5737629.7635],[32529666.3375,5737587.7802],[32529682.5804,5737548.7957],[32529685.8284,5737500.815],[32529690.076,5737452.8343],[32529693.5739,5737404.8536],[32529695.8223,5737357.8725],[32529686.3251,5737290.3999],[32529661.8338,5737225.4264],[32529630.0955,5737162.9521],[32529596.6079,5737102.9767],[32529556.8727,5737037.5037],[32529514.3887,5736976.0291],[32529467.9063,5736916.5537],[32529419.1748,5736860.0772],[32529364.6953,5736783.6088],[32529311.2154,5736707.1403],[32529257.7355,5736630.6719],[32529205.2552,5736554.7033],[32529162.0204,5736424.2565],[32529133.0299,5736287.8119],[32529130.0291,5736154.8655],[32529170.7611,5736032.9141],[32529242.481,5735925.4564],[32529323.1974,5735822.9966],[32529404.9134,5735721.5363],[32529477.633,5735615.0783],[32529543.3552,5735502.1229],[32529610.3268,5735388.6677],[32529674.0498,5735275.2126],[32529734.774,5735159.2585],[32529737.771,5735042.3056],[32529671.5456,5734927.8526],[32529567.0856,5734823.896],[32529457.6278,5734737.9321],[32529342.1724,5734655.467],[32529221.7192,5734581.4984],[32529095.0186,5734518.5255],[32528963.3202,5734468.0477],[32528890.0975,5734348.5968],[32528859.1077,5734206.1546],[32528859.1054,5734054.2159],[32528878.0957,5733908.2744],[32528842.3575,5733744.8408],[32528806.3694,5733582.4067],[32528769.6315,5733419.9727],[32528729.645,5733258.5382],[32528652.673,5733083.11],[32528538.9658,5732925.1751],[32528403.7674,5732781.2349],[32528262.5715,5732645.7913],[32528139.8675,5732458.8682],[32528018.1631,5732271.9451],[32527899.4575,5732082.5229],[32527784.7503,5731892.6009],[32527695.0329,5731689.184],[32527638.5522,5731472.2721],[32527605.0622,5731249.8621],[32527586.5662,5731026.9521],[32527567.0706,5730801.5431],[32527556.5715,5730575.1344],[32527555.3186,5730349.2254],[32527566.8107,5730123.816],[32527585.3002,5729914.8999],[32527612.5363,5729707.9829],[32527650.0184,5729502.0654],[32527698.4961,5729299.6463],[32527732.7297,5729111.7216],[32527767.9629,5728923.7968],[32527804.1957,5728736.8716],[32527843.6773,5728549.9465],[32527869.6648,5728407.0037],[32527896.6519,5728264.061],[32527922.6395,5728121.1182],[32527948.627,5727978.1755],[32527969.3671,5727866.7201],[32527992.1064,5727755.7646],[32528014.8458,5727644.809],[32528039.5843,5727533.854],[32528063.074,5727465.8816],[32528099.5586,5727402.9071],[32528147.7887,5727348.429],[32528206.2648,5727306.9454],[32528263.242,5727295.4494],[32528324.2179,5727307.9436],[32528382.945,5727335.4316],[32528434.6749,5727371.4162],[32528502.1492,5727451.3824],[32528555.6292,5727542.8442],[32528598.8634,5727640.8036],[32528636.35,5727741.2627],[32528700.576,5727846.7194],[32528765.8016,5727952.6759],[32528832.2768,5728058.1327],[32528900.5012,5728162.5897],[32528968.9752,5728243.0565],[32529052.443,5728312.0277],[32529145.157,5728370.503],[32529241.8693,5728419.4821],[32529347.8273,5728432.9753],[32529457.0336,5728410.9829],[32529563.2406,5728364.5003],[32529661.7006,5728307.5221],[32529761.9101,5728261.0396],[32529862.3694,5728213.0578],[32529961.8291,5728162.5769],[32530057.0404,5728106.0985],[32530166.4962,5728061.1154],[32530276.7017,5728018.6312],[32530389.1564,5727979.6455],[32530502.3608,5727943.6587],[32530620.5634,5727916.1683],[32530741.765,5727901.1729],[32530863.7164,5727895.1739],[32530985.9178,5727896.172],[32531155.1024,5728019.1203],[32531322.2878,5728148.5661],[32531484.2254,5728282.0102],[32531643.4142,5728421.452],[32531766.6171,5728545.4005],[32531881.8232,5728677.3458],[32531997.7791,5728809.2911],[32532122.9812,5728933.2395],[32532240.4359,5729031.1985],[32532364.8878,5729122.1602],[32532494.3376,5729205.1251],[32532629.7848,5729279.0935],[32532706.5048,5729310.5799],[32532788.4726,5729333.5696],[32532870.44,5729339.0663],[32532946.6594,5729319.5732],[32532991.6415,5729317.0737],[32533037.6232,5729315.0739],[32533082.6052,5729309.5756],[32533124.8382,5729295.0809],[32533161.0731,5729251.0982],[32533173.5672,5729189.1231],[32533171.0672,5729120.151],[32533164.5688,5729054.1778],[32533119.335,5728938.725],[32533047.8619,5728833.7683],[32532962.6443,5728737.3083],[32532875.1777,5728645.3465],[32532732.9822,5728508.4036],[32532582.79,5728381.4567],[32532426.6003,5728261.0072],[32532267.4119,5728145.5558],[32532071.2379,5728015.1109],[32531870.0661,5727893.6623],[32531664.896,5727779.211],[32531457.4768,5727670.2575],[32531226.5665,5727519.3222],[32530997.4055,5727366.8878],[32530770.4936,5727211.9545],[32530546.5804,5727054.0223],[32530440.6201,5726876.097],[32530329.9117,5726702.17],[32530213.9554,5726531.2419],[32530093.0012,5726365.3117],[32529995.7881,5726243.3631],[32529891.578,5726126.9123],[32529780.3707,5726017.9585],[32529662.916,5725917.0014],[32529527.7184,5725819.5431],[32529384.2742,5725734.5797],[32529233.5831,5725660.6118],[32529081.1429,5725596.14],[32528969.1869,5725562.655],[32528853.4827,5725542.6645],[32528736.2793,5725538.6674],[32528623.3244,5725554.662],[32528526.3627,5725532.1723],[32528430.4005,5725509.1828],[32528335.6878,5725482.6948],[32528242.9742,5725450.7089],[32528169.2527,5725387.2358],[32528126.0186,5725293.7747],[32528102.5264,5725186.819],[32528092.279,5725081.3625],[32528090.7785,5725002.395],[32528097.5247,5724923.4274],[32528114.0171,5724847.4585],[32528145.5036,5724776.9872],[32528213.2253,5724684.0248],[32528297.6906,5724604.5566],[32528392.1521,5724535.584],[32528490.612,5724473.1087],[32528557.0845,5724391.6416],[32528620.8079,5724308.1753],[32528680.2831,5724221.2105],[32528734.0104,5724131.7468],[32528785.7386,5724041.2836],[32528835.2176,5723950.3205],[32528881.9478,5723857.8582],[32528926.6786,5723763.8964],[32529006.146,5723690.4259],[32529112.3531,5723647.4426],[32529229.5562,5723624.9507],[32529346.7594,5723614.9537],[32529444.9699,5723582.4661],[32529543.1804,5723550.4783],[32529642.3905,5723518.9904],[32529741.6006,5723490.0013],[32529834.0631,5723440.5209],[32529913.5305,5723370.0492],[32529985.0009,5723286.5829],[32530048.7244,5723200.118],[32530090.4563,5723099.1592],[32530110.197,5722990.204],[32530111.9447,5722878.2501],[32530101.6972,5722767.7958],[32530078.7045,5722633.8513],[32530045.4658,5722501.4062],[32530002.4811,5722370.9604],[32529952.2493,5722245.5126],[32530052.4592,5722226.5196],[32530152.669,5722202.0287],[32530250.8795,5722170.5409],[32530347.0907,5722133.5553],[32530428.3077,5722087.0737],[32530505.7761,5722031.5959],[32530582.2449,5721977.1177],[32530665.4612,5721932.6353],[32530741.6805,5721904.1464],[32530820.8987,5721884.6538],[32530901.8663,5721873.6576],[32530984.0836,5721871.1579],[32531081.0452,5721885.651],[32531174.7584,5721918.6366],[32531265.4729,5721962.1178],[32531352.1891,5722013.096],[32531489.6356,5722097.06],[32531624.0834,5722189.0208],[32531755.2826,5722284.9799],[32531883.7329,5722384.9374],[32532031.9254,5722490.3925],[32532180.3678,5722595.3477],[32532328.5603,5722701.8023],[32532478.0024,5722807.757],[32532650.4352,5722908.2138],[32532836.8621,5722986.6796],[32533030.536,5723049.1519],[32533226.2089,5723105.6266],[32533365.9039,5723143.6095],[32533508.5975,5723175.5949],[32533652.5406,5723199.5836],[32533797.4831,5723211.0774],[32533901.6916,5723208.5774],[32534005.6501,5723198.5806],[32534107.8591,5723174.0897],[32534204.0703,5723137.1041],[32534339.7649,5723039.6433],[32534466.7128,5722924.6897],[32534563.6725,5722793.2428],[32534613.6505,5722643.8038],[32534624.8936,5722471.3751],[32534627.89,5722299.4464],[32534631.1363,5722128.5172],[32534643.3791,5721957.5879],[32534660.37,5721797.1541],[32534678.6106,5721638.2197],[32534698.6004,5721480.2848],[32534723.5883,5721322.3498],[32534766.8186,5721142.9233],[32534825.043,5720966.995],[32534894.2632,5720794.565],[32534969.481,5720625.1337],[32535056.4448,5720504.6817],[32535174.1467,5720407.2196],[32535310.5916,5720334.2468],[32535454.0341,5720284.2644],[32535519.2577,5720251.7764],[32535585.481,5720218.2888],[32535652.704,5720195.7967],[32535721.6767,5720197.2945],[32535769.6578,5720206.7896],[32535815.39,5720228.7794],[32535855.1247,5720260.2655],[32535885.8631,5720299.7485],[32535886.6137,5720365.7212],[32535863.124,5720431.6944],[32535824.6401,5720495.1689],[32535783.1574,5720554.1454],[32535720.6832,5720627.6164],[32535651.2117,5720696.0895],[32535577.7417,5720759.5648],[32535501.2729,5720819.0418],[32535407.3123,5720975.479],[32535337.0926,5721146.9095],[32535281.867,5721324.8369],[32535230.6398,5721503.264],[32535221.1466,5721717.6754],[32535270.6301,5721933.0851],[32535355.3495,5722142.9963],[32535454.8129,5722343.4112],[32535586.7628,5722499.8438],[32535752.9487,5722626.288],[32535940.3758,5722723.7439],[32536138.0484,5722793.2111],[32536376.455,5722869.6747],[32536619.1097,5722933.6434],[32536865.7626,5722982.6182],[32537114.6645,5723015.5996],[32537364.5659,5723053.5789],[32537615.2171,5723090.0588],[32537866.1181,5723122.0406],[32538118.0186,5723149.0245],[32538277.9552,5723149.0213],[32538440.1407,5723131.5252],[32538596.5781,5723091.5386],[32538742.0196,5723025.5628],[32538837.4809,5722971.0834],[32538926.9445,5722905.1087],[32539004.4127,5722826.6395],[32539061.1389,5722734.6762],[32539104.87,5722623.2212],[32539130.6081,5722505.2692],[32539142.6017,5722385.3183],[32539140.3509,5722264.868],[32539138.8503,5722183.9013],[32539135.3506,5722102.9347],[32539125.1035,5722023.9675],[32539103.6109,5721947.4994],[32539117.1043,5721855.537],[32539139.844,5721764.5739],[32539170.3306,5721677.1093],[32539208.0645,5721592.1435],[32539252.5457,5721509.1767],[32539304.0242,5721430.7079],[32539362.4999,5721357.2369],[32539425.9738,5721288.7637],[32539454.7113,5721208.796],[32539473.2028,5721125.8297],[32539480.6986,5721041.8641],[32539478.4483,5720957.8987],[32539458.9548,5720871.4347],[32539424.4673,5720787.9698],[32539379.9838,5720711.0024],[32539327.5036,5720639.533],[32539292.0166,5720559.0668],[32539257.5291,5720479.6003],[32539223.0416,5720400.6336],[32539189.5538,5720321.167],[32539164.3121,5720203.7159],[32539169.3084,5720081.766],[32539191.0481,5719958.8161],[32539218.0356,5719837.8653],[32539276.7608,5719730.4082],[32539370.2226,5719643.9417],[32539482.9269,5719575.9671],[32539601.1293,5719522.4865],[32539839.0356,5719562.4646],[32540076.6919,5719602.4428],[32540314.5982,5719640.9216],[32540553.2541,5719680.8998],[32540705.1942,5719704.8866],[32540857.1344,5719729.3731],[32541010.074,5719751.3606],[32541162.7638,5719773.3481],[32541361.6853,5719793.8353],[32541561.8561,5719806.3256],[32541762.7765,5719812.8185],[32541963.697,5719817.3121],[32542087.6484,5719855.2937],[32542199.1053,5719931.2601],[32542291.3202,5720033.2163],[32542355.5463,5720149.6672],[32542327.0609,5720377.5745],[32542290.5786,5720604.4825],[32542242.8507,5720829.3914],[32542184.377,5721051.8016],[32542124.1535,5721232.7288],[32542052.9342,5721410.1577],[32541968.7201,5721582.5889],[32541875.5094,5721749.0227],[32541744.0643,5721947.4441],[32541599.8741,5722136.3697],[32541446.4376,5722319.2979],[32541286.2535,5722495.2291],[32541139.314,5722650.1686],[32540989.1257,5722802.1093],[32540834.1892,5722948.0526],[32540673.0051,5723088.998],[32540528.8147,5723261.9299],[32540393.6208,5723443.358],[32540267.1736,5723630.2838],[32540147.9736,5723822.707],[32540048.5158,5724018.1287],[32539967.051,5724222.5462],[32539901.5799,5724432.961],[32539850.1034,5724646.8741],[32539780.1335,5724818.3049],[32539710.9134,5724990.2355],[32539639.6941,5725160.6668],[32539566.4755,5725331.098],[32539476.2635,5725490.5341],[32539367.3088,5725639.9746],[32539246.3587,5725779.9192],[32539118.4114,5725913.3666],[32538973.4707,5726044.3153],[32538820.533,5726166.2678],[32538659.8483,5726278.2246],[32538493.1658,5726379.6857],[32538361.2198,5726502.1376],[32538233.2723,5726629.0875],[32538110.3229,5726760.5354],[32537994.3708,5726897.481],[32537915.4039,5727022.9306],[32537858.4285,5727161.8743],[32537819.446,5727307.3149],[32537800.4556,5727455.2542],[32537789.462,5727601.694],[32537791.4634,5727749.6337],[32537805.4601,5727896.5742],[32537834.4507,5728041.0154],[32537872.9367,5728122.4819],[32537931.4146,5728194.9517],[32538004.1367,5728251.4277],[32538086.8544,5728283.9133],[32538149.8296,5728299.406],[32538214.804,5728306.9019],[32538279.7782,5728303.4022],[32538341.0037,5728285.9082],[32538416.4726,5728207.4386],[32538464.2021,5728105.9787],[32538495.9378,5727992.0242],[32538521.676,5727880.0689],[32538561.6584,5727763.1154],[32538602.3905,5727646.6619],[32538641.1235,5727528.7098],[32538677.1075,5727410.7578],[32538761.0724,5727280.3101],[32538881.7731,5727175.3512],[32539020.4668,5727086.3855],[32539162.9093,5727007.4156],[32539321.5949,5726903.4556],[32539482.2798,5726803.4939],[32539645.9635,5726707.5305],[32539812.6462,5726617.0648],[32539883.1177,5726575.5806],[32539954.3388,5726533.0969],[32540027.5594,5726501.6085],[32540105.7782,5726492.111],[32540180.7485,5726488.6111],[32540256.7186,5726504.1034],[32540329.4402,5726532.5905],[32540398.1635,5726570.0739],[32540453.892,5726611.5558],[32540505.6222,5726660.035],[32540550.3552,5726714.5119],[32540586.8416,5726774.9864],[32540615.5807,5726811.9707],[32540645.3195,5726849.4548],[32540674.0586,5726887.4387],[32540700.7986,5726927.9217],[32540739.7834,5726941.9152],[32540787.7641,5726927.4204],[32540835.9946,5726897.9316],[32540879.227,5726864.9444],[32540921.7093,5726806.4677],[32540954.1955,5726740.4942],[32540976.6856,5726669.5229],[32540995.1773,5726598.5517],[32540999.6742,5726508.5885],[32540991.4262,5726418.6255],[32540971.9326,5726329.1626],[32540946.6914,5726243.1983],[32540933.1954,5726143.7394],[32540920.9488,5726045.7798],[32540908.7023,5725946.8206],[32540897.2054,5725848.3612],[32540904.9511,5725757.3984],[32540943.4346,5725670.9332],[32541001.1605,5725589.9653],[32541064.6344,5725518.4935],[32541137.8549,5725484.0063],[32541223.8207,5725477.5074],[32541312.7857,5725493.4992],[32541395.7532,5725520.9864],[32541483.4688,5725548.4735],[32541571.1845,5725580.4588],[32541656.1513,5725617.9418],[32541737.8696,5725662.4221],[32541846.8261,5725642.4283],[32541945.536,5725570.9558],[32542031.0007,5725472.4945],[32542107.7189,5725373.0338],[32542180.439,5725299.5626],[32542252.9092,5725225.0917],[32542322.3806,5725149.6213],[32542388.8531,5725070.1526],[32542495.5599,5725001.6786],[32542616.7612,5724957.6943],[32542744.96,5724928.7038],[32542873.1589,5724907.7099],[32542939.1327,5724904.2101],[32543007.1058,5724910.7062],[32543068.082,5724932.1962],[32543113.8144,5724972.179],[32543162.5458,5725023.6571],[32543204.0302,5725083.132],[32543238.5175,5725147.605],[32543265.2578,5725214.5771],[32543272.5065,5725323.0327],[32543255.7647,5725431.9885],[32543224.0288,5725540.4447],[32543186.2953,5725646.4021],[32543168.3041,5725766.3534],[32543151.5625,5725887.3043],[32543134.8208,5726008.2552],[32543119.8285,5726129.206],[32543136.0736,5726234.6626],[32543195.5513,5726330.1226],[32543280.0191,5726415.5861],[32543371.4839,5726487.5551],[32543473.1942,5726535.0339],[32543585.1502,5726562.0209],[32543701.1044,5726571.0152],[32543816.0588,5726565.5154],[32543979.4932,5726509.0355],[32544130.1822,5726418.0699],[32544270.8748,5726306.1131],[32544402.8208,5726187.659],[32544513.2762,5726125.6823],[32544623.7315,5726063.2058],[32544735.1865,5726004.2278],[32544849.6403,5725949.7479],[32544970.5922,5725937.7506],[32545094.2938,5725980.7308],[32545211.9983,5726057.6973],[32545318.4573,5726143.6604],[32545421.1669,5726167.149],[32545526.1257,5726191.1373],[32545631.0843,5726210.1277],[32545736.7926,5726221.6211],[32545842.0006,5726203.6265],[32545942.4602,5726158.1432],[32546034.9226,5726093.6678],[32546119.388,5726021.6955],[32546235.0907,5725921.2343],[32546345.7952,5725816.275],[32546452.5013,5725705.818],[32546554.4591,5725591.3626],[32546694.1523,5725493.3999],[32546841.8424,5725407.4321],[32546996.28,5725331.4601],[32547153.7166,5725264.4844],[32547264.4212,5725163.5234],[32547362.3806,5725047.0688],[32547445.3459,5724918.6194],[32547512.0674,5724784.1726],[32547551.2997,5724629.2347],[32547560.2938,5724469.2994],[32547546.547,5724305.866],[32547516.5566,5724148.4304],[32547498.312,5724019.483],[32547478.3181,5723891.0355],[32547453.0764,5723764.0875],[32547418.0885,5723639.6386],[32547423.8345,5723520.6868],[32547446.5738,5723403.7338],[32547485.3068,5723289.7792],[32547535.0356,5723182.3218],[32547588.0128,5723063.369],[32547646.7379,5722947.9147],[32547709.4614,5722835.459],[32547779.432,5722726.5018],[32547827.1612,5722590.0561],[32547866.1437,5722451.1116],[32547897.1294,5722310.1681],[32547922.1175,5722168.2251],[32547904.1226,5722029.2818],[32547839.8963,5721897.3366],[32547747.6812,5721776.8874],[32547645.4702,5721670.9325],[32547566.0007,5721593.4656],[32547481.5332,5721520.4969],[32547389.8187,5721459.0238],[32547291.1072,5721414.0442],[32547233.3799,5721394.5533],[32547173.4035,5721381.06],[32547114.4269,5721381.0613],[32547062.1979,5721400.5545],[32546989.7276,5721464.0302],[32546939.2488,5721549.4966],[32546901.5152,5721645.4584],[32546869.7792,5721742.4197],[32546857.2854,5721834.3826],[32546859.5359,5721928.3444],[32546877.0302,5722021.3063],[32546905.2703,5722110.7694],[32546877.7825,5722200.7334],[32546837.0499,5722286.1996],[32546785.5715,5722367.1677],[32546726.0961,5722440.6391],[32546621.6381,5722478.126],[32546503.6848,5722465.1337],[32546380.9829,5722423.1532],[32546268.2769,5722374.1754],[32546143.8252,5722292.2113],[32546031.6183,5722194.2534],[32545929.1573,5722082.3011],[32545838.9414,5721964.8508],[32545780.9624,5721822.41],[32545756.9697,5721667.9733],[32545759.2165,5721509.0379],[32545779.2064,5721354.1005],[32545806.1936,5721211.1581],[32545844.1766,5721071.2142],[32545894.1548,5720935.2684],[32545959.877,5720807.8188],[32546046.5912,5720713.3553],[32546156.2967,5720640.3826],[32546279.497,5720587.9013],[32546406.6961,5720556.9111],[32546512.9038,5720548.9121],[32546621.8607,5720556.4067],[32546726.8194,5720580.3947],[32546825.5308,5720623.3751],[32546918.4938,5720617.8753],[32547011.7067,5720609.3767],[32547103.67,5720596.38],[32547194.8835,5720574.8867],[32547288.3454,5720503.4137],[32547351.0689,5720394.9564],[32547393.0505,5720269.0065],[32547425.7857,5720144.5563],[32547441.528,5720039.5985],[32547446.2746,5719932.142],[32547439.0259,5719826.1852],[32547415.7837,5719724.2271],[32547335.8132,5719568.2921],[32547223.6058,5719430.3506],[32547094.6552,5719305.4042],[32546961.2065,5719187.4552],[32546864.7437,5719110.4886],[32546764.2826,5719040.5193],[32546656.5745,5718983.0451],[32546543.8687,5718943.0639],[32546489.3889,5718848.6036],[32546465.147,5718738.149],[32546465.1453,5718622.1961],[32546482.8867,5718511.2408],[32546505.3766,5718427.2744],[32546537.8625,5718345.307],[32546580.5945,5718270.8362],[32546636.8213,5718207.3607],[32546683.302,5718148.3836],[32546731.782,5718091.9054],[32546784.0105,5718038.9257],[32546841.487,5717991.4436],[32546881.2199,5717897.9806],[32546900.7107,5717796.0216],[32546906.4569,5717690.0645],[32546907.2052,5717585.6069],[32546891.9597,5717481.6495],[32546861.7203,5717380.1914],[32546820.2354,5717281.7324],[32546770.004,5717190.2707],[32546754.5086,5717085.3138],[32546745.2608,5716981.3562],[32546743.0102,5716874.8995],[32546747.7569,5716770.9416],[32546767.4977,5716674.9801],[32546800.9832,5716583.5164],[32546846.714,5716496.5503],[32546902.191,5716416.0814],[32546948.9214,5716323.1178],[32546996.6513,5716230.6539],[32547044.1314,5716138.6898],[32547094.8602,5716048.225],[32547125.3473,5715977.2529],[32547153.8351,5715904.2816],[32547177.3249,5715830.8106],[32547197.8159,5715756.84],[32547214.5579,5715643.8851],[32547220.3043,5715528.9313],[32547219.0534,5715413.4779],[32547214.054,5715299.524],[32547309.7646,5715182.0689],[32547403.7259,5715061.6151],[32547494.4384,5714940.1618],[32547585.4009,5714819.2082],[32547655.122,5714719.2468],[32547719.8451,5714616.7864],[32547777.5709,5714510.3279],[32547829.299,5714400.3709],[32547854.0378,5714285.4166],[32547844.7901,5714164.4655],[32547812.8013,5714043.0153],[32547768.5676,5713929.5622],[32547734.0801,5713830.6029],[32547697.8433,5713732.1435],[32547655.359,5713637.6827],[32547605.1279,5713547.2205],[32547570.3909,5713475.7502],[32547536.9034,5713405.7793],[32547502.4162,5713335.3086],[32547466.9295,5713266.8371],[32547420.1976,5713224.8552],[32547355.2232,5713206.3644],[32547282.2521,5713204.8669],[32547213.2797,5713215.3644],[32547097.0761,5713240.3574],[32546984.6213,5713278.345],[32546874.4156,5713324.8291],[32546767.9585,5713376.8109],[32546640.7595,5713412.7996],[32546513.5604,5713448.2886],[32546386.1115,5713482.2782],[32546258.9123,5713513.269],[32546134.4624,5713564.2516],[32546018.0094,5713630.7278],[32545906.5545,5713706.7],[32545799.8478,5713790.1691],[32545712.3834,5713861.6425],[32545628.9174,5713936.6144],[32545550.1996,5714018.0836],[32545479.7286,5714106.0499],[32545420.0018,5714067.567],[32545364.2734,5714025.0856],[32545311.5438,5713978.6057],[32545264.8118,5713927.1278],[32545230.075,5713880.6474],[32545202.5854,5713830.6684],[32545179.8438,5713777.1906],[32545164.3493,5713723.2128],[32545151.6036,5713653.2414],[32545144.1057,5713582.7701],[32545140.6063,5713512.7984],[32545141.1053,5713442.8267],[32545156.8481,5713354.8618],[32545167.3429,5713265.8975],[32545175.0888,5713176.9332],[32545180.5856,5713087.9691],[32545188.0816,5712998.0052],[32545183.8322,5712908.0417],[32545169.3369,5712817.5786],[32545145.0956,5712731.614],[32545105.6102,5712637.1532],[32545053.13,5712549.69],[32544990.6539,5712469.2241],[32544918.1819,5712399.7542],[32544845.4603,5712354.7743],[32544762.7428,5712327.2876],[32544674.7776,5712316.7942],[32544588.5619,5712320.7949],[32544669.2788,5712223.3321],[32544740.9991,5712118.8724],[32544799.9744,5712007.4159],[32544844.7053,5711890.462],[32544869.4442,5711777.0072],[32544878.1893,5711660.554],[32544871.9405,5711544.6011],[32544847.6989,5711432.1472],[32544806.4641,5711333.1883],[32544747.9863,5711241.7268],[32544676.7637,5711158.7623],[32544596.0449,5711088.293],[32544488.3371,5711033.3182],[32544370.6335,5711000.3347],[32544247.6822,5710985.8439],[32544125.7307,5710983.848],[32544045.7624,5710976.853],[32543965.7941,5710971.3574],[32543886.8255,5710970.8598],[32543808.6067,5710981.3576],[32543718.6426,5710989.8566],[32543629.4281,5710999.855],[32543540.4636,5711013.352],[32543452.2489,5711029.8477],[32543564.9528,5710912.3922],[32543669.9096,5710784.9409],[32543754.8743,5710647.4942],[32543810.8504,5710498.0531],[32543829.8414,5710371.104],[32543832.5889,5710242.1561],[32543818.593,5710113.7085],[32543789.3533,5709989.7594],[32543739.3714,5709839.8215],[32543681.3929,5709694.3819],[32543614.4179,5709552.941],[32543538.1967,5709416.4984],[32543463.4746,5709252.5668],[32543388.5026,5709090.1347],[32543313.5307,5708927.2027],[32543237.5591,5708765.7702],[32543185.5784,5708646.32],[32543137.3463,5708525.8701],[32543092.113,5708404.4206],[32543049.8784,5708281.9714],[32542961.6622,5708164.0216],[32542839.21,5708075.0611],[32542698.7651,5708006.093],[32542556.0713,5707948.1205],[32542401.3821,5707881.6519],[32542243.9441,5707821.6806],[32542084.2571,5707770.206],[32541922.3211,5707728.2276],[32541805.1168,5707634.269],[32541715.9009,5707508.3226],[32541650.9253,5707364.8827],[32541606.9412,5707217.4437],[32541619.6847,5707088.4956],[32541672.6623,5706965.544],[32541754.3786,5706854.0868],[32541852.0887,5706762.1213],[32542047.0095,5706620.1733],[32542258.9238,5706501.7152],[32542479.5848,5706399.2503],[32542705.2439,5706309.2803],[32542875.925,5706225.3093],[32543047.6057,5706142.338],[32543219.2864,5706060.866],[32543393.716,5705982.8925],[32543531.6598,5705867.935],[32543630.6186,5705711.4955],[32543701.8383,5705532.066],[32543753.0659,5705350.1376],[32543781.303,5705185.2028],[32543789.548,5705018.2693],[32543777.5511,5704850.8367],[32543744.5626,5704688.9024],[32543690.8323,5704515.9732],[32543621.8581,5704349.5417],[32543539.1395,5704189.6081],[32543444.1758,5704038.1714],[32543409.6888,5703958.7042],[32543375.2017,5703880.2366],[32543343.7135,5703801.269],[32543318.2228,5703719.8023],[32543298.7297,5703629.8389],[32543293.4809,5703536.3764],[32543297.9781,5703443.4135],[32543307.7233,5703351.45],[32543375.4454,5703258.985],[32543452.9136,5703174.5166],[32543541.3776,5703102.0431],[32543639.8378,5703047.5621],[32543748.0443,5703015.5719],[32543862.2486,5702997.5759],[32543976.4528,5702980.0797],[32544085.6589,5702949.089],[32544188.1176,5702902.6047],[32544289.3267,5702853.6215],[32544387.7869,5702798.141],[32544481.2489,5702735.6634],[32544540.7245,5702668.1887],[32544584.2063,5702586.7201],[32544610.9447,5702496.7554],[32544622.4392,5702405.7915],[32544636.4324,5702281.8408],[32544644.178,5702157.8902],[32544644.1767,5702033.4401],[32544637.928,5701910.4895],[32544636.1766,5701709.57],[32544633.6755,5701509.1504],[32544631.9242,5701309.2305],[32544630.4227,5701109.8104],[32544628.1724,5700984.8606],[32544625.1723,5700861.9099],[32544621.9223,5700737.4598],[32544620.6715,5700613.5095],[32544653.6569,5700472.5651],[32544738.6217,5700348.1126],[32544850.3259,5700235.1549],[32544967.0283,5700132.6928],[32545109.7203,5700036.7275],[32545267.4065,5699963.7525],[32545433.8395,5699909.2699],[32545604.0211,5699870.281],[32545749.7121,5699789.3096],[32545895.1531,5699707.3386],[32546037.8452,5699621.3693],[32546177.5384,5699530.4021],[32546275.2484,5699425.9416],[32546347.2185,5699297.4916],[32546394.1984,5699154.548],[32546422.1857,5699010.6052],[32546385.1987,5698844.6726],[32546292.2339,5698692.7355],[32546167.2823,5698556.7931],[32546032.0851,5698436.3449],[32545885.8921,5698303.4021],[32545734.7012,5698175.9571],[32545576.5132,5698057.0089],[32545412.0779,5697949.5562],[32545289.1256,5697809.6155],[32545179.168,5697659.6784],[32545081.2055,5697500.7446],[32544996.2378,5697336.3126],[32544984.2413,5697209.8636],[32545021.9749,5697080.9143],[32545094.9444,5696961.4604],[32545189.6556,5696866.9958],[32545323.8513,5696807.0165],[32545472.2916,5696780.0236],[32545624.2308,5696777.5208],[32545775.1706,5696794.5101],[32545886.1262,5696793.5077],[32545997.3318,5696793.0051],[32546108.2874,5696797.0007],[32546219.2432,5696809.9927],[32546321.4521,5696776.504],[32546412.9153,5696714.0274],[32546493.3826,5696632.5587],[32546564.1037,5696545.0926],[32546569.1,5696382.158],[32546484.132,5696223.2233],[32546354.1818,5696072.286],[32546225.2316,5695933.3444],[32546121.7719,5695826.3899],[32546013.5641,5695725.4331],[32545896.1102,5695635.472],[32545769.66,5695561.5048],[32545732.1739,5695459.5466],[32545732.1727,5695345.0926],[32545760.9101,5695231.1376],[32545810.6391,5695129.677],[32545838.3769,5695025.7181],[32545867.1143,5694923.7583],[32545899.6003,5694822.2982],[32545939.3333,5694723.3369],[32545907.095,5694604.8852],[32545804.885,5694512.4248],[32545668.1889,5694437.9579],[32545535.7413,5694377.9851],[32545431.7828,5694360.4947],[32545325.5754,5694365.4952],[32545221.3674,5694391.9871],[32545128.1552,5694438.9705],[32545024.9468,5694467.4616],[32544922.738,5694496.4524],[32544821.5288,5694526.9426],[32544721.0694,5694563.4304],[32544578.3764,5694541.9425],[32544449.9269,5694452.9812],[32544332.7226,5694328.0343],[32544227.514,5694204.0875],[32544136.05,5694113.6266],[32544046.8351,5694020.6667],[32543962.3684,5693924.2081],[32543887.1478,5693821.2519],[32543773.4429,5693761.7789],[32543644.4944,5693734.7929],[32543510.548,5693730.7977],[32543378.6009,5693741.7962],[32543250.1526,5693790.7793],[32543134.4495,5693870.7494],[32543032.7408,5693971.2108],[32542945.0267,5694081.6678],[32542849.3156,5694174.1324],[32542754.854,5694266.597],[32542662.1418,5694361.5607],[32542573.4283,5694461.023],[32542477.9672,5694528.4984],[32542374.5092,5694584.9783],[32542265.0534,5694627.9638],[32542152.8487,5694661.9529],[32542006.6573,5694675.9508],[32541858.7165,5694664.9588],[32541712.0249,5694634.9743],[32541569.0817,5694594.9937],[32541498.3597,5694561.0089],[32541426.6382,5694533.5216],[32541352.6676,5694509.0332],[32541277.9473,5694491.5419],[32541224.9685,5694484.0462],[32541171.7398,5694483.5477],[32541119.7607,5694493.5449],[32541073.5294,5694515.0375],[32541032.2963,5694554.5227],[32541007.0569,5694608.5018],[32540991.5637,5694669.4778],[32540984.0673,5694730.4537],[32540927.8403,5694781.9345],[32540865.3657,5694825.4187],[32540798.143,5694863.4052],[32540728.921,5694894.8943],[32540626.9619,5694904.8928],[32540523.0034,5694889.4014],[32540420.0443,5694855.4175],[32540322.333,5694815.4358],[32540240.6154,5694778.9523],[32540161.8965,5694737.4707],[32540087.176,5694689.9914],[32540018.453,5694635.015],[32539963.2243,5694550.5499],[32539932.7355,5694451.5901],[32539920.4895,5694345.1328],[32539919.2392,5694241.1747],[32539901.9954,5694142.2151],[32539885.5013,5694043.7554],[32539870.2567,5693944.7958],[32539858.011,5693846.3359],[32539794.7853,5693709.8925],[32539691.5759,5693595.941],[32539567.125,5693493.9851],[32539441.9245,5693399.0264],[32539328.719,5693288.0738],[32539215.2637,5693178.1208],[32539102.0582,5693070.1669],[32538986.8536,5692963.2127],[32538889.6415,5692827.7696],[32538824.6665,5692671.8339],[32538780.9328,5692505.4021],[32538748.9444,5692339.4697],[32538766.9363,5692201.525],[32538828.9106,5692070.5765],[32538922.6223,5691954.1215],[32539031.3281,5691858.1579],[32539161.7754,5691789.1829],[32539305.2177,5691745.1976],[32539454.4079,5691723.2034],[32539604.3479,5691722.2006],[32539699.8094,5691680.7153],[32539796.0206,5691639.7299],[32539888.2334,5691591.2475],[32539973.6988,5691533.769],[32540020.1797,5691462.2969],[32540037.922,5691374.3321],[32540033.4232,5691279.8705],[32540014.1803,5691190.9069],[32539969.6976,5691121.4359],[32539907.9719,5691063.9604],[32539836.2503,5691018.4803],[32539760.5303,5690985.995],[32539706.0516,5690906.5283],[32539655.5712,5690825.0622],[32539611.0884,5690740.5973],[32539572.6032,5690654.133],[32539504.3799,5690566.6698],[32539433.9075,5690482.2053],[32539359.4367,5690399.7401],[32539281.9672,5690321.7732],[32539141.2729,5690250.8046],[32538976.3388,5690232.3153],[32538802.4084,5690246.3131],[32538634.2258,5690266.8082],[32538477.7887,5690307.7948],[32538329.3485,5690372.7715],[32538188.6554,5690456.7405],[32538060.9571,5690555.7032],[32537958.2488,5690645.1692],[32537861.7881,5690741.6324],[32537774.8236,5690846.0921],[32537702.1035,5690960.5475],[32537626.6341,5691019.0255],[32537550.415,5691074.5048],[32537468.948,5691123.9865],[32537383.7323,5691161.4732],[32537289.5201,5691170.4715],[32537193.8082,5691152.9806],[32537100.8452,5691115.9973],[32537015.1291,5691070.5174],[32536951.6541,5691011.0426],[32536901.1738,5690939.5723],[32536862.6886,5690860.105],[32536839.1974,5690777.1388],[32536836.6978,5690691.1734],[32536850.4416,5690606.2072],[32536878.9297,5690523.24],[32536917.4137,5690446.2701],[32537017.1231,5690342.8097],[32537140.823,5690263.839],[32537276.2684,5690199.862],[32537414.7127,5690144.8814],[32537576.1476,5690078.9047],[32537741.581,5690019.4254],[32537908.0141,5689965.4439],[32538077.446,5689919.4591],[32538198.6472,5689864.4789],[32538319.0986,5689805.5004],[32538436.5512,5689740.0245],[32538549.2556,5689669.0509],[32538627.7238,5689602.5762],[32538698.1951,5689527.1053],[32538757.6707,5689443.6379],[32538805.401,5689352.6736],[32538854.1307,5689240.2181],[32538894.1139,5689123.2646],[32538924.8508,5689003.3124],[32538947.5909,5688883.3604],[32538989.3234,5688770.905],[32539033.305,5688658.9494],[32539079.036,5688547.9934],[32539127.7658,5688439.5363],[32539206.4835,5688321.0827],[32539310.1913,5688218.6222],[32539427.8937,5688129.6561],[32539549.5945,5688048.1868],[32539694.0363,5687981.2114],[32539850.2236,5687940.725],[32540011.409,5687918.7311],[32540173.5942,5687911.731],[32540255.8112,5687896.7357],[32540337.7783,5687882.2401],[32540419.9954,5687868.7441],[32540503.9618,5687863.2449],[32540629.4113,5687814.2626],[32540745.8643,5687743.2893],[32540855.5699,5687658.8216],[32540963.0264,5687573.3544],[32541116.964,5687445.4037],[32541264.904,5687311.4555],[32541409.8452,5687172.5095],[32541551.0378,5687030.5648],[32541666.741,5686930.6034],[32541784.4433,5686831.1419],[32541902.1456,5686734.1794],[32542023.8464,5686639.7158],[32542000.1065,5686742.6743],[32541980.3651,5686847.632],[32541961.6233,5686952.5896],[32541944.8807,5687058.5468],[32541933.1361,5687165.5035],[32541930.3879,5687274.4593],[32541927.6397,5687382.4154],[32541916.8947,5687490.8715],[32541862.1673,5687599.3284],[32541760.4585,5687680.797],[32541634.0094,5687742.7741],[32541508.8098,5687793.7555],[32541427.3426,5687836.2397],[32541346.1254,5687877.7243],[32541262.9089,5687915.2105],[32541177.6931,5687943.2007],[32541128.2134,5688019.1707],[32541119.4675,5688118.1307],[32541135.7118,5688225.087],[32541161.9519,5688325.5458],[32541200.4371,5688399.0153],[32541254.166,5688466.4869],[32541317.641,5688523.9625],[32541389.3627,5688568.4431],[32541423.0995,5688617.9224],[32541456.8364,5688666.9019],[32541488.3241,5688718.3804],[32541515.0638,5688772.358],[32541531.8074,5688814.8404],[32541547.5514,5688859.8219],[32541558.0475,5688904.8034],[32541564.7951,5688950.7846],[32541539.3057,5689014.7591],[32541481.0793,5689064.2401],[32541407.8589,5689103.7254],[32541335.3881,5689139.2124],[32541255.1703,5689171.7007],[32541172.9534,5689197.1919],[32541088.9871,5689214.6864],[32541003.7712,5689227.1829],[32540957.54,5689270.6661],[32540928.0522,5689331.642],[32540913.5584,5689399.6147],[32540914.0587,5689467.5871],[32540945.5466,5689540.5569],[32540997.2764,5689605.0298],[32541059.7518,5689661.5057],[32541128.4746,5689709.9847],[32541193.1991,5689766.9603],[32541257.6737,5689822.4365],[32541324.3974,5689876.9131],[32541394.1198,5689928.3908],[32541431.8551,5689982.868],[32541456.3457,5690045.8419],[32541467.8416,5690114.8137],[32541468.3419,5690183.2859],[32541454.8477,5690251.2586],[32541429.3583,5690316.7325],[32541394.1229,5690379.7076],[32541352.6398,5690436.1855],[32541328.1501,5690508.1568],[32541303.6604,5690581.1276],[32541281.1699,5690654.0985],[32541261.6782,5690728.0689],[32541270.925,5690813.0342],[32541324.4041,5690890.5016],[32541399.1247,5690959.9719],[32541476.5941,5691021.4453],[32541564.0597,5691107.4086],[32541654.5241,5691193.3718],[32541746.9877,5691274.8368],[32541842.45,5691354.8023],[32541928.1661,5691413.2767],[32542017.6307,5691465.2537],[32542112.3431,5691509.7336],[32542210.3041,5691547.7161],[32542316.0121,5691585.1986],[32542422.7196,5691620.1821],[32542531.6762,5691651.1672],[32542641.3825,5691677.6541],[32542767.3322,5691691.6457],[32542894.2814,5691693.6422],[32543022.4801,5691683.6435],[32543149.6791,5691668.647],[32542954.7579,5691799.0979],[32542755.8384,5691927.0501],[32542549.9215,5692037.5095],[32542333.2587,5692120.9802],[32542157.8292,5692168.4647],[32541982.6496,5692213.4502],[32541808.2197,5692257.9359],[32541633.7898,5692306.9198],[32541474.6038,5692352.4049],[32541315.1679,5692398.3897],[32541155.732,5692444.3745],[32540997.5457,5692492.8583],[32540909.0814,5692538.3418],[32540835.6113,5692610.8141],[32540780.8838,5692700.7788],[32540754.395,5692797.2403],[32540759.6436,5692893.7011],[32540791.1316,5692986.6627],[32540841.3621,5693075.1257],[32540903.8376,5693153.5924],[32540999.7994,5693189.5756],[32541108.7558,5693189.5732],[32541218.9616,5693166.0802],[32541324.1692,5693131.092],[32541462.6134,5693068.1145],[32541596.0595,5692992.6421],[32541723.7578,5692908.6733],[32541846.4581,5692816.708],[32541963.9106,5692741.236],[32542082.6126,5692666.2639],[32542201.0647,5692591.2917],[32542318.5172,5692514.8203],[32542491.1977,5692451.3423],[32542680.122,5692438.3434],[32542876.0437,5692455.832],[32543068.9667,5692481.3174],[32543220.4058,5692444.8289],[32543370.5954,5692398.8443],[32543516.0369,5692340.8648],[32543654.7309,5692268.8912],[32543785.428,5692172.4277],[32543903.1302,5692060.4709],[32544008.0874,5691935.0199],[32544102.0489,5691801.5724],[32544165.523,5691721.1039],[32544229.9967,5691641.635],[32544290.7219,5691559.1674],[32544345.1996,5691472.2019],[32544371.9382,5691362.2463],[32544357.6931,5691244.2948],[32544319.7076,5691125.844],[32544272.4758,5691014.3906],[32544202.0034,5690918.931],[32544113.5382,5690837.9659],[32544012.0784,5690771.4952],[32543905.3707,5690719.5186],[32543846.8935,5690622.0596],[32543798.6621,5690517.6032],[32543764.4251,5690409.1482],[32543743.1829,5690299.1935],[32543755.6773,5690205.2316],[32543795.4109,5690116.2672],[32543852.8874,5690035.7989],[32543922.3592,5689969.3247],[32544000.0775,5689884.8577],[32544080.5448,5689802.3898],[32544165.2605,5689724.9198],[32544254.7243,5689653.4473],[32544314.2,5689572.9791],[32544369.9272,5689489.0123],[32544418.4072,5689402.5468],[32544460.14,5689311.5832],[32544480.6311,5689211.6237],[32544479.381,5689108.6658],[32544463.1368,5689004.7086],[32544436.8967,5688905.2498],[32544405.4088,5688824.2835],[32544365.9241,5688746.8159],[32544317.443,5688675.346],[32544260.7153,5688611.873],[32544244.2214,5688539.9027],[32544236.7239,5688465.4333],[32544212.9829,5688375.4705],[32544249.7178,5688319.4927],[32544336.6823,5688206.0376],[32544415.4001,5688086.585],[32544478.3742,5687959.136],[32544520.3565,5687825.1901],[32544529.8521,5687724.2312],[32544520.6052,5687620.2739],[32544490.3666,5687522.8143],[32544433.8887,5687443.3477],[32544352.171,5687387.8718],[32544256.459,5687357.8857],[32544153.5001,5687347.3918],[32544052.2906,5687351.3919],[32543964.5753,5687303.9127],[32543880.1087,5687251.9354],[32543799.3906,5687196.4594],[32543723.6705,5687133.9862],[32543688.434,5687041.5246],[32543704.177,5686935.5675],[32543748.9084,5686825.6117],[32543802.6364,5686727.151],[32543900.0969,5686639.6851],[32544020.5484,5686580.7073],[32544152.9952,5686540.7214],[32544286.1918,5686514.7299],[32544412.6409,5686438.7589],[32544538.3402,5686362.2882],[32544662.79,5686283.3185],[32544784.4908,5686200.3505],[32544883.2008,5686098.8904],[32544960.919,5685976.4394],[32545019.8946,5685842.4933],[32545066.875,5685706.0484],[32545098.6116,5685590.0954],[32545122.6013,5685473.143],[32545135.3454,5685354.1915],[32545133.0956,5685236.2398],[32545270.7902,5685160.2689],[32545412.2332,5685089.2959],[32545557.6748,5685026.3196],[32545706.1152,5684972.3395],[32545811.323,5684940.8509],[32545919.5296,5684918.8583],[32546028.4861,5684907.3614],[32546138.6921,5684911.3582],[32546221.4092,5684926.8506],[32546302.377,5684956.8371],[32546377.0974,5684999.3185],[32546442.572,5685053.7957],[32546552.2793,5685126.7652],[32546660.7371,5685202.2336],[32546767.1956,5685280.2009],[32546872.6546,5685361.167],[32546955.3723,5685396.652],[32547046.3366,5685415.6437],[32547138.3004,5685417.1425],[32547228.5149,5685401.6484],[32547288.7409,5685365.1631],[32547337.2215,5685309.6856],[32547373.7068,5685243.7126],[32547395.1979,5685173.7413],[32547462.9206,5685063.2864],[32547530.6433,5684952.8315],[32547598.366,5684842.3767],[32547665.0891,5684730.4224],[32547765.0491,5684614.4697],[32547888.7499,5684519.0084],[32548024.1961,5684438.0412],[32548162.8912,5684365.0706],[32548278.3454,5684306.0944],[32548397.5482,5684253.6155],[32548519.9998,5684209.6331],[32548646.2,5684177.6457],[32548764.6531,5684124.6671],[32548882.1066,5684072.1882],[32549000.3098,5684019.2096],[32549117.7633,5683964.2318],[32549236.2165,5683917.7505],[32549356.419,5683875.7674],[32549478.8706,5683837.7826],[32549602.0719,5683802.2967],[32549726.5227,5683747.319],[32549848.9742,5683686.3437],[32549968.4269,5683619.8708],[32550086.8799,5683550.8989],[32550168.3476,5683500.4195],[32550249.5654,5683448.9405],[32550329.0338,5683395.4623],[32550405.5035,5683336.9863],[32550484.7221,5683296.5028],[32550565.94,5683263.5159],[32550650.1567,5683235.0271],[32550736.3727,5683211.5363],[32550825.5874,5683169.0532],[32550916.0516,5683126.0702],[32551005.2662,5683081.5879],[32551093.7312,5683036.106],[32551151.7083,5683015.6141],[32551212.9341,5683004.1185],[32551273.9101,5683001.6193],[32551334.8862,5683012.1148],[32551434.5972,5683055.5968],[32551522.0633,5683125.5681],[32551601.5325,5683209.034],[32551677.0033,5683294.4991],[32551774.4655,5683380.4631],[32551872.9272,5683466.427],[32551971.3889,5683551.891],[32552068.8511,5683639.854],[32552199.0504,5683733.8144],[32552341.7447,5683812.7809],[32552489.187,5683882.2514],[32552638.8785,5683948.2232],[32552749.5852,5683993.204],[32552862.2911,5684034.1864],[32552976.9961,5684067.672],[32553094.9499,5684091.6614],[32553166.6718,5684122.1484],[32553238.6437,5684153.6349],[32553308.3664,5684190.6192],[32553374.0908,5684233.1011],[32553435.567,5684301.5723],[32553477.0511,5684387.0364],[32553504.2908,5684481.9966],[32553523.7836,5684577.4566],[32553562.7689,5684703.4038],[32553602.0041,5684829.8508],[32553639.2401,5684958.297],[32553673.2274,5685086.7432],[32553703.4661,5685222.1864],[32553729.4566,5685358.1295],[32553751.4486,5685495.5719],[32553771.4414,5685634.0139],[32553792.6837,5685763.9595],[32553814.6757,5685894.4049],[32553836.9176,5686024.3504],[32553857.91,5686155.7954],[32553873.1545,5686265.7493],[32553886.3998,5686377.2026],[32553896.6464,5686488.1562],[32553905.8933,5686600.6091],[32553826.4243,5686545.6327],[32553746.7054,5686491.156],[32553667.9861,5686436.6793],[32553589.2668,5686382.7023],[32553538.5366,5686347.7173],[32553487.8064,5686311.2328],[32553437.0762,5686275.748],[32553387.3456,5686241.2627],[32553354.3585,5686225.2696],[32553318.3726,5686216.7734],[32553281.3872,5686217.2734],[32553247.4006,5686227.2695],[32553199.1698,5686262.755],[32553170.6813,5686316.7326],[32553175.4296,5686361.7138],[32553197.1713,5686404.196],[32553226.9098,5686444.1791],[32553258.6475,5686482.6628],[32553322.1228,5686551.1338],[32553390.8461,5686615.6064],[32553463.3179,5686677.0802],[32553537.0392,5686737.5545],[32553598.5153,5686814.5219],[32553654.9935,5686895.9875],[32553704.2245,5686980.9516],[32553750.7067,5687069.4143],[32553782.1946,5687136.8859],[32553810.6837,5687206.3566],[32553833.4251,5687277.3268],[32553850.9186,5687350.2962],[32553850.6689,5687389.7797],[32553843.172,5687429.2632],[32553825.929,5687464.2488],[32553798.9398,5687489.2385],[32553763.7037,5687495.7361],[32553727.7178,5687491.738],[32553691.9818,5687479.2435],[32553658.9947,5687463.2505],[32553608.2646,5687434.7627],[32553560.2833,5687403.2763],[32553513.5516,5687369.7906],[32553469.8186,5687334.8056],[32553400.3456,5687257.8382],[32553342.8678,5687172.3743],[32553291.6375,5687081.9125],[32553243.1561,5686990.9508],[32553161.6878,5686909.9852],[32553072.2227,5686839.5152],[32552975.5104,5686776.5422],[32552875.7994,5686721.066],[32552789.0833,5686673.0866],[32552701.3676,5686628.6057],[32552612.6523,5686587.6234],[32552520.9383,5686554.138],[32552464.2103,5686505.6586],[32552416.7287,5686447.1833],[32552380.9925,5686380.7112],[32552357.5013,5686310.7405],[32552334.76,5686263.2604],[32552313.2683,5686216.2801],[32552294.5254,5686169.2998],[32552281.7802,5686119.8205],[32552276.282,5686064.8434],[32552281.5297,5686010.8659],[32552293.0249,5685955.8887],[32552309.2682,5685903.9103],[32552315.7653,5685839.9369],[32552322.2625,5685776.963],[32552305.5188,5685719.9869],[32552259.7865,5685674.5061],[32552201.0594,5685635.0229],[32552145.3312,5685597.5388],[32552097.5998,5685567.0518],[32552047.8692,5685542.0625],[32551995.8896,5685522.5709],[32551942.9103,5685508.0772],[32551891.9304,5685499.5811],[32551840.9504,5685496.0828],[32551789.9705,5685499.0819],[32551739.9902,5685506.579],[32551667.5189,5685544.0639],[32551607.2929,5685603.5395],[32551555.8136,5685674.5103],[32551509.3322,5685745.9809],[32551459.852,5685812.4535],[32551413.3707,5685881.4252],[32551368.8886,5685951.8961],[32551329.1546,5686024.8661],[32551299.6667,5686111.8301],[32551285.9226,5686204.7916],[32551284.4237,5686299.7521],[32551289.6721,5686393.7131],[32551294.1708,5686470.6811],[32551303.6674,5686548.1488],[32551317.1625,5686624.1172],[32551338.6545,5686698.5861],[32551323.161,5686783.0511],[32551290.4243,5686865.0173],[32551245.9423,5686942.9852],[32551196.4621,5687015.4554],[32551130.9884,5687097.9217],[32551059.267,5687176.3896],[32550982.7975,5687249.8597],[32550902.3296,5687318.3318],[32550846.8518,5687380.3065],[32550791.374,5687443.7806],[32550736.8957,5687506.2551],[32550684.4168,5687572.2281],[32550638.9351,5687653.6947],[32550613.1958,5687745.6568],[32550600.7012,5687842.6166],[32550593.9544,5687939.5765],[32550576.4617,5688015.5451],[32550559.9686,5688091.5137],[32550543.4755,5688167.4823],[32550528.9817,5688244.4505],[32550486.9988,5688360.9026],[32550430.2718,5688472.8567],[32550363.5487,5688581.3123],[32550296.8255,5688687.7687],[32550235.1003,5688771.2347],[32550168.627,5688851.2021],[32550094.1567,5688924.6723],[32550015.688,5688991.1455],[32549949.9644,5689087.6062],[32549890.2385,5689188.0651],[32549834.5111,5689291.023],[32549784.7813,5689396.4798],[32549749.2956,5689453.4565],[32549715.0594,5689510.9331],[32549679.5737,5689567.9098],[32549643.0884,5689624.3868],[32549577.8644,5689687.3614],[32549494.3976,5689729.3448],[32549403.1837,5689759.8331],[32549311.9698,5689787.3226],[32549224.5046,5689847.7985],[32549140.0383,5689912.2727],[32549058.5708,5689980.2454],[32548980.1021,5690051.7167],[32548928.6229,5690127.6858],[32548898.8851,5690217.6489],[32548887.3902,5690312.6098],[32548888.6402,5690407.5705],[32548906.1339,5690499.5323],[32548938.3717,5690588.995],[32548983.8542,5690673.4596],[32549039.3328,5690751.9266],[32549113.8038,5690820.3975],[32549201.5195,5690878.3726],[32549295.2328,5690922.8531],[32549393.9441,5690957.8376],[32549512.6476,5691006.3162],[32549632.3506,5691053.2954],[32549753.0533,5691097.2759],[32549876.005,5691138.2575],[32549965.7198,5691177.2404],[32550055.4347,5691217.7226],[32550143.1503,5691260.204],[32550230.866,5691306.1839],[32550289.5929,5691330.6731],[32550349.5694,5691355.1623],[32550409.296,5691376.6527],[32550471.2716,5691397.1435],[32550537.2456,5691398.6421],[32550603.4694,5691376.1507],[32550667.6938,5691338.1657],[32550725.9206,5691296.6823],[32550814.1357,5691275.1902],[32550903.3504,5691255.1975],[32550992.5652,5691236.7041],[32551082.5296,5691222.2091],[32551194.4855,5691229.205],[32551305.4419,5691265.1888],[32551411.1505,5691318.6653],[32551513.6104,5691377.6396],[32551619.319,5691430.6164],[32551725.0276,5691486.5919],[32551829.4867,5691545.0664],[32551931.1969,5691609.0386],[32551999.6702,5691669.5126],[32552057.3978,5691743.9809],[32552101.6308,5691827.4456],[32552133.1188,5691915.9084],[32552170.6045,5691996.8743],[32552207.0905,5692078.3399],[32552241.5773,5692161.8047],[32552270.8162,5692246.769],[32552287.5599,5692297.2477],[32552305.3031,5692347.2267],[32552320.7973,5692398.2053],[32552332.5429,5692450.6833],[32552353.0351,5692504.6605],[32552374.7768,5692559.1376],[32552396.5185,5692613.1148],[32552421.0091,5692667.092],[32552310.8028,5692704.5778],[32552199.5969,5692739.5646],[32552087.1415,5692773.0521],[32551974.9359,5692804.0407],[32551847.7363,5692833.0302],[32551719.537,5692859.0211],[32551592.3373,5692884.5121],[32551466.1373,5692915.5008],[32551377.9222,5692939.492],[32551290.7068,5692968.9809],[32551204.491,5693001.4685],[32551122.2737,5693040.9532],[32551048.5532,5693115.4232],[32551010.8187,5693222.3793],[32550997.0747,5693342.3297],[32550992.3272,5693459.2811],[32551018.5674,5693553.2418],[32551070.0475,5693639.7052],[32551139.5205,5693715.6727],[32551219.2394,5693778.1456],[32551291.9609,5693823.6257],[32551369.6804,5693862.1086],[32551451.3983,5693891.0955],[32551536.3649,5693907.5874],[32551600.0899,5693950.0689],[32551661.8158,5693995.5491],[32551721.5425,5694045.0277],[32551776.0212,5694099.5042],[32551800.512,5694174.4727],[32551788.0174,5694261.4367],[32551752.2819,5694349.4006],[32551710.7988,5694430.3676],[32551640.0775,5694522.8308],[32551555.6116,5694605.2984],[32551463.1488,5694679.2696],[32551365.6879,5694745.7439],[32551243.9867,5694826.7127],[32551121.5358,5694904.1829],[32550995.8361,5694978.1547],[32550868.3871,5695047.1285],[32550717.4478,5695161.0844],[32550572.7561,5695282.0374],[32550430.8134,5695409.4878],[32550293.8687,5695539.4371],[32550207.4036,5695621.905],[32550126.6864,5695712.3695],[32550058.9641,5695810.8306],[32550012.2336,5695918.2877],[32549979.4976,5696035.2408],[32549949.5106,5696152.1938],[32549921.7727,5696270.1463],[32549895.0344,5696389.0985],[32549889.2876,5696491.0572],[32549873.5448,5696593.016],[32549851.8043,5696693.9754],[32549829.0643,5696794.9348],[32549794.0797,5696958.3691],[32549750.8483,5697121.3037],[32549694.872,5697279.2406],[32549621.9023,5697429.6809],[32549527.691,5697583.1204],[32549434.7293,5697738.5591],[32549341.5177,5697893.9979],[32549249.5557,5698049.4367],[32549141.35,5698201.3772],[32549043.1404,5698360.8145],[32548954.1773,5698525.2497],[32548876.9595,5698695.6823],[32548815.9851,5698838.6256],[32548769.0052,5698988.0661],[32548746.7655,5699141.0047],[32548758.7622,5699292.4432],[32548800.7471,5699446.8798],[32548849.7291,5699600.3167],[32548902.7096,5699752.7538],[32548958.6889,5699904.1913],[32549052.4034,5700079.1184],[32549136.3718,5700260.0433],[32549213.0931,5700443.4672],[32549284.8165,5700630.3898],[32549364.5365,5700806.8165],[32549426.2638,5700995.7385],[32549451.0058,5701185.6608],[32549419.77,5701368.5874],[32549336.8044,5701522.0272],[32549236.5956,5701667.4706],[32549125.641,5701804.9176],[32549009.6883,5701937.8665],[32548803.0214,5702040.3301],[32548604.1017,5702163.2853],[32548429.1727,5702311.7296],[32548294.7279,5702493.1597],[32548210.5133,5702685.584],[32548139.0437,5702885.0053],[32548077.5702,5703086.9254],[32548023.3438,5703291.3442],[32547977.864,5703500.2611],[32547951.3766,5703714.1755],[32547942.8822,5703929.5887],[32547954.3797,5704143.5021],[32548004.112,5704346.9186],[32548102.8246,5704537.8388],[32548234.5239,5704712.2646],[32548382.4665,5704870.1966],[32548272.7599,5704835.2139],[32548157.8054,5704814.7254],[32548043.8508,5704813.729],[32547937.6434,5704841.7207],[32547853.1775,5704893.2023],[32547781.7067,5704964.6755],[32547727.2293,5705051.642],[32547694.4933,5705145.605],[32547682.7491,5705253.5618],[32547690.9969,5705364.5168],[32547717.2375,5705473.9719],[32547755.4735,5705577.9289],[32547800.9566,5705685.3843],[32547854.1867,5705789.8406],[32547913.4143,5705890.2984],[32547981.8881,5705986.2577],[32548011.8777,5706112.2061],[32548025.124,5706243.6527],[32548026.1251,5706375.5995],[32548016.3806,5706507.5466],[32548040.6221,5706606.0062],[32548069.8616,5706703.9659],[32548106.3482,5706799.4264],[32548153.5805,5706889.8886],[32548219.3049,5706942.3656],[32548307.2702,5706966.3534],[32548404.2316,5706967.85],[32548496.4447,5706955.3524],[32548584.6592,5706923.3628],[32548668.8751,5706876.8791],[32548746.3436,5706820.3996],[32548815.8151,5706754.924],[32548884.0376,5706727.4331],[32548953.2597,5706700.9418],[32549023.2316,5706680.448],[32549095.4527,5706666.9513],[32549192.4143,5706688.4399],[32549278.8806,5706752.4117],[32549355.3512,5706836.8755],[32549424.8246,5706923.3387],[32549492.0493,5707047.7867],[32549537.0331,5707184.2305],[32549567.0229,5707327.6719],[32549586.017,5707471.1137],[32549571.0248,5707618.055],[32549526.0444,5707762.4981],[32549459.0728,5707900.4445],[32549379.1062,5708028.8951],[32549304.3876,5708164.3427],[32549227.4198,5708299.7903],[32549145.4541,5708432.2393],[32549058.4902,5708560.6901],[32549006.762,5708657.6525],[32548956.0334,5708754.115],[32548908.5534,5708853.0765],[32548865.8217,5708953.5373],[32548857.3259,5709027.5077],[32548879.8179,5709104.9759],[32548923.3015,5709175.9461],[32548978.7801,5709234.421],[32549014.766,5709249.9138],[32549055.7497,5709256.4101],[32549095.7338,5709251.411],[32549130.9695,5709234.9166],[32549215.1857,5709204.4266],[32549298.4021,5709170.9377],[32549402.3606,5709156.4407],[32549339.1365,5709219.4171],[32549220.1854,5709344.3701],[32549103.2335,5709472.8216],[32548989.2804,5709602.7725],[32548899.5672,5709700.2357],[32548817.851,5709804.6959],[32548744.1317,5709916.153],[32548681.408,5710033.1077],[32548645.6733,5710122.5726],[32548625.9323,5710219.5341],[32548623.4345,5710318.4943],[32548640.6788,5710413.9554],[32548692.9094,5710530.4071],[32548772.1292,5710633.8633],[32548867.5923,5710726.8233],[32548969.053,5710810.7867],[32549040.7749,5710842.2721],[32549108.4985,5710886.7524],[32549171.2241,5710938.2299],[32549234.9494,5710989.7075],[32549346.4061,5711068.6727],[32549451.8652,5711159.6333],[32549537.0826,5711265.0886],[32549588.3137,5711386.5383],[32549565.5741,5711498.4939],[32549552.8306,5711613.448],[32549549.8332,5711728.4018],[32549560.0805,5711843.8551],[32549579.574,5711940.8156],[32549613.8115,5712035.2767],[32549661.2937,5712123.7398],[32549722.7702,5712201.207],[32549799.2406,5712261.6807],[32549891.2045,5712303.6614],[32549989.9156,5712329.1485],[32550090.8756,5712343.1402],[32550152.3516,5712376.1253],[32550225.3231,5712416.1073],[32550355.7723,5712497.0713],[32550480.2239,5712588.0315],[32550596.6789,5712688.9878],[32550717.8823,5712817.9328],[32550840.835,5712945.8782],[32550964.0377,5713073.8236],[32551089.2395,5713200.7693],[32551185.4527,5713318.7194],[32551287.6635,5713433.6706],[32551402.1193,5713533.6275],[32551531.5689,5713610.5932],[32551646.2738,5713654.5726],[32551763.9776,5713693.5539],[32551881.9312,5713729.0365],[32552000.6345,5713766.0186],[32552163.8195,5713756.5182],[32552329.504,5713780.5043],[32552489.1912,5713831.9795],[32552635.8839,5713909.9444],[32552804.0687,5714036.3894],[32552951.0124,5714194.3223],[32553062.7203,5714375.2469],[32553127.4471,5714574.1655],[32553178.4307,5714875.5434],[32553231.1637,5715178.4207],[32553283.1469,5715479.7986],[32553336.1297,5715782.1761],[32553367.3708,5716059.0644],[32553411.3569,5716333.4533],[32553467.588,5716605.8428],[32553532.8159,5716877.7321],[32553610.789,5717167.6139],[32553707.7545,5717452.4972],[32553816.9651,5717732.3823],[32553932.1733,5718011.2676],[32554091.6154,5718391.6113],[32554269.0502,5718765.4573],[32554466.477,5719128.3073],[32554686.1447,5719478.1621],[32554961.7902,5719826.0166],[32555230.4385,5720179.3691],[32555494.0889,5720536.7203],[32555757.7392,5720896.0708],[32556045.38,5721245.425],[32556318.0268,5721608.2742],[32556556.4376,5721992.6157],[32556739.6206,5722401.9485],[32556820.8424,5722695.8296],[32556876.5745,5722998.7076],[32556905.5673,5723304.0852],[32556910.5696,5723610.4629],[32556887.3334,5723939.3322],[32556839.1072,5724268.202],[32556763.8915,5724590.5749],[32556661.6865,5724905.4512],[32556516.249,5725241.3199],[32556357.0668,5725573.6902],[32556182.6406,5725896.5646],[32555992.4705,5726209.9429],[32555763.8145,5726439.8551],[32555547.1539,5726682.2621],[32555348.4864,5726937.6635],[32555173.5597,5727209.5578],[32555020.6244,5727493.9466],[32554875.4361,5727782.8335],[32554741.4935,5728076.2187],[32554619.2962,5728375.6013],[32554505.0961,5728689.9778],[32554397.8931,5729006.3534],[32554294.6887,5729324.7281],[32554192.4838,5729644.1023],[32554077.5337,5729945.4839],[32553977.3279,5730253.8625],[32553903.1119,5730568.7381],[32553868.1304,5730887.6114],[32553868.1343,5731161.5021],[32553874.1358,5731436.8921],[32553895.3813,5731710.2826],[32553937.6183,5731981.6737],[32554003.5944,5732139.1098],[32554066.3217,5732300.0446],[32554116.3042,5732463.4786],[32554149.0436,5732630.9113],[32554162.2901,5732756.8608],[32554172.5379,5732884.3098],[32554175.5385,5733011.2591],[32554171.7918,5733139.2082],[32554166.0452,5733216.1775],[32554160.5484,5733293.1469],[32554151.0533,5733369.1167],[32554131.5621,5733444.0871],[32554127.3145,5733494.0673],[32554133.8127,5733546.0464],[32554152.5559,5733594.5268],[32554181.2951,5733635.51],[32554237.0235,5733675.993],[32554298.7495,5733714.4767],[32554361.7248,5733734.9676],[32554422.7004,5733725.4704],[32554468.9316,5733693.9823],[32554514.1631,5733658.9955],[32554557.3954,5733623.509],[32554600.6277,5733587.5227],[32554627.1165,5733534.0436],[32554662.3517,5733484.063],[32554704.8343,5733441.5793],[32554755.0638,5733409.5913],[32554823.2863,5733380.102],[32554892.5084,5733354.6111],[32554963.4799,5733332.1189],[32555034.7013,5733310.6264],[32555114.9193,5733304.1278],[32555194.8873,5733289.1325],[32555274.1056,5733268.6394],[32555353.3238,5733249.146],[32555484.2716,5733233.1503],[32555613.7196,5733194.1639],[32555736.17,5733133.6861],[32555849.6239,5733061.713],[32556021.5537,5732925.7645],[32556190.4846,5732787.8168],[32556358.6658,5732647.3701],[32556526.5971,5732506.4236],[32556679.7838,5732338.4881],[32556841.9671,5732177.5497],[32557010.8979,5732026.6071],[32557191.0743,5731887.6596],[32557364.7536,5731768.2044],[32557544.6805,5731656.2463],[32557728.356,5731552.7852],[32557918.0292,5731459.8197],[32558151.9347,5731355.8582],[32558386.5899,5731253.3959],[32558623.2444,5731153.9325],[32558861.1484,5731058.9673],[32559098.8025,5730966.501],[32559337.4563,5730876.034],[32559576.1101,5730786.0668],[32559815.7635,5730696.5993],[32559936.215,5730654.6145],[32560058.4158,5730617.6276],[32560179.6171,5730578.1418],[32560300.0685,5730534.1577],[32560373.2886,5730479.6785],[32560425.0169,5730398.2102],[32560455.7533,5730301.2484],[32560470.9986,5730395.2108],[32560479.2466,5730491.6723],[32560490.7434,5730586.6344],[32560505.9887,5730684.5952],[32560529.4807,5730782.0561],[32560561.7193,5730877.5177],[32560602.2044,5730968.481],[32560663.681,5731039.4519],[32560752.3963,5731084.9327],[32560830.1161,5731137.4108],[32560704.6665,5731167.4005],[32560585.4645,5731212.8839],[32560473.0101,5731272.8615],[32560321.3218,5731370.8244],[32560171.6328,5731471.7861],[32560022.9434,5731572.7479],[32559874.0041,5731675.7088],[32559692.328,5731789.6657],[32559514.4005,5731909.1205],[32559343.4703,5732038.0713],[32559184.5355,5732180.0169],[32559029.3494,5732332.958],[32558876.4124,5732487.8982],[32558723.2255,5732642.8385],[32558571.0383,5732798.7784],[32558454.0869,5732950.2196],[32558326.1399,5733093.1643],[32558189.1962,5733227.1127],[32558046.2549,5733354.064],[32557850.5839,5733440.0323],[32557658.9115,5733535.4967],[32557481.9835,5733650.4532],[32557332.0452,5733795.3977],[32557240.0837,5733936.8428],[32557144.1238,5734075.789],[32557045.1651,5734213.2357],[32556947.206,5734351.6821],[32556850.747,5734545.1066],[32556728.5482,5734726.5362],[32556581.3589,5734885.4751],[32556409.429,5735009.9281],[32556164.5279,5735120.3878],[32555921.876,5735235.8454],[32555680.9734,5735353.802],[32555441.0705,5735474.2576],[32555188.1726,5735587.2164],[32554939.2733,5735707.672],[32554701.3698,5735847.12],[32554485.2082,5736014.5564],[32554322.0252,5736165.4986],[32554158.8422,5736317.4404],[32553995.9091,5736468.3825],[32553832.7262,5736619.8245],[32553745.5117,5736678.3024],[32553663.0454,5736741.7783],[32553587.3265,5736814.2505],[32553526.8518,5736897.7181],[32553501.3628,5736958.6941],[32553484.8702,5737023.6684],[32553482.6221,5737089.6421],[32553499.1164,5737152.1169],[32553541.8502,5737203.096],[32553597.5786,5737244.5786],[32553661.3036,5737271.0671],[32553727.2775,5737280.5624],[32553819.2408,5737270.565],[32553909.4546,5737244.0743],[32553997.9189,5737207.5876],[32554084.134,5737168.1021],[32554240.5708,5737091.6303],[32554394.2585,5737007.6616],[32554544.9473,5736918.6949],[32554695.6361,5736829.7282],[32554955.7805,5736674.2864],[32555212.9259,5736512.3472],[32555465.0733,5736345.9098],[32555716.221,5736174.9742],[32555978.6141,5735986.5454],[32556237.0086,5735791.6193],[32556490.405,5735589.1961],[32556738.0536,5735380.7754],[32556950.4664,5735186.3497],[32557152.8831,5734981.928],[32557346.3032,5734768.0102],[32557444.5125,5734650.0557],[32557405.2801,5734791.5],[32557345.3057,5734915.9514],[32557286.5808,5735040.9025],[32557250.5968,5735165.3535],[32557206.866,5735288.3052],[32557153.8887,5735406.7588],[32557093.1645,5735522.7136],[32557023.4437,5735631.1714],[32556946.7257,5735735.631],[32556863.0103,5735834.093],[32556773.2973,5735927.5571],[32556663.5923,5736025.5197],[32556549.8888,5736118.9842],[32556432.1869,5736206.9509],[32556312.7356,5736293.4182],[32556146.0532,5736386.8834],[32555982.3696,5736485.8464],[32555820.4355,5736588.8078],[32555662.7497,5736695.7675],[32555495.8177,5736813.7229],[32555333.1342,5736936.6762],[32555172.1999,5737061.129],[32555011.2657,5737187.0811],[32554875.072,5737341.5215],[32554729.1321,5737488.465],[32554570.1972,5737619.4151],[32554398.2671,5737729.8735],[32554244.8292,5737800.8474],[32554087.3927,5737865.8237],[32553925.9575,5737909.8085],[32553762.0228,5737916.3082],[32553668.0599,5737897.8169],[32553579.3446,5737859.8333],[32553498.6259,5737804.3566],[32553432.1514,5737736.8845],[32553341.9355,5737614.9345],[32553256.7176,5737491.485],[32553173.4989,5737364.5368],[32553092.2794,5737239.0881],[32552991.3174,5737089.1494],[32552897.3526,5736935.2122],[32552813.3837,5736777.7763],[32552740.6603,5736613.8428],[32552711.6696,5736460.4045],[32552676.6813,5736307.9659],[32552633.6963,5736159.026],[32552578.7161,5736015.0843],[32552544.2287,5735943.1135],[32552499.4955,5735874.6415],[32552444.0168,5735818.1649],[32552377.2928,5735784.6793],[32552301.3229,5735772.1854],[32552223.104,5735772.6863],[32552146.1347,5735785.6823],[32552071.9146,5735808.1744],[32551983.7001,5735842.6619],[32551899.4842,5735884.1466],[32551817.0177,5735930.6292],[32551739.5492,5735984.109],[32551693.3164,5735899.6434],[32551638.8369,5735820.176],[32551574.1116,5735748.7055],[32551500.64,5735691.2295],[32551422.9203,5735649.2475],[32551340.9524,5735615.762],[32551256.2357,5735593.2723],[32551170.2698,5735586.2764],[32551077.0569,5735590.7759],[32550984.094,5735601.2731],[32550891.8809,5735616.2685],[32550801.9169,5735635.762],[32550692.7107,5735659.754],[32550583.5045,5735687.2446],[32550476.2975,5735715.235],[32550368.8407,5735746.724],[32550281.3747,5735694.7461],[32550186.4119,5735654.2637],[32550088.7003,5735624.2771],[32549988.7397,5735604.7864],[32549832.8014,5735583.2973],[32549677.1131,5735566.3063],[32549522.1744,5735551.3146],[32549366.2362,5735536.8227],[32549195.3039,5735515.8336],[32549023.372,5735504.3408],[32548851.1904,5735502.3441],[32548680.2585,5735507.8444],[32548501.8301,5735556.8274],[32548321.4024,5735593.3154],[32548138.2255,5735617.8083],[32547955.0485,5735629.8062],[32547765.124,5735629.3092],[32547576.199,5735617.8165],[32547388.2733,5735592.3295],[32547205.5953,5735548.8496],[32547022.917,5735485.3777],[32546841.2382,5735419.9066],[32546660.8089,5735350.9369],[32546483.1285,5735277.4689],[32546390.4149,5735245.4831],[32546297.7012,5735208.9991],[32546217.9821,5735157.5209],[32546166.5015,5735085.0507],[32546155.7548,5735018.5775],[32546149.2564,5734950.6049],[32546157.7521,5734888.6296],[32546192.9875,5734844.1469],[32546238.2193,5734831.1515],[32546283.2012,5734816.6566],[32546327.4333,5734798.6632],[32546371.6655,5734781.1695],[32546421.6454,5734765.675],[32546470.8755,5734741.6839],[32546511.109,5734709.1963],[32546537.348,5734667.2128],[32546538.8465,5734605.2376],[32546533.3477,5734542.2629],[32546514.6044,5734486.2857],[32546475.8693,5734450.8005],[32546422.89,5734431.3091],[32546368.9113,5734418.8149],[32546314.1829,5734408.3199],[32546260.2042,5734399.3243],[32546153.9964,5734400.3255],[32546047.0388,5734391.3307],[32545942.3302,5734372.8397],[32545840.3702,5734345.852],[32545720.667,5734301.8715],[32545604.9622,5734250.3939],[32545493.2556,5734191.4192],[32545384.7977,5734126.4469],[32545298.3305,5734026.4884],[32545204.1165,5733936.0261],[32545101.656,5733853.0609],[32544992.948,5733781.0915],[32544878.4925,5733717.6187],[32544757.7895,5733660.6434],[32544635.0876,5733624.6597],[32544510.8869,5733625.6612],[32544437.6664,5733656.1501],[32544370.4437,5733701.6329],[32544314.9666,5733758.1111],[32544280.4813,5733827.0839],[32544261.99,5733920.0468],[32544256.2437,5734016.0084],[32544258.4942,5734111.9698],[32544265.9926,5734207.9312],[32544281.9885,5734356.3713],[32544307.9803,5734502.8121],[32544338.9702,5734648.7531],[32544376.9573,5734794.1941],[32544419.9426,5734952.6299],[32544469.9251,5735111.0655],[32544532.9024,5735264.0032],[32544614.8719,5735405.4452],[32544704.0883,5735522.3969],[32544792.305,5735640.8481],[32544879.5222,5735759.799],[32544967.7389,5735878.2502],[32545063.2023,5735966.2135],[32545157.4164,5736063.1732],[32545225.8908,5736169.6295],[32545244.885,5736286.5823],[32545229.3925,5736378.5456],[32545212.6505,5736470.509],[32545195.1588,5736562.4723],[32545178.4168,5736654.4357],[32545108.9454,5736725.908],[32545065.2142,5736824.8689],[32545055.4696,5736930.8265],[32545087.9581,5737023.289],[32545200.9156,5737182.2236],[32545313.8731,5737342.1578],[32545427.8303,5737501.0924],[32545541.5375,5737661.0266],[32545683.2342,5737857.9456],[32545824.9308,5738055.3645],[32545966.6275,5738253.2831],[32546108.3241,5738452.7012],[32546252.5186,5738580.6479],[32546380.4699,5738730.0862],[32546479.4329,5738896.5182],[32546536.1629,5739078.445],[32546543.9125,5739276.3662],[32546534.419,5739478.7857],[32546489.1896,5739667.2114],[32546391.9804,5739827.6489],[32546249.5382,5739912.617],[32546109.845,5740004.5823],[32545978.1488,5740106.0438],[32545856.1988,5740218.0009],[32545779.7303,5740304.4675],[32545712.0085,5740396.9317],[32545651.2839,5740495.8932],[32545599.5559,5740598.3531],[32545605.8049,5740707.3097],[32545598.0595,5740818.2656],[32545571.3215,5740924.2238],[32545520.5929,5741017.1875],[32545438.127,5741115.6495],[32545352.4124,5741212.1123],[32545267.6973,5741308.5751],[32545187.9803,5741409.0362],[32545144.4983,5741464.5148],[32545100.2667,5741519.9933],[32545058.7839,5741576.9712],[32545021.2996,5741636.9479],[32544910.0944,5741685.9299],[32544791.6419,5741719.9181],[32544669.6905,5741734.414],[32544550.7376,5741723.42],[32544413.7914,5741686.4367],[32544281.0934,5741636.4584],[32544152.6436,5741573.9851],[32544030.9409,5741503.015],[32543903.4903,5741418.0506],[32543781.0377,5741329.0877],[32543662.8333,5741233.1275],[32543550.3766,5741131.6694],[32543445.1667,5741016.7166],[32543349.9529,5740894.7665],[32543262.9856,5740765.819],[32543184.7648,5740633.3728],[32543124.2879,5740567.8997],[32543061.5619,5740503.4262],[32542994.0879,5740446.9496],[32542919.367,5740403.4679],[32542866.3878,5740390.9736],[32542810.1602,5740397.4718],[32542758.1812,5740418.964],[32542715.9484,5740452.951],[32542691.4589,5740510.4285],[32542683.9628,5740575.4028],[32542689.4615,5740641.8763],[32542702.2074,5740706.8502],[32542742.4428,5740806.3101],[32542796.9224,5740900.7718],[32542860.1486,5740990.2353],[32542928.6226,5741076.7],[32542995.0972,5741145.1718],[32543068.8187,5741206.6463],[32543147.5383,5741261.6233],[32543232.2553,5741308.1037],[32543287.7339,5741359.5824],[32543342.463,5741413.0604],[32543396.1924,5741467.538],[32543446.6731,5741525.0144],[32543485.4086,5741582.491],[32543515.8973,5741645.4655],[32543540.3885,5741711.9387],[32543559.132,5741779.9114],[32543589.6209,5741850.3829],[32543621.1093,5741920.3547],[32543652.5978,5741990.8262],[32543685.0859,5742061.2977],[32543724.8209,5742119.2741],[32543780.2995,5742167.754],[32543845.2743,5742206.2378],[32543911.9982,5742239.7235],[32543917.9976,5742364.1739],[32543914.2508,5742490.1239],[32543892.5111,5742611.0761],[32543845.5313,5742722.5324],[32543776.81,5742826.492],[32543709.0883,5742930.9514],[32543642.3662,5743035.4107],[32543576.6438,5743140.8697],[32543486.6815,5743286.3131],[32543396.7192,5743431.7565],[32543306.757,5743577.1999],[32543217.5444,5743722.6433],[32543086.5986,5743881.5819],[32542970.3971,5744052.0157],[32542868.1901,5744231.4458],[32542780.7274,5744418.8724],[32542704.5104,5744618.2942],[32542641.0385,5744823.2136],[32542601.5571,5745033.1306],[32542598.0614,5745244.0468],[32542624.8032,5745419.4766],[32542663.7901,5745592.9071],[32542711.5235,5745764.3382],[32542771.502,5745931.7707],[32542870.4645,5746061.7176],[32542964.6789,5746197.6622],[32543043.6495,5746340.1045],[32543098.6298,5746493.5426],[32543105.1284,5746579.0085],[32543095.3835,5746668.9729],[32543064.8967,5746746.4425],[32543008.6697,5746798.4226],[32542907.4603,5746823.4141],[32542800.2528,5746821.4164],[32542692.5453,5746800.9261],[32542588.5862,5746769.9399],[32542424.1507,5746708.9665],[32542264.4631,5746637.4972],[32542108.0242,5746558.5308],[32541955.5835,5746473.067],[32541868.117,5746384.6034],[32541777.6518,5746299.6385],[32541684.1878,5746218.1722],[32541588.7246,5746140.2045],[32541516.0027,5746082.7284],[32541439.2825,5746033.749],[32541356.5648,5745992.2666],[32541271.848,5745960.7804],[32541185.8818,5745939.7899],[32541097.9166,5745930.2949],[32541010.9512,5745934.7944],[32540928.7342,5745958.2862],[32540866.5095,5745999.7706],[32540814.0311,5746057.2484],[32540777.5466,5746126.2215],[32540762.0538,5746199.1927],[32540796.2916,5746303.1509],[32540822.7826,5746411.6074],[32540841.0269,5746521.0636],[32540849.2751,5746632.0194],[32540847.5271,5746723.9828],[32540836.7827,5746817.9456],[32540809.2948,5746904.9114],[32540757.8162,5746974.3845],[32540691.5929,5747002.8741],[32540619.3718,5747017.3694],[32540546.4008,5747015.871],[32540477.6778,5746998.3789],[32540402.9565,5746926.9084],[32540322.4876,5746864.4344],[32540236.7708,5746807.4582],[32540149.055,5746754.9803],[32540045.5952,5746697.0049],[32539935.8882,5746651.0247],[32539820.9334,5746621.538],[32539704.9793,5746611.5436],[32539604.0196,5746625.5395],[32539507.5585,5746666.0247],[32539421.0937,5746726.5019],[32539348.6235,5746799.9737],[32539267.6575,5746929.4234],[32539206.6837,5747073.8668],[32539177.6973,5747223.8076],[32539192.6934,5747371.2488],[32539272.6639,5747531.6838],[32539347.6364,5747696.6172],[32539416.3615,5747864.0497],[32539480.3384,5748033.4814],[32539537.3179,5748188.419],[32539587.0504,5748345.8557],[32539620.0395,5748507.291],[32539629.0382,5748670.2261],[32539614.2955,5748771.1862],[32539591.556,5748874.1455],[32539551.823,5748967.1091],[32539487.3497,5749038.5816],[32539419.1271,5749061.0737],[32539346.1562,5749068.5717],[32539273.1851,5749061.0757],[32539207.2109,5749036.5864],[32539135.7385,5748976.6113],[32539078.2602,5748899.1429],[32539022.7812,5748819.6753],[32538955.3071,5748755.2019],[32538847.5989,5748689.2296],[32538734.8929,5748634.7529],[32538617.189,5748587.7732],[32538498.4857,5748548.7904]],[[32532424.8879,5730707.5192],[32532337.9225,5730709.0197],[32532255.7055,5730731.5117],[32532188.4829,5730776.9942],[32532142.0023,5730839.4695],[32532109.5163,5730912.4405],[32532091.0249,5730989.4096],[32532085.5282,5731068.3778],[32532087.7788,5731164.339],[32532099.0258,5731261.2997],[32532118.5195,5731356.7609],[32532145.76,5731450.2228],[32532171.0016,5731558.1789],[32532198.2424,5731666.6348],[32532226.7327,5731774.5908],[32532257.972,5731883.0466],[32532267.2198,5731981.0069],[32532260.4739,5732080.4669],[32532242.9824,5732179.4271],[32532217.2441,5732275.8885],[32532182.7587,5732333.8655],[32532134.5286,5732382.3466],[32532076.0524,5732419.3324],[32532013.0777,5732440.8246],[32531916.8664,5732470.8138],[32531817.6562,5732495.3052],[32531718.4459,5732513.2992],[32531618.236,5732526.7951],[32531555.0115,5732555.2844],[32531495.7856,5732592.7701],[32531443.5571,5732637.7526],[32531402.0744,5732691.2316],[32531379.8341,5732750.2081],[32531374.3372,5732815.1819],[32531382.8349,5732882.1548],[32531400.3289,5732945.6289],[32531427.069,5732994.6088],[32531461.8059,5733041.0896],[32531503.5399,5733080.0733],[32531551.2714,5733111.5599],[32531632.2396,5733137.0486],[32531718.2056,5733147.0434],[32531806.1706,5733145.5428],[32531894.1355,5733139.0443],[32531988.3478,5733124.0491],[32532082.5601,5733102.5565],[32532173.7734,5733074.0668],[32532263.987,5733040.0793],[32532341.9559,5733030.5821],[32532422.1739,5733024.0836],[32532501.1425,5733023.5828],[32532581.1108,5733029.0795],[32532642.0868,5733041.5736],[32532701.8134,5733064.0638],[32532758.7912,5733093.5511],[32532809.5216,5733132.0349],[32532849.2564,5733174.5172],[32532880.7447,5733224.4965],[32532905.4857,5733278.9742],[32532923.2295,5733335.951],[32532931.7269,5733391.9282],[32532934.2268,5733450.4046],[32532930.979,5733508.3812],[32532921.4836,5733565.3583],[32532894.2452,5733615.8383],[32532853.762,5733660.8206],[32532806.5313,5733698.3061],[32532755.3022,5733729.2943],[32532700.0745,5733755.7844],[32532644.0971,5733777.2764],[32532584.8709,5733793.7706],[32532525.8945,5733804.2671],[32532395.4468,5733836.256],[32532264.2494,5733867.2453],[32532134.0516,5733897.7347],[32532003.8538,5733927.7244],[32531922.6363,5733945.2184],[32531842.6684,5733965.2114],[32531764.4498,5733987.7034],[32531686.2313,5734014.1938],[32531631.0036,5734034.6862],[32531577.7751,5734059.6769],[32531527.5455,5734090.1652],[32531482.3141,5734127.6507],[32531451.0771,5734169.6342],[32531434.5844,5734220.6139],[32531427.3381,5734275.5918],[32531429.838,5734330.5695],[32531455.5786,5734384.0476],[32531498.3122,5734429.0289],[32531551.0418,5734465.5134],[32531606.7702,5734496.9999],[32531676.493,5734534.4839],[32531748.4649,5734568.9689],[32531822.1861,5734599.4556],[32531898.1563,5734626.4437],[32531981.8733,5734639.9371],[32532069.0886,5734640.4357],[32532155.0543,5734630.9384],[32532241.2698,5734615.9432],[32532317.2393,5734596.4501],[32532392.4591,5734570.9593],[32532464.6799,5734540.4706],[32532535.1513,5734502.9848],[32532619.1177,5734482.4919],[32532705.3331,5734464.9978],[32532791.5487,5734452.0019],[32532878.514,5734441.5049],[32533004.7136,5734424.5101],[32533131.9128,5734408.5148],[32533258.8621,5734394.0189],[32533387.061,5734381.0224],[32533474.2757,5734344.0362],[32533547.7455,5734274.5632],[32533603.472,5734184.5988],[32533643.2048,5734091.1361],[32533667.6937,5734001.1721],[32533681.4368,5733907.2099],[32533681.9352,5733814.2474],[32533670.6882,5733721.785],[32533714.1696,5733634.3197],[32533771.8955,5733554.3513],[32533839.3676,5733481.8796],[32533913.837,5733418.4043],[32533938.0766,5733366.425],[32533961.5664,5733312.9463],[32533976.8095,5733257.9683],[32533978.3081,5733202.9905],[32533953.8167,5733125.5222],[32533908.3337,5733056.0508],[32533849.6061,5732992.5773],[32533789.1292,5732935.1013],[32533769.6357,5732851.1355],[32533765.1362,5732764.1707],[32533773.8814,5732676.706],[32533791.3731,5732592.2399],[32533766.8819,5732525.7671],[32533733.3943,5732464.2924],[32533690.6604,5732408.3156],[32533639.9298,5732361.835],[32533554.2134,5732329.8491],[32533461.2503,5732325.3521],[32533365.0388,5732338.8479],[32533271.8261,5732358.8411],[32533209.8506,5732349.3457],[32533148.8747,5732339.8504],[32533089.1483,5732326.3566],[32533031.171,5732307.3651],[32532982.4398,5732266.8821],[32532949.7019,5732209.4057],[32532929.2091,5732143.4326],[32532917.7126,5732076.9596],[32532920.4601,5731981.998],[32532939.9509,5731889.0353],[32532971.6869,5731797.5718],[32533009.1707,5731709.6069],[32533005.1701,5731561.6667],[32532986.1754,5731414.2265],[32532957.1847,5731267.786],[32532923.196,5731124.3444],[32532854.9713,5730997.8964],[32532754.7595,5730889.9413],[32532634.306,5730799.9792],[32532506.8556,5730727.0103],[32532424.8879,5730707.5192]],[[32538585.9856,5733550.2816],[32538543.0027,5733553.281],[32538500.0199,5733565.7766],[32538461.7854,5733587.2686],[32538402.3101,5733657.2412],[32538358.5786,5733738.709],[32538324.0936,5733826.6741],[32538294.3568,5733916.6383],[32538271.6177,5734040.5886],[32538267.6212,5734168.5371],[32538275.8698,5734296.4854],[32538292.1153,5734424.9333],[32538274.1246,5734564.8772],[32538253.135,5734704.821],[32538228.147,5734844.765],[32538199.1606,5734983.2096],[32538143.1847,5735111.1588],[32538061.4689,5735227.613],[32537961.76,5735332.0723],[32537854.0541,5735426.036],[32537782.3341,5735523.4977],[32537710.614,5735621.4592],[32537639.8935,5735718.921],[32537571.1723,5735818.3818],[32537538.9359,5735874.3597],[32537516.4457,5735935.8352],[32537507.9501,5735998.8099],[32537519.6963,5736060.285],[32537533.1921,5736133.2553],[32537554.6846,5736204.2264],[32537584.174,5736273.6979],[32537619.6609,5736340.1706],[32537685.1362,5736424.6356],[32537762.6066,5736501.1037],[32537847.324,5736570.0746],[32537935.7899,5736634.5474],[32538013.2603,5736709.0162],[32538091.7303,5736782.9853],[32538171.4497,5736855.4549],[32538250.9193,5736928.9242],[32538330.3889,5737001.8936],[32538411.8576,5737072.3641],[32538495.5755,5737142.3347],[32538580.043,5737210.8059],[32538636.7709,5737240.2932],[32538703.7445,5737252.7872],[32538771.7175,5737246.2889],[32538833.9424,5737224.7967],[32538877.1747,5737183.8126],[32538907.6618,5737130.3337],[32538927.1531,5737070.3576],[32538937.3982,5737009.3821],[32538920.1538,5736927.9151],[32538885.6663,5736852.9459],[32538837.9342,5736781.4753],[32538786.4536,5736716.0025],[32538706.984,5736634.5364],[32538619.5176,5736561.5671],[32538527.8029,5736495.0952],[32538432.3399,5736434.1211],[32538370.8628,5736335.6617],[32538333.6259,5736224.2072],[32538313.6321,5736106.255],[32538307.3828,5735988.8025],[32538313.1285,5735858.8548],[32538334.1183,5735728.9069],[32538367.853,5735601.9576],[32538412.8333,5735480.5059],[32538472.0571,5735297.5788],[32538534.2797,5735116.151],[32538600.5007,5734936.2226],[32538670.7201,5734757.7935],[32538708.7029,5734610.8522],[32538739.9382,5734461.9118],[32538761.9273,5734311.9719],[32538775.9195,5734161.0325],[32538779.6664,5734058.074],[32538777.4158,5733954.1159],[32538764.9192,5733852.1572],[32538740.6773,5733753.6973],[32538722.1838,5733698.7197],[32538699.442,5733644.242],[32538668.7035,5733597.2614],[32538626.9696,5733562.7759],[32538585.9856,5733550.2816]],[[32540564.2191,5734756.7659],[32540479.2529,5734763.2646],[32540397.0359,5734791.7543],[32540321.5665,5734837.2371],[32540258.3425,5734894.7149],[32540211.8618,5734958.19],[32540176.377,5735031.1612],[32540152.8875,5735108.1305],[32540142.1429,5735187.0989],[32540172.6322,5735279.5612],[32540233.1094,5735360.0279],[32540311.5794,5735430.4984],[32540395.2971,5735492.972],[32540486.0119,5735543.9502],[32540583.7237,5735585.432],[32540684.4342,5735615.4185],[32540788.3933,5735635.4089],[32540834.1255,5735658.399],[32540881.1072,5735682.8885],[32540921.8415,5735712.376],[32540952.5799,5735751.3599],[32540981.3191,5735791.8431],[32541006.0599,5735834.8255],[32541025.8028,5735881.3065],[32541040.2977,5735929.287],[32541062.04,5735991.2617],[32541077.5348,5736056.7351],[32541102.2755,5736087.7223],[32541137.262,5736112.212],[32541175.9969,5736130.2042],[32541216.9809,5736146.6969],[32541264.9619,5736151.1944],[32541313.9424,5736144.1965],[32541362.173,5736128.7021],[32541408.1545,5736110.2088],[32541482.3746,5736081.7192],[32541555.5951,5736051.2304],[32541628.8156,5736018.7424],[32541701.2863,5735984.2553],[32541762.2619,5735965.7618],[32541821.488,5735941.2708],[32541877.7152,5735909.2829],[32541929.9439,5735871.7972],[32541971.4268,5735829.3137],[32542006.6621,5735780.3328],[32542031.1516,5735725.3546],[32542045.3951,5735668.3773],[32542040.896,5735606.4023],[32542019.1537,5735546.4267],[32541985.6662,5735489.9499],[32541945.9312,5735439.4708],[32541883.2056,5735408.984],[32541812.2336,5735401.4881],[32541737.0136,5735408.9862],[32541666.042,5735425.4806],[32541583.0748,5735418.9844],[32541500.1076,5735412.4882],[32541418.14,5735404.4926],[32541336.1724,5735397.9965],[32541269.1986,5735373.5073],[32541213.47,5735323.0284],[32541167.9871,5735259.5546],[32541133.4998,5735192.5821],[32541086.0176,5735124.1103],[32541040.2847,5735054.639],[32540996.8009,5734984.168],[32540957.3155,5734912.1975],[32540875.8468,5734845.2257],[32540778.1349,5734803.7438],[32540671.1769,5734776.7563],[32540564.2191,5734756.7659]]],"crs":{"type":"EPSG","properties":{"code":4647}}},"properties":{"fl_nr":1688,"NRKART":57,"NRKARTTXT":"57","KLARTEXT":"Braunerden aus loesshaltigen Hangbildungen ueber Sand- oder Schluffsteinen; in Hangverebnungen und Leelagen mit maechtigeren Loessdecken Pseudogley-Parabraunerden; in Scheitelbereichen und Oberhanglagen oertlich Ranker","BULAND":null}}]}