{"type": "FeatureCollection","features":[{"type":"Feature","geometry":{"type":"Polygon","coordinates":[[[32546094.4284,5716612.9543],[32545993.1105,5727733.0586],[32545891.6555,5738853.4116],[32534400.4841,5738761.6261],[32530115.3234,5738737.1991],[32530111.0635,5738723.0423],[32530098.6787,5738674.1605],[32530092.8218,5738618.5971],[32530105.9277,5738576.8751],[32530131.1674,5738552.8844],[32530155.6574,5738537.3903],[32530182.3966,5738527.8937],[32530213.8841,5738523.8949],[32530246.1212,5738519.896],[32530275.1096,5738510.8992],[32530303.0982,5738497.4042],[32530332.8362,5738479.9109],[32530367.3223,5738465.916],[32530405.8069,5738459.4181],[32530446.5406,5738455.9189],[32530487.0245,5738448.9211],[32530699.1895,5738400.9374],[32530767.1622,5738380.9445],[32530820.6406,5738358.4527],[32530866.6219,5738331.9628],[32530901.3577,5738303.4737],[32530921.3494,5738274.985],[32530930.3453,5738242.4979],[32530930.3447,5738204.5133],[32530916.0998,5738165.5292],[32530881.6129,5738129.5442],[32530859.6113,5738114.933],[32530727.7241,5738028.9434],[32530727.1728,5738028.5872],[32530635.9581,5737969.1125],[32530564.2358,5737918.1341],[32530485.2662,5737854.6609],[32530408.7389,5737792.5071],[32530378.8072,5737768.1973],[32530276.8465,5737683.7328],[32530211.6215,5737626.7567],[32530180.3835,5737596.2695],[32530159.6413,5737571.7797],[32530149.8949,5737549.7887],[32530152.1437,5737527.7975],[32530167.3874,5737510.8041],[32530195.626,5737503.3068],[32530234.6105,5737501.307],[32530282.0916,5737499.3071],[32530313.5791,5737497.8073],[32530334.3207,5737488.8106],[32530341.5675,5737468.3188],[32530321.3252,5737442.8293],[32530290.5721,5737428.5578],[32530246.2753,5737411.1899],[32530220.1148,5737401.8473],[32530167.6353,5737380.3567],[32530117.4049,5737357.3667],[32530063.426,5737335.3764],[32529969.2129,5737300.8916],[32529897.4909,5737262.908],[32529833.5157,5737226.4236],[32529773.0392,5737188.4398],[32529729.711,5737148.6581],[32529718.0603,5737137.9609],[32529662.3314,5737069.9891],[32529568.1169,5736943.5414],[32529487.8972,5736841.0839],[32529356.197,5736671.1543],[32529227.4957,5736506.7224],[32529156.0228,5736421.2578],[32529129.2832,5736405.7644],[32529104.7928,5736399.2674],[32529081.0523,5736403.7659],[32529060.5607,5736417.2608],[32529039.0694,5736427.257],[32529012.8298,5736427.7572],[32528977.3437,5736412.7638],[32528929.1123,5736379.7777],[32528874.6334,5736337.7954],[32528824.6526,5736296.3128],[32528790.1658,5736264.826],[32528764.4257,5736239.8364],[32528705.6982,5736181.8606],[32528640.723,5736115.3883],[32528597.2395,5736065.4091],[32528586.7435,5736051.4148],[32528562.2527,5736017.9287],[32528535.0129,5735978.445],[32528515.7701,5735946.4581],[32528503.2747,5735919.4692],[32528490.2794,5735888.4818],[32528478.0338,5735858.9939],[32528468.2873,5735834.0041],[32528455.542,5735813.5125],[32528440.0479,5735795.0202],[32528418.8061,5735776.5279],[32528394.3156,5735760.0349],[32528366.3264,5735739.0438],[32528339.8366,5735715.5536],[32528320.5938,5735690.5639],[32528307.3486,5735660.0764],[32528296.1026,5735623.0915],[32528287.3555,5735586.1065],[32528280.8576,5735557.6181],[32528236.6227,5735390.1861],[32528225.8763,5735341.7058],[32528218.8784,5735296.724],[32528212.169,5735247.6675],[32528210.8807,5735238.2477],[32528203.3828,5735178.7717],[32528198.3841,5735132.2905],[32528196.0933,5735108.6223],[32528186.6372,5735026.8332],[32528176.1405,5734966.8575],[32528161.8954,5734915.8782],[32528145.9011,5734875.8945],[32528115.6622,5734809.4217],[32528100.1679,5734782.9326],[32528080.6754,5734765.4399],[32528058.434,5734748.9469],[32528029.6951,5734730.9545],[32527996.2082,5734712.4624],[32527961.7216,5734692.9707],[32527931.2334,5734673.479],[32527909.4918,5734654.9867],[32527904.4936,5734644.9908],[32527892.2481,5734620.5009],[32527878.5031,5734588.0141],[32527867.7569,5734554.5278],[32527859.2597,5734518.0426],[32527846.2642,5734474.5603],[32527824.7721,5734430.5783],[32527791.5347,5734391.5944],[32527754.7989,5734362.6066],[32527723.3111,5734342.6151],[32527693.3228,5734328.1213],[32527589.8633,5734288.1388],[32527555.3768,5734272.6455],[32527524.8887,5734255.153],[32527453.6662,5734205.6739],[32527413.9317,5734184.1831],[32527378.4457,5734173.188],[32527366.2004,5734161.6928],[32527346.2081,5734150.6974],[32527261.7413,5734122.2101],[32527087.5595,5734056.7388],[32527053.8227,5734042.245],[32527023.5844,5734021.7537],[32526999.0938,5733998.2635],[32526982.8499,5733973.7736],[32526972.6036,5733948.284],[32526965.3561,5733920.2953],[32526960.6075,5733890.3075],[32526958.6078,5733859.32],[32526960.6066,5733828.3324],[32526967.8533,5733797.8446],[32526990.3434,5733735.8692],[32527028.577,5733654.4015],[32527054.316,5733604.9211],[32526945.8059,5733690.5395],[32526881.3868,5733741.3685],[32526815.1638,5733787.8506],[32526775.9296,5733805.3441],[32526732.697,5733818.3395],[32526691.3504,5733827.8902],[32526691.3494,5733755.6671],[32526710.705,5733764.3615],[32526729.1976,5733764.861],[32526754.6873,5733754.8647],[32526783.4535,5733737.9822],[32526819.4111,5733716.8792],[32526872.3897,5733694.3875],[32526910.1244,5733674.395],[32526974.598,5733625.9137],[32527033.324,5733577.4324],[32527129.2844,5733480.4702],[32527079.5545,5733499.4632],[32527018.3292,5733530.4515],[32526922.1183,5733584.9309],[32526900.1272,5733594.9272],[32526880.8849,5733598.426],[32526863.6417,5733596.427],[32526847.1482,5733590.4297],[32526826.906,5733574.4364],[32526802.6652,5733546.448],[32526778.9241,5733513.9614],[32526761.1808,5733484.4735],[32526751.6841,5733456.9847],[32526747.4354,5733426.9968],[32526742.4364,5733363.5224],[32526741.9361,5733329.5361],[32526749.9082,5733269.2315],[32526755.6791,5733225.5778],[32526763.424,5733086.6336],[32526766.9222,5733058.6448],[32526775.6683,5733029.6563],[32526795.4096,5732975.6778],[32526801.9066,5732944.6902],[32526806.6541,5732905.7058],[32526808.9027,5732868.2209],[32526808.6524,5732842.2314],[32526802.1547,5732822.2395],[32526789.4094,5732800.2485],[32526763.4192,5732765.2629],[32526752.1734,5732745.2711],[32526750.1741,5732735.2752],[32526749.424,5732711.2848],[32526745.6753,5732696.2909],[32526730.4308,5732660.3056],[32526711.9377,5732630.8177],[32526701.9415,5732620.8219],[32526689.6963,5732611.8256],[32526615.725,5732564.3457],[32526584.9868,5732540.3558],[32526554.4985,5732512.3674],[32526498.27,5732452.8921],[32526475.7786,5732426.9029],[32526456.036,5732397.9148],[32526436.0434,5732360.4301],[32526408.8509,5732305.3867],[32526374.3161,5732235.4812],[32526334.8303,5732137.0213],[32526339.828,5732114.5303],[32526359.0694,5732048.5566],[32526371.8137,5732010.5717],[32526386.8073,5731977.085],[32526406.2991,5731947.5966],[32526431.2888,5731921.107],[32526461.2764,5731893.6177],[32526493.5132,5731867.6277],[32526525.5002,5731846.1359],[32526581.6421,5731811.4102],[32526660.4453,5731762.6678],[32526756.9062,5731708.6883],[32526811.8838,5731674.2015],[32526850.3681,5731641.714],[32526867.361,5731622.7215],[32526879.106,5731602.2296],[32526990.3108,5731528.7577],[32527034.5428,5731501.2682],[32527076.276,5731489.2725],[32527119.0087,5731467.7806],[32527167.7387,5731429.2955],[32527246.9561,5731350.3263],[32527273.9449,5731318.8386],[32527294.6862,5731288.3506],[32527312.6786,5731258.3624],[32527329.9213,5731227.8745],[32527344.9148,5731195.3874],[32527356.1598,5731159.4017],[32527362.9066,5731124.4157],[32527365.1553,5731094.9276],[32527361.9058,5731043.9481],[32527356.1578,5731018.4585],[32527344.1615,5730947.987],[32527345.16,5730874.0168],[32527343.6597,5730815.0405],[32527338.661,5730770.5585],[32527324.9159,5730727.576],[32527302.6738,5730668.1002],[32527277.1831,5730608.1247],[32527254.9413,5730563.1431],[32527199.4619,5730469.1816],[32527172.7217,5730410.7055],[32527158.9763,5730355.228],[32527155.9768,5730306.2478],[32527154.4763,5730229.2788],[32527125.7377,5730229.7789],[32527097.9988,5730233.2779],[32527068.7605,5730240.2754],[32527043.2708,5730251.2713],[32527023.7787,5730262.7669],[32527007.0356,5730275.7619],[32526981.8774,5730134.9889],[32527077.423,5730126.3018],[32527150.6887,5730122.5437],[32527210.8041,5730120.6644],[32527254.0121,5730120.6638],[32527285.7572,5730120.6634],[32527270.6783,5730113.8238],[32527245.9379,5730097.8305],[32527185.7112,5730048.851],[32527156.4725,5730030.8586],[32527126.984,5730016.8646],[32527117.7372,5729981.8788],[32527110.7395,5729950.3916],[32527105.991,5729919.9039],[32527104.2409,5729867.4251],[32527102.7378,5729622.0239],[32527098.9882,5729548.0537],[32527080.7422,5729328.1425],[32527171.2034,5729132.72],[32527190.1954,5729101.2325],[32527218.6834,5729060.7484],[32527250.6701,5729020.7641],[32527280.1579,5728990.7758],[32527335.9599,5728948.5408],[32527416.852,5728887.3158],[32527504.8152,5728761.8653],[32527534.8026,5728712.8846],[32527587.2802,5728611.4249],[32527612.5193,5728556.9465],[32527628.5124,5728514.4634],[32527681.4904,5728453.4873],[32527701.2321,5728425.4984],[32527716.1293,5728413.3466],[32527764.956,5728373.5185],[32527808.6873,5728288.5522],[32527841.4233,5728218.58],[32527862.1642,5728164.1017],[32527894.1496,5728034.1536],[32527901.646,5727995.6691],[32527928.1327,5727805.2454],[32527934.879,5727736.7729],[32527935.8778,5727681.7951],[32527931.6278,5727571.8397],[32527923.3801,5727501.8685],[32527913.3835,5727460.3857],[32527894.6404,5727416.9038],[32527863.1524,5727379.4196],[32527749.6938,5727112.0309],[32527670.2234,5726970.59],[32527654.7292,5726945.1007],[32527643.7332,5726918.1119],[32527629.3538,5726863.4404],[32527600.748,5726754.6796],[32527586.2534,5726727.1911],[32527572.0087,5726704.2007],[32527542.27,5726666.7164],[32527517.0295,5726628.2326],[32527508.7823,5726593.247],[32527506.0329,5726556.2623],[32527510.5305,5726513.2799],[32527520.2761,5726476.7948],[32527529.772,5726452.3048],[32527549.0138,5726412.321],[32527579.7505,5726337.3515],[32527594.9938,5726287.8716],[32527602.9899,5726236.8925],[32527577.7483,5726123.4394],[32527568.5016,5726098.4498],[32527537.0133,5726039.4744],[32527478.5366,5726039.4751],[32527461.5433,5726036.9763],[32527443.3005,5726030.979],[32527424.8077,5726021.9829],[32527408.0642,5726009.988],[32527389.8212,5725992.9952],[32527368.8293,5725969.505],[32527347.8372,5725942.0166],[32527329.844,5725912.0291],[32527319.3476,5725875.5442],[32527316.8481,5725836.0605],[32527319.8462,5725790.5791],[32527358.3302,5725734.6017],[32527381.0703,5725673.1268],[32527405.5593,5725583.1635],[32527438.794,5725439.2223],[32527459.0905,5725333.851],[32527465.722,5725299.4227],[32527471.7785,5725267.7924],[32527480.7743,5725220.8116],[32527489.0197,5725130.8486],[32527490.0182,5725048.8822],[32527480.7708,5724969.415],[32527478.0211,5724917.4364],[32527473.7722,5724873.4545],[32527466.2747,5724836.4698],[32527467.7733,5724779.993],[32527465.5235,5724732.0128],[32527457.5261,5724691.0297],[32527446.7799,5724654.5448],[32527430.0355,5724578.5762],[32527404.0451,5724527.0977],[32527390.3003,5724506.6062],[32527354.0641,5724461.6251],[32527254.8511,5724286.1982],[32527235.3582,5724240.7171],[32527214.3657,5724178.243],[32527182.1269,5724062.7908],[32527171.6303,5724012.8114],[32527157.1411,5723924.0337],[32527151.6365,5723883.3648],[32527147.7804,5723833.855],[32527145.6373,5723768.9119],[32527145.8865,5723717.9328],[32527147.3852,5723669.4528],[32527150.3879,5723620.2824],[32527158.1285,5723493.525],[32527160.1267,5723427.552],[32527157.8771,5723389.5677],[32527190.8607,5723390.0671],[32527190.864,5723390.0672],[32527223.8509,5723390.5666],[32527230.0981,5723367.576],[32527231.0973,5723344.0857],[32527228.3481,5723318.5962],[32527214.6025,5723240.1286],[32527205.6051,5723173.1562],[32527201.8558,5723117.1792],[32527200.3557,5723064.7008],[32527194.6993,5722988.552],[32527184.9298,5722878.5806],[32527182.1097,5722832.7963],[32527182.3593,5722808.8061],[32527187.6057,5722704.8488],[32527186.3559,5722685.3568],[32527180.1424,5722657.0416],[32527171.111,5722615.8855],[32527165.8629,5722600.3919],[32527138.3731,5722549.9129],[32527124.6282,5722518.9258],[32527111.3831,5722497.9346],[32527096.8889,5722493.9363],[32527080.6454,5722500.9336],[32527087.8917,5722443.9569],[32527100.1361,5722387.9798],[32527121.3768,5722328.0043],[32527198.5939,5722171.0681],[32527240.826,5722092.1002],[32527272.3127,5722038.1221],[32527300.0511,5722000.1375],[32527333.2874,5721960.6534],[32527366.0239,5721927.1669],[32527392.513,5721907.1749],[32527446.4911,5721877.1867],[32527472.2306,5721858.1943],[32527489.4735,5721838.7022],[32527509.9655,5721847.1985],[32527557.9467,5721866.69],[32527612.6752,5721889.6801],[32527653.6591,5721907.1726],[32527684.647,5721917.1682],[32527720.1329,5721923.6652],[32527755.6188,5721925.6641],[32527785.8568,5721924.6642],[32527822.842,5721921.1653],[32527873.072,5721916.6667],[32527924.8014,5721913.6675],[32527966.5348,5721915.1665],[32527977.3571,5721916.0559],[32528045.7533,5721919.1642],[32528095.9833,5721917.1645],[32528153.9602,5721911.6663],[32528223.9322,5721901.17],[32528378.1205,5721874.1797],[32528440.5955,5721865.1829],[32528497.0729,5721857.1857],[32528583.4408,5721841.1556],[32528607.7786,5721836.1934],[32528642.2648,5721830.1955],[32528677.5006,5721823.6979],[32528729.9797,5721817.2001],[32528787.2069,5721818.1992],[32528836.1877,5721835.6916],[32528866.1759,5721849.6855],[32528893.4152,5721859.6812],[32528918.6553,5721864.1791],[32528938.1891,5721864.6787],[32528939.1471,5721864.6787],[32528940.2036,5721864.7302],[32528957.7232,5721865.1783],[32528959.639,5721865.1783],[32528960.9674,5721865.2613],[32528967.6358,5721865.678],[32528989.1273,5721868.1768],[32529019.6152,5721874.1741],[32529054.3516,5721885.1692],[32529094.3359,5721903.1615],[32529138.3188,5721927.1512],[32529179.0529,5721952.6403],[32529190.6377,5721961.6818],[32529209.791,5721976.6302],[32529213.0398,5721980.6285],[32529221.0367,5721991.1241],[32529231.5328,5722008.117],[32529241.779,5722030.6077],[32529249.5263,5722055.5973],[32529256.0241,5722079.5873],[32529267.0203,5722126.5679],[32529284.5141,5722179.5459],[32529314.0026,5722197.0384],[32529346.9897,5722212.5317],[32529388.2235,5722226.5256],[32529395.9705,5722228.0249],[32529415.7127,5722231.5233],[32529441.7024,5722236.521],[32529468.6917,5722242.0185],[32529474.3294,5722243.2606],[32529554.9735,5722258.9341],[32529555.4075,5722259.0107],[32529565.6534,5722261.0098],[32529673.4634,5722287.8335],[32529684.6065,5722290.4965],[32529724.3408,5722300.4921],[32529859.0377,5722334.9766],[32529906.2691,5722344.4723],[32529943.7542,5722348.4703],[32529986.7372,5722350.9689],[32530064.956,5722351.4679],[32530124.6822,5722348.4686],[32530177.1613,5722341.471],[32530243.6346,5722328.4758],[32530276.3715,5722317.9798],[32530291.0488,5722311.2384],[32530310.3577,5722301.9861],[32530338.8462,5722288.9912],[32530362.3367,5722278.4953],[32530402.5515,5722261.8278],[32530466.0448,5722235.5121],[32530534.0174,5722207.0233],[32530601.99,5722178.5344],[32530703.449,5722136.0511],[32530766.9234,5722110.0612],[32530816.6533,5722090.5688],[32530890.8734,5722063.0795],[32530962.3446,5722036.5898],[32531004.8275,5722021.5956],[32531019.1746,5722018.7465],[32531047.3104,5722012.5991],[32531082.5463,5722005.6016],[32531108.2031,5722001.0198],[32531110.5351,5722000.6033],[32531126.9243,5721998.703],[32531156.5167,5721994.6054],[32531196.7507,5721990.6067],[32531232.9862,5721988.6072],[32531406.2855,5721992.0673],[32531409.1662,5721992.1042],[32531433.1567,5721992.6038],[32531460.146,5721996.6019],[32531486.1358,5722006.5975],[32531506.1281,5722024.0901],[32531522.1221,5722049.0796],[32531536.6166,5722074.569],[32531547.3627,5722095.0604],[32531551.3612,5722103.5568],[32531578.601,5722153.0361],[32531603.0919,5722192.5196],[32531626.333,5722221.0076],[32531656.5713,5722244.4976],[32531714.0605,5722283.7518],[32531747.7859,5722306.4712],[32531790.5193,5722335.9586],[32531853.245,5722382.4388],[32531945.2094,5722451.4094],[32532034.1749,5722517.8811],[32532088.7113,5722556.7002],[32532140.3836,5722586.3518],[32532168.1227,5722597.347],[32532198.3608,5722602.3447],[32532217.3536,5722629.3333],[32532240.0949,5722652.3236],[32532271.0828,5722671.8153],[32532419.7746,5722739.2859],[32532441.7659,5722744.2837],[32532533.2297,5722756.7776],[32532564.4674,5722763.2747],[32532693.1667,5722800.7579],[32532812.12,5722842.7394],[32532859.3513,5722849.2843],[32532912.3453,5722856.6277],[32532970.8072,5722864.7288],[32533030.5336,5722875.2239],[32533205.9643,5722911.2074],[32533256.1944,5722923.2019],[32533550.8284,5723004.6654],[32533701.7689,5723048.1459],[32533789.4844,5723070.6357],[32533876.6999,5723090.6266],[32533941.6742,5723101.6214],[32534053.8797,5723108.6175],[32534151.091,5723109.6161],[32534224.5617,5723104.6175],[32534298.7821,5723093.1215],[32534360.7572,5723077.6274],[32534385.7471,5723066.6317],[32534404.4894,5723052.1375],[32534421.2325,5723031.6459],[32534468.4628,5722967.1722],[32534491.6729,5722939.6203],[32534537.934,5722884.7054],[32534560.9244,5722852.7182],[32534579.6665,5722819.7315],[32534597.6589,5722782.7465],[32534623.8976,5722721.2715],[32534648.5054,5722658.1036],[32534655.6339,5722639.8047],[32534664.1296,5722575.831],[32534664.629,5722546.3432],[32534656.8808,5722458.8797],[32534655.9999,5722452.4056],[32534646.8838,5722385.4104],[32534636.6374,5722356.4226],[32534621.1431,5722323.4366],[32534603.8995,5722292.9496],[32534588.4053,5722270.9591],[32534520.1812,5722191.4934],[32534507.1861,5722173.5011],[32534471.6993,5722102.0311],[32534414.5833,5721973.6376],[32534342.7465,5721812.1525],[32534312.5609,5721721.4207],[32534301.0113,5721686.7049],[32534216.042,5721465.2975],[32534234.5335,5721386.8298],[32534243.5296,5721359.3412],[32534246.0271,5721256.8836],[32534243.5276,5721219.3992],[32534225.0328,5721070.4611],[32534222.5332,5721027.9788],[32534225.2808,5720934.5175],[32534229.2314,5720869.3972],[32534231.5269,5720831.5602],[32534231.7756,5720750.5937],[32534233.7744,5720716.108],[32534239.5216,5720686.1204],[32534248.7675,5720654.1336],[32534269.0086,5720594.6581],[32534283.7523,5720559.1727],[32534342.7271,5720441.7209],[32534380.211,5720358.755],[32534414.1971,5720327.2678],[32534450.1822,5720288.7835],[32534474.922,5720264.7933],[32534501.6611,5720241.3028],[32534527.9003,5720221.3109],[32534565.8849,5720197.32],[32534682.0879,5720130.845],[32534760.3845,5720100.6911],[32534916.9935,5720040.3774],[32535121.911,5719944.4126],[32535207.4465,5719908.0751],[32535283.0961,5719875.9374],[32535315.8329,5719863.9417],[32535492.0135,5719893.4255],[32535558.2375,5719906.9185],[32535694.2544,5719942.9003],[32535716.9251,5719948.8976],[32535772.4034,5719968.3883],[32535830.8806,5719992.8768],[32535883.1102,5720017.8653],[32535920.8456,5720039.3556],[32535954.0828,5720064.3445],[32536035.3016,5720133.814],[32536055.045,5720222.7767],[32536076.2886,5720365.2173],[32536073.0404,5720406.2004],[32536067.2932,5720442.1856],[32536060.3943,5720465.1826],[32536121.2589,5720575.8397],[32536183.2568,5720648.1669],[32536221.735,5720651.0958],[32536265.7177,5720662.0903],[32536378.1736,5720694.0746],[32536433.152,5720706.5683],[32536474.1358,5720713.5645],[32536521.3671,5720711.5643],[32536588.8402,5720702.5666],[32536675.0558,5720688.0707],[32536709.1575,5720680.6862],[32536762.7708,5720669.0766],[32536789.5101,5720667.5767],[32536803.5047,5720676.0729],[32536932.7035,5720677.5694],[32536975.4366,5720679.5677],[32537041.6604,5720686.0636],[32537077.8962,5720692.5601],[32537112.1327,5720702.5552],[32537141.1214,5720716.049],[32537164.8622,5720730.5425],[32537184.6046,5720746.5355],[32537201.3482,5720763.0283],[32537216.0926,5720781.0206],[32537242.8327,5720825.5016],[32537295.0634,5720925.959],[32537335.7982,5720993.4303],[32537360.289,5721027.9155],[32537423.0152,5721103.383],[32537448.2555,5721128.8719],[32537472.4962,5721147.8636],[32537502.2347,5721166.3553],[32537556.2137,5721194.3426],[32537582.9532,5721200.3395],[32537655.4245,5721208.3347],[32537794.1194,5721196.3367],[32537823.1078,5721187.8396],[32537890.0808,5721158.8501],[32537989.291,5721125.8616],[32538066.7599,5721097.3717],[32538121.4879,5721072.8806],[32538228.4446,5721007.4053],[32538290.4194,5720967.4204],[32538338.6498,5720932.9336],[32538406.872,5720877.9548],[32538442.1075,5720837.4707],[32538476.3433,5720794.9875],[32538525.5726,5720711.5208],[32538542.5654,5720677.0347],[32538566.0552,5720619.5578],[32538576.3008,5720590.0698],[32538583.2976,5720561.5814],[32538591.5443,5720561.5812],[32538612.536,5720561.5807],[32538639.0254,5720559.0812],[32538664.7652,5720554.0827],[32538684.5072,5720545.0859],[32538698.5015,5720533.0906],[32538707.7477,5720520.0957],[32538713.2453,5720505.1018],[32538723.4903,5720444.1267],[32538733.4858,5720402.1438],[32538749.7288,5720364.1591],[32538799.7079,5720288.689],[32538846.6884,5720226.7135],[32538867.9297,5720205.7217],[32539000.8755,5720099.7624],[32539022.6161,5720045.2843],[32539033.8613,5720022.7934],[32539046.1063,5720008.299],[32539058.6012,5720001.8014],[32539072.5956,5719999.3022],[32539111.0799,5719961.8167],[32539097.3353,5719962.8166],[32539084.5903,5719960.8177],[32539071.3455,5719954.3207],[32539060.3497,5719942.3259],[32539052.1028,5719927.832],[32539044.8554,5719910.3394],[32539032.8604,5719926.3331],[32538990.3778,5719971.3155],[32538943.3971,5720014.7987],[32538909.4109,5720042.7879],[32538846.6865,5720090.7695],[32538822.9461,5720105.7639],[32538775.9651,5720128.2557],[32538779.7135,5720124.2572],[32538785.9609,5720111.2624],[32538787.7099,5720090.271],[32538778.2132,5720061.2832],[32538764.2184,5720032.7952],[32538756.4711,5720010.8045],[32538754.4716,5719989.8132],[32538758.4697,5719966.3227],[32538765.7165,5719941.3329],[32538775.4623,5719919.8415],[32538790.4561,5719902.8482],[32538812.4472,5719891.3524],[32538870.1741,5719875.8575],[32538899.6623,5719864.8614],[32538927.1512,5719848.3676],[32538990.3731,5719795.6398],[32539006.6187,5719781.8932],[32539053.5995,5719742.9082],[32539093.3334,5719713.9192],[32539148.8155,5719678.3296],[32539184.7963,5719654.9414],[32539232.0271,5719624.9527],[32539265.2637,5719605.9598],[32539326.7389,5719576.4705],[32539357.4764,5719557.4776],[32539376.7186,5719538.9848],[32539431.6955,5719447.5212],[32539445.9396,5719434.0264],[32539469.1803,5719425.5294],[32539497.4191,5719422.53],[32539526.4076,5719426.5277],[32539563.3931,5719439.5215],[32539611.3744,5719460.5118],[32539660.1054,5719483.0014],[32539699.59,5719501.4929],[32539735.3261,5719514.9866],[32539775.5603,5719527.9803],[32539814.2951,5719540.9741],[32539845.0331,5719552.9685],[32539877.7704,5719571.4601],[32539919.5042,5719597.4485],[32539958.9889,5719622.9371],[32539966.9396,5719628.594],[32540002.4721,5719651.9242],[32540022.7142,5719658.9209],[32540044.7055,5719663.4185],[32540066.4469,5719664.4176],[32540091.1871,5719660.9185],[32540120.1755,5719653.9207],[32540149.6637,5719647.4227],[32540175.6534,5719645.9228],[32540196.1453,5719649.4209],[32540214.3881,5719653.9186],[32540234.3803,5719658.9161],[32540260.37,5719662.4141],[32540292.8572,5719663.4129],[32540326.094,5719661.9128],[32540355.8321,5719657.414],[32540378.3231,5719650.4164],[32540412.1343,5719629.2386],[32540421.8055,5719622.9267],[32540448.5446,5719606.4328],[32540477.5329,5719592.9377],[32540506.2714,5719582.9412],[32540537.2591,5719577.9425],[32540575.7438,5719578.4415],[32540627.4734,5719587.4366],[32540690.6986,5719602.9288],[32540754.4236,5719622.4194],[32540811.1514,5719643.9092],[32540853.385,5719664.3999],[32540882.3738,5719688.8892],[32540905.1152,5719719.3762],[32540921.1094,5719750.8629],[32540930.3561,5719777.8516],[32540935.1045,5719801.3418],[32540942.1021,5719822.8329],[32540957.0963,5719839.3258],[32540986.5848,5719848.3214],[32541071.5512,5719852.8176],[32541104.5381,5719852.8169],[32541117.7828,5719852.8166],[32541382.178,5719853.8103],[32541662.0673,5719871.7966],[32541790.5166,5719884.2886],[32541843.9955,5719887.2862],[32541872.2343,5719890.2843],[32541940.9572,5719900.7785],[32542026.6735,5719918.7692],[32542106.3923,5719945.2565],[32542125.8847,5719955.7518],[32542173.8661,5719983.2395],[32542234.0927,5720020.223],[32542290.321,5720061.2049],[32542338.3026,5720106.1854],[32542382.7857,5720157.6634],[32542420.7714,5720212.64],[32542449.0111,5720269.6161],[32542469.7537,5720327.5919],[32542482.1428,5720368.5271],[32542486.9976,5720384.5682],[32542499.7433,5720432.5483],[32542507.4906,5720464.535],[32542512.2391,5720488.5251],[32542518.7368,5720511.0157],[32542529.7327,5720523.5104],[32542548.2252,5720516.5128],[32542572.4654,5720497.0203],[32542595.7059,5720481.0263],[32542612.9489,5720470.0304],[32542619.9461,5720465.5321],[32542636.4395,5720462.0332],[32542648.6846,5720457.035],[32542662.6788,5720441.541],[32542674.674,5720439.0417],[32542691.1675,5720443.0397],[32542711.4097,5720454.5346],[32542737.3997,5720475.0256],[32542767.1382,5720500.0148],[32542791.6288,5720520.5058],[32542801.625,5720529.5019],[32542851.0818,5720560.2427],[32543016.0418,5720658.9443],[32543078.7675,5720698.4268],[32543134.7534,5720734.6509],[32543177.4793,5720761.8987],[32543239.7051,5720793.8842],[32543271.1928,5720807.378],[32543300.9311,5720816.8735],[32543330.9193,5720821.8708],[32543361.4072,5720819.8709],[32543392.3947,5720807.3754],[32543419.1338,5720785.8836],[32543440.1252,5720760.3935],[32543460.1168,5720731.9047],[32543483.857,5720701.4167],[32543506.0978,5720675.9266],[32543523.0908,5720657.9336],[32543542.333,5720643.439],[32543570.8214,5720626.4454],[32543676.5287,5720568.9665],[32543691.0228,5720556.9711],[32543703.5176,5720537.9786],[32543705.0166,5720512.9887],[32543686.5235,5720482.0018],[32543545.3276,5720346.5603],[32543511.3405,5720311.0755],[32543488.0994,5720284.5868],[32543465.8578,5720257.5984],[32543448.1145,5720233.6086],[32543438.618,5720214.1167],[32543437.868,5720195.6243],[32543439.3671,5720173.6333],[32543436.368,5720149.1433],[32543422.1233,5720125.1535],[32543398.8822,5720103.6628],[32543377.1405,5720086.6702],[32543360.1471,5720072.6763],[32543352.6499,5720060.1816],[32543354.399,5720047.1868],[32543361.396,5720034.192],[32543371.3919,5720021.6969],[32543382.3874,5720011.7007],[32543389.6344,5720000.705],[32543391.3835,5719987.2105],[32543386.4402,5719963.5367],[32543384.6357,5719957.7227],[32543381.8866,5719941.7293],[32543383.3858,5719924.7362],[32543389.1332,5719907.743],[32543398.8792,5719894.7481],[32543409.8747,5719886.7511],[32543432.3656,5719875.2553],[32543446.3599,5719861.7605],[32543453.357,5719852.2642],[32543470.35,5719830.7726],[32543490.8415,5719806.2822],[32543509.084,5719787.7893],[32543559.5633,5719742.8066],[32543630.0344,5719671.834],[32543719.4977,5719588.366],[32543734.4916,5719571.8724],[32543746.2367,5719554.8791],[32543759.24,5719531.1938],[32543764.7288,5719519.8929],[32543774.2248,5719503.8993],[32543787.9692,5719489.9047],[32543808.211,5719477.4093],[32543837.4492,5719464.9137],[32543867.6871,5719453.4177],[32543889.9281,5719442.9215],[32543906.6713,5719430.4262],[32543934.4098,5719396.4395],[32543950.6532,5719380.9454],[32543967.6463,5719369.9495],[32543982.8901,5719363.4518],[32543995.6351,5719361.9521],[32544006.6307,5719361.4521],[32544017.6263,5719358.4531],[32544030.3711,5719347.957],[32544049.8629,5719313.4707],[32544057.8594,5719293.9784],[32544068.1048,5719253.4947],[32544070.3536,5719233.5028],[32544070.1035,5719216.01],[32544067.8542,5719202.5155],[32544059.1069,5719150.0372],[32544046.8608,5719084.5642],[32544034.8646,5719019.591],[32544017.1203,5718923.6306],[32544007.1235,5718866.654],[32544005.6237,5718844.1633],[32544007.3727,5718823.1718],[32544011.6208,5718802.1803],[32544033.1112,5718729.7093],[32544037.8588,5718694.7235],[32544038.1081,5718649.7419],[32544034.109,5718600.2621],[32544028.6105,5718557.2798],[32544023.612,5718522.794],[32544021.6125,5718498.3041],[32544022.8615,5718461.8189],[32544026.3592,5718401.3435],[32544030.3567,5718336.8697],[32544033.6047,5718289.389],[32544037.3528,5718260.9006],[32544046.8482,5718195.4271],[32544058.3425,5718119.9576],[32544068.8376,5718063.4804],[32544080.0825,5718019.4981],[32544094.0762,5717969.0184],[32544109.5693,5717918.0388],[32544125.0626,5717873.5566],[32544141.5555,5717834.0723],[32544160.5474,5717794.588],[32544181.7884,5717756.1031],[32544204.5289,5717721.6167],[32544230.5182,5717690.1289],[32544260.5059,5717661.14],[32544290.7435,5717637.149],[32544317.9825,5717619.1557],[32544346.9708,5717606.6601],[32544381.7069,5717596.1636],[32544417.4426,5717587.1664],[32544450.1795,5717579.6686],[32544490.1635,5717570.1715],[32544544.3919,5717558.6749],[32544602.1188,5717546.1786],[32544654.098,5717533.1826],[32544707.0768,5717517.6877],[32544783.6177,5717493.2443],[32544820.7812,5717481.1998],[32544855.7672,5717470.2034],[32544889.7535,5717455.2087],[32544940.4829,5717426.2193],[32544995.4607,5717392.2318],[32545041.9418,5717360.2437],[32545063.8293,5717342.8491],[32545114.912,5717298.7669],[32545143.4003,5717268.2787],[32545162.1424,5717241.2892],[32545201.5083,5717159.9148],[32545277.0934,5716996.8859],[32545322.5741,5716904.9223],[32545370.5537,5716810.4595],[32545405.5389,5716746.4847],[32545442.6876,5716684.4059],[32545443.5229,5716683.0096],[32545451.0206,5716670.515],[32545458.5166,5716658.0194],[32545474.2851,5716633.529],[32545477.1488,5716621.0343],[32545482.6372,5716608.785],[32545482.995,5716608.0908],[32546094.4284,5716612.9543]]],"crs":{"type":"EPSG","properties":{"code":4647}}},"properties":{"FL_NR":2890,"BR":5,"BR_NAME":"BERGLAND","TKNR":4322,"TKNAME":"Höxter","UP_DATE":"2018-09-06T14:12:10.0000000"}}]}