{"type": "FeatureCollection","features":[{"type":"Feature","geometry":{"type":"Polygon","coordinates":[[[32538098.8172,5734813.2025],[32538098.3313,5734814.4812],[32538045.0733,5734770.1011],[32537944.6871,5734686.4489],[32537881.5084,5734610.6374],[32537869.5266,5734596.2598],[32537809.3986,5734528.6178],[32537771.8157,5734310.6588],[32537734.2352,5734265.5641],[32537689.1397,5734235.5014],[32537613.9794,5734175.3759],[32537591.4312,5734145.3128],[32537588.2864,5734117.0131],[32537583.9145,5734077.6704],[32537589.2652,5734034.8585],[32537591.4293,5734017.5434],[32537583.913,5733979.9642],[32537553.8487,5733927.3539],[32537463.3475,5733836.8556],[32537481.7179,5733832.6785],[32537449.4018,5733800.3636],[32537420.6248,5733771.5878],[32537614.1432,5733676.9301],[32537780.056,5733595.7754],[32537759.5636,5733561.2897],[32537739.0713,5733532.8015],[32537716.0801,5733509.8111],[32537679.5942,5733489.3199],[32537566.3883,5733438.3422],[32537562.9636,5733356.9834],[32537562.1385,5733337.383],[32537553.7546,5733265.232],[32537548.1422,5733216.9318],[32537540.8938,5733131.9662],[32537541.893,5733100.9787],[32537546.3907,5733068.4917],[32537552.8877,5733038.5037],[32537560.8842,5733015.0131],[32537575.1282,5732997.0201],[32537592.8709,5732978.5273],[32537617.111,5732958.535],[32537619.3859,5732956.9494],[32537633.6043,5732947.0394],[32537652.3467,5732936.5433],[32537672.8384,5732927.5466],[32537695.0795,5732920.0493],[32537744.8099,5732931.0441],[32537797.0395,5732949.5359],[32537858.2657,5732982.0218],[32537912.7447,5733019.0061],[32537952.2295,5733049.993],[32537981.7182,5733078.9809],[32538006.9586,5733107.469],[32538030.6997,5733139.4557],[32538051.442,5733173.4417],[32538068.9356,5733207.4277],[32538081.9309,5733238.9148],[32538092.1774,5733273.9006],[32538101.1744,5733315.8835],[32538112.9209,5733392.8523],[32538077.4355,5733428.3385],[32538044.449,5733456.8275],[32538059.4442,5733528.7982],[32538070.6907,5733593.7719],[32538077.6888,5733655.247],[32538078.6895,5733722.7197],[32538073.1941,5733889.1527],[32538021.0556,5733942.5467],[32538000.4741,5733963.6238],[32537912.2604,5734049.5904],[32537824.0467,5734135.557],[32537767.9145,5734150.951],[32537720.738,5734163.889],[32537718.339,5734164.5469],[32537721.0196,5734165.0439],[32537756.0742,5734171.5435],[32537801.0565,5734185.5372],[32537847.0386,5734204.5289],[32537888.0226,5734226.0196],[32537930.2563,5734255.0073],[32537977.988,5734292.4914],[32538021.2214,5734330.9753],[32538051.21,5734362.9619],[32538072.702,5734398.4473],[32538094.4441,5734447.4272],[32538112.9376,5734502.9046],[32538123.9341,5734558.8818],[32538126.1841,5734618.8576],[32538122.9364,5734684.8311],[32538115.6902,5734746.8062],[32538109.2719,5734778.5621],[32538106.1947,5734793.7874],[32538098.8172,5734813.2025]]],"crs":{"type":"EPSG","properties":{"code":4647}}},"properties":{"FL_NR":609665,"NFKWE":129,"NFKWE_STUFE":3}}]}