{"type": "FeatureCollection","features":[{"type":"Feature","geometry":{"type":"Polygon","coordinates":[[[32493805.6273,5900148.0808],[32493808.6063,5900151.3785],[32493823.4985,5900167.864],[32493842.9013,5900189.3428],[32493859.6974,5900210.3447],[32493877.0786,5900238.4408],[32493889.4783,5900265.9212],[32493894.826,5900282.9162],[32493898.1849,5900303.664],[32493900.8988,5900339.7398],[32493901.4025,5900358.6889],[32493902.7328,5900408.7391],[32493909.2589,5900453.4167],[32493915.0487,5900473.5511],[32493925.6591,5900498.4129],[32493937.4375,5900519.6207],[32493949.5044,5900536.652],[32493959.7883,5900547.3426],[32493976.5793,5900560.3053],[32493996.7861,5900573.4599],[32494011.3802,5900581.0265],[32494036.8239,5900594.2184],[32494060.1599,5900612.8848],[32494080.5396,5900635.0324],[32494092.7446,5900652.3851],[32494098.2853,5900666.1018],[32494100.9088,5900684.1794],[32494097.8928,5900707.9547],[32494092.513,5900722.0018],[32494086.1714,5900732.509],[32494080.0842,5900739.2712],[32494072.8305,5900744.0568],[32494064.0363,5900746.7737],[32494051.9667,5900748.0847],[32494033.8581,5900746.1647],[32494015.0989,5900737.2078],[32493990.662,5900719.537],[32493962.6175,5900694.4186],[32493957.1289,5900689.5027],[32493907.5575,5900596.8997],[32493884.8977,5900561.2897],[32493876.6191,5900552.4998],[32493866.8505,5900546.0981],[32493852.821,5900540.4506],[32493835.0015,5900536.4623],[32493796.0271,5900535.234],[32493775.0763,5900536.9205],[32493763.3008,5900539.8068],[32493737.2037,5900554.2866],[32493674.9579,5900600.7851],[32493657.7016,5900613.6758],[32493630.1244,5900631.3863],[32493613.04,5900637.5142],[32493592.407,5900641.6079],[32493577.3321,5900640.7122],[32493562.848,5900636.2],[32493555.1022,5900631.6261],[32493546.6996,5900623.3464],[32493524.0664,5900591.2946],[32493510.7135,5900567.8314],[32493502.0446,5900550.2253],[32493474.8563,5900495.0071],[32493462.2705,5900474.7865],[32493445.7662,5900453.4825],[32493418.7384,5900425.064],[32493378.4424,5900389.1198],[32493338.2847,5900357.4708],[32493301.2833,5900332.0778],[32493266.3599,5900314.5801],[32493210.4519,5900292.7858],[32492980.5407,5900215.6971],[32492872.0612,5900179.3241],[32492704.729,5900117.8109],[32492602.0732,5900068.8538],[32492608.8442,5900070.3716],[32492620.5807,5900073.0024],[32492632.4094,5900073.3172],[32492647.1428,5900069.775],[32492657.7253,5900064.3375],[32492707.8222,5900021.2594],[32492732.2527,5899995.9781],[32492759.957,5899967.309],[32492776.7566,5899954.6932],[32492792.5681,5899945.632],[32492809.0774,5899938.7732],[32492826.7812,5899934.9841],[32492844.9724,5899934.382],[32492862.8142,5899936.9387],[32492880.0114,5899943.077],[32492892.5265,5899951.03],[32492905.6548,5899963.9471],[32492914.8847,5899979.0769],[32492919.4457,5899993.4733],[32492923.2462,5900014.3529],[32492924.747,5900037.1501],[32492927.7862,5900083.3161],[32492931.4646,5900110.0123],[32492938.9001,5900132.9642],[32492951.7407,5900153.0394],[32492972.5363,5900170.5038],[32492985.781,5900177.6841],[32492999.9775,5900182.9263],[32493026.5212,5900186.8814],[32493081.1083,5900187.4487],[32493095.8724,5900185.5678],[32493107.0282,5900182.0083],[32493136.0548,5900166.1108],[32493177.4234,5900135.5692],[32493190.203,5900122.8844],[32493200.946,5900108.6614],[32493223.1977,5900073.0606],[32493252.6812,5900017.1925],[32493360.1689,5899796.013],[32493368.0339,5899779.8291],[32493371.0537,5899798.2128],[32493374.8815,5899809.629],[32493395.7591,5899839.1121],[32493418.773,5899858.0438],[32493453.1475,5899876.6684],[32493545.2118,5899913.3097],[32493590.9723,5899927.4784],[32493611.7934,5899930.3859],[32493638.8127,5899931.3501],[32493653.5741,5899928.3802],[32493669.6839,5899920.3832],[32493666.6464,5899927.7669],[32493661.8837,5899951.3343],[32493660.1067,5899966.1768],[32493660.493,5899978.1694],[32493665.1924,5900010.9914],[32493669.3792,5900028.4207],[32493683.8995,5900054.6243],[32493677.2204,5900049.5512],[32493660.9308,5900037.1786],[32493643.204,5900025.9356],[32493619.7129,5900012.4055],[32493600.717,5900003.6724],[32493560.2153,5899992.58],[32493518.7492,5899984.5448],[32493494.9088,5899981.9875],[32493477.1113,5899982.8572],[32493456.33,5899987.1812],[32493436.5012,5899994.1088],[32493420.4767,5900002.6109],[32493406.0626,5900013.5696],[32493391.7378,5900028.9642],[32493381.4631,5900044.001],[32493374.1004,5900060.2012],[32493370.3949,5900078.0809],[32493369.5456,5900096.081],[32493371.7908,5900114.2216],[32493376.8365,5900128.1064],[32493386.7215,5900143.4031],[32493399.0228,5900156.5868],[32493415.0893,5900170.3784],[32493432.7926,5900181.7456],[32493460.0463,5900194.1465],[32493488.5277,5900204.1682],[32493517.5966,5900211.2815],[32493550.1393,5900216.526],[32493592.0695,5900220.6623],[32493648.9971,5900223.7182],[32493750.9594,5900223.4787],[32493768.6329,5900220.112],[32493797.4537,5900211.0],[32493808.0419,5900205.6147],[32493814.6728,5900199.063],[32493817.4875,5900190.838],[32493817.3038,5900178.5492],[32493814.1635,5900167.0811],[32493808.6929,5900154.9044],[32493805.6273,5900148.0808]]],"crs":{"type":"EPSG","properties":{"code":4647}}},"properties":{"FL_NR":562250,"SWRKLASSE":5}}]}