{"type": "FeatureCollection","features":[{"type":"Feature","geometry":{"type":"Polygon","coordinates":[[[32494494.0707,5911015.8612],[32494468.3299,5910946.3892],[32494446.8375,5910875.4177],[32494437.3402,5910804.446],[32494445.8359,5910735.4733],[32494463.3281,5910679.4953],[32494483.5693,5910624.5169],[32494508.0588,5910571.5376],[32494536.2969,5910521.0572],[32494560.5366,5910478.074],[32494585.0263,5910436.0903],[32494611.2653,5910395.1062],[32494640.5031,5910356.6211],[32494684.9845,5910287.6478],[32494725.4674,5910217.1752],[32494758.953,5910142.2046],[32494782.4426,5910065.2348],[32494793.9369,5909992.2636],[32494803.4321,5909919.2925],[32494808.9289,5909846.3214],[32494811.4269,5909773.3504],[32494807.1773,5909684.3858],[32494804.6771,5909595.4212],[32494803.4263,5909505.9568],[32494801.9256,5909416.9921],[32494814.6692,5909319.0309],[32494816.4171,5909221.0698],[32494810.9179,5909122.1092],[32494806.6682,5909023.6484],[32494793.6713,5908874.7078],[32494769.6787,5908727.2667],[32494736.6898,5908580.8254],[32494697.7033,5908437.8828],[32494632.4772,5908298.939],[32494536.2638,5908177.4886],[32494419.0589,5908070.5329],[32494295.6066,5907975.5724],[32494417.5583,5907985.0668],[32494542.7585,5907984.0654],[32494663.7101,5907968.07],[32494779.1637,5907930.0834],[32494861.3803,5907878.6027],[32494934.8501,5907815.1268],[32495001.5726,5907742.6547],[32495062.0475,5907665.6844],[32495129.7691,5907563.2241],[32495182.4965,5907450.768],[32495216.2314,5907330.8152],[32495231.2237,5907209.8631],[32495224.2242,5907048.4273],[32495209.2279,5906888.4911],[32495184.4855,5906730.0544],[32495149.4972,5906573.6171],[32495081.522,5906410.1831],[32495020.7938,5906245.7493],[32494964.8137,5906077.8169],[32494914.0815,5905910.3842],[32494862.1,5905758.9451],[32494824.1129,5905602.5078],[32494804.1187,5905444.5709],[32494806.1156,5905286.1338],[32494837.6005,5905099.2077],[32494864.837,5904912.2815],[32494891.0739,5904724.3558],[32494915.3117,5904537.4298],[32494945.298,5904410.9796],[32494963.0391,5904281.031],[32494962.0376,5904150.5828],[32494932.7975,5904028.6317],[32494866.5723,5903916.6772],[32494805.345,5903802.2236],[32494748.1162,5903685.7707],[32494696.8849,5903568.3181],[32494630.9088,5903405.8836],[32494566.1823,5903242.9493],[32494501.2058,5903080.5148],[32494436.2294,5902918.0803],[32494339.5152,5902727.1576],[32494254.7961,5902531.2367],[32494183.3217,5902330.8174],[32494126.5914,5902125.8996],[32494077.3573,5901866.5034],[32494026.1241,5901609.1065],[32493973.8912,5901351.7095],[32493920.6588,5901093.8128],[32493910.9101,5900909.886],[32493887.1669,5900724.4601],[32493833.4358,5900552.0294],[32493737.222,5900406.0888],[32493628.0141,5900311.1281],[32493512.5588,5900221.1655],[32493389.8566,5900149.1959],[32493257.1588,5900108.2141],[32493142.2043,5900095.221],[32493027.2498,5900081.728],[32492913.5449,5900066.7356],[32492799.59,5900052.7428],[32492689.3838,5900052.2446],[32492581.4265,5900037.2522],[32492473.719,5900013.2633],[32492367.7608,5899984.7761],[32492240.3103,5899900.8113],[32492107.8619,5899824.3436],[32491969.1662,5899763.3699],[32491824.4732,5899724.3875],[32491711.5179,5899713.3935],[32491596.5637,5899716.8937],[32491485.3582,5899734.8882],[32491379.1509,5899770.8754],[32491288.6876,5899822.3563],[32491205.2218,5899888.8311],[32491138.7493,5899968.3004],[32491096.0176,5900060.2645],[32491073.2783,5900175.2192],[32491064.5334,5900293.1724],[32491063.5355,5900411.1256],[32491065.7863,5900530.0783],[32491063.5398,5900716.5042],[32491078.2865,5900903.4297],[32491111.0261,5901087.8559],[32491159.7593,5901268.2835],[32491243.9793,5901520.1822],[32491331.4481,5901772.0808],[32491418.6669,5902023.9795],[32491505.8858,5902276.8777],[32491599.851,5902459.3039],[32491687.5688,5902648.2275],[32491755.0447,5902842.1495],[32491790.7833,5903042.5693],[32491789.0357,5903163.5213],[32491780.041,5903285.4729],[32491756.3021,5903403.4264],[32491709.5722,5903511.884],[32491662.0918,5903564.8636],[32491606.8644,5903610.3464],[32491544.6397,5903647.8324],[32491479.416,5903674.3228],[32491403.1965,5903688.8181],[32491325.2275,5903683.3214],[32491247.5081,5903662.8307],[32491174.5367,5903633.3435],[32491072.0766,5903569.3704],[32490979.6122,5903490.4031],[32490899.1429,5903399.9402],[32490834.9171,5903299.4811],[32490773.6895,5903166.035],[32490727.7059,5903026.5911],[32490695.7166,5902882.1489],[32490674.7229,5902737.7066],[32490682.9668,5902540.7848],[32490684.2136,5902343.863],[32490678.7129,5902145.4419],[32490669.9637,5901949.0201],[32490666.2126,5901770.0913],[32490642.4695,5901590.6629],[32490599.7341,5901416.2328],[32490537.7564,5901248.8003],[32490451.7883,5901090.8643],[32490349.8268,5900941.4251],[32490228.6231,5900809.9791],[32490085.4287,5900710.0209],[32489948.7324,5900664.0411],[32489803.7897,5900642.052],[32489659.5972,5900650.0509],[32489526.4008,5900692.0361],[32489383.7088,5900783.002],[32489249.0139,5900889.9614],[32489134.0613,5901013.414],[32489051.0963,5901156.8582],[32488995.8707,5901328.2909],[32488937.6463,5901500.2234],[32488877.4226,5901670.6566],[32488815.1998,5901841.5895],[32488778.7156,5901934.0533],[32488737.9831,5902026.0174],[32488690.5032,5902113.4833],[32488633.7769,5902195.4515],[32488581.5482,5902232.9374],[32488515.3248,5902249.4318],[32488444.353,5902247.9334],[32488379.6285,5902230.4413],[32488316.1523,5902127.983],[32488259.9232,5902022.5257],[32488206.6929,5901916.0687],[32488154.4621,5901808.6122],[32488068.2443,5901660.6722],[32487991.2728,5901507.2343],[32487933.5435,5901347.2987],[32487906.5519,5901183.3643],[32487904.5505,5901029.9253],[32487905.548,5900877.9856],[32487908.7945,5900725.0464],[32487912.7908,5900572.6069],[32487943.2774,5900479.1436],[32487966.0169,5900382.1818],[32487971.7633,5900285.2202],[32487955.2685,5900191.7576],[32487903.7881,5900126.2844],[32487837.0637,5900064.8098],[32487770.3398,5900030.3245],[32487715.3619,5900049.8175],[32487657.636,5900126.7878],[32487602.1591,5900206.257],[32487548.6815,5900284.7266],[32487494.954,5900365.6952],[32487447.474,5900442.1655],[32487403.9924,5900523.1339],[32487361.5105,5900603.6026],[32487313.7805,5900681.5723],[32487263.551,5900717.0589],[32487196.5778,5900725.5565],[32487124.6062,5900714.0621],[32487059.6317,5900690.5724],[32486999.6555,5900685.0754],[32486940.9287,5900672.5812],[32486886.9498,5900649.0914],[32486844.2163,5900613.1063],[32486813.4778,5900561.6272],[32486788.9868,5900508.1488],[32486770.2434,5900452.1713],[32486757.7476,5900395.1941],[32486747.2507,5900318.7247],[32486741.7518,5900241.7553],[32486738.2521,5900165.7856],[32486735.752,5900089.8158],[32486728.5035,5899987.3566],[32486729.2517,5899885.3971],[32486736.7473,5899783.4375],[32486752.4896,5899683.477],[32486774.2295,5899580.5176],[32486799.9679,5899478.5578],[32486833.7031,5899381.096],[32486883.1821,5899291.1311],[32486922.6657,5899238.6514],[32486964.8982,5899188.6706],[32487007.3806,5899139.1897],[32487050.6127,5899089.2089],[32487115.8362,5899050.7232],[32487178.3107,5899006.24],[32487228.54,5898952.7605],[32487256.0282,5898887.786],[32487256.5271,5898824.811],[32487249.0292,5898762.8357],[32487233.2846,5898701.3604],[32487207.7939,5898646.3826],[32487165.06,5898580.9092],[32487121.5764,5898516.4355],[32487077.0932,5898452.9614],[32487032.3601,5898389.987],[32486960.8877,5898332.0111],[32486899.1613,5898264.5388],[32486846.681,5898188.07],[32486806.196,5898108.1024],[32486766.9601,5897998.6464],[32486733.7217,5897887.1912],[32486711.479,5897774.7362],[32486709.2283,5897661.7811],[32486719.9726,5897565.8191],[32486733.7158,5897470.8567],[32486748.2087,5897375.8942],[32486763.9511,5897280.9317],[32486805.4335,5897201.4627],[32486836.17,5897114.4968],[32486849.6634,5897025.532],[32486843.4147,5896938.5666],[32486808.9271,5896850.1023],[32486760.4453,5896768.6354],[32486698.9687,5896695.1654],[32486630.2451,5896631.6917],[32486529.7842,5896573.7162],[32486417.0785,5896535.7329],[32486304.1229,5896500.2486],[32486200.4134,5896448.2708],[32486080.2098,5896353.3103],[32485969.7522,5896246.3544],[32485867.5412,5896131.4016],[32485772.3274,5896011.9504],[32485782.0722,5895922.9856],[32485786.5692,5895834.0209],[32485785.3184,5895744.5565],[32485775.821,5895656.5916],[32485762.3253,5895583.6208],[32485738.8336,5895512.1496],[32485708.3448,5895443.1774],[32485677.606,5895375.7047],[32485627.3744,5895260.2513],[32485567.1467,5895149.7961],[32485496.9232,5895046.3382],[32485414.4546,5894953.3763],[32485297.2499,5894860.415],[32485183.7937,5894764.4548],[32485072.3366,5894665.4957],[32484961.1294,5894566.5367],[32484790.9451,5894431.5928],[32484628.0078,5894287.1525],[32484476.8156,5894131.7165],[32484344.1159,5893962.7855],[32484227.1598,5893786.8571],[32484117.4508,5893605.9306],[32484014.739,5893422.0052],[32483919.0243,5893234.0812],[32483814.3128,5893019.1681],[32483712.85,5892802.2558],[32483614.3859,5892585.3434],[32483521.6696,5892365.4321],[32483710.8463,5892493.8784],[32483899.0234,5892626.323],[32484081.203,5892766.7646],[32484253.1369,5892919.2015],[32484359.3462,5893025.1579],[32484463.8063,5893135.1127],[32484562.0189,5893249.066],[32484655.2336,5893368.5172],[32484734.4537,5893477.4727],[32484812.6742,5893587.9277],[32484886.8964,5893700.8817],[32484956.1205,5893817.3345],[32485041.5881,5893920.7921],[32485130.8041,5894022.7503],[32485223.2687,5894120.2102],[32485320.4815,5894215.1711],[32485442.685,5894359.1121],[32485576.6337,5894495.556],[32485722.8273,5894613.507],[32485887.2632,5894703.9686],[32486049.9493,5894758.9444],[32486216.8835,5894801.4251],[32486383.5679,5894844.4056],[32486546.254,5894901.8804],[32486687.6986,5894960.8549],[32486828.3936,5895022.8282],[32486968.089,5895089.2998],[32487103.5362,5895162.2688],[32487240.9827,5895244.2342],[32487374.4309,5895332.1973],[32487505.88,5895425.1584],[32487633.0808,5895523.1177],[32487752.7843,5895601.0849],[32487872.2379,5895679.0522],[32487991.6915,5895756.0199],[32488113.1443,5895832.9875],[32488241.8441,5895900.9586],[32488377.291,5895955.9348],[32488516.2364,5896001.4147],[32488657.9307,5896042.3963],[32488539.7299,5896202.3345],[32488435.5238,5896373.7679],[32488346.3118,5896553.1979],[32488270.0947,5896738.1255],[32488202.6244,5896943.5449],[32488152.1474,5897155.4614],[32488116.6646,5897370.3765],[32488096.1758,5897587.2906],[32488088.4324,5897835.1922],[32488099.6814,5898084.5929],[32488124.1752,5898332.9938],[32488162.4134,5898579.3954],[32488212.6471,5898837.7919],[32488274.876,5899094.6889],[32488347.1008,5899349.0868],[32488431.5708,5899599.9859],[32488526.2857,5899781.9122],[32488652.238,5899948.844],[32488803.18,5900094.284],[32488971.3648,5900215.2336],[32489111.0601,5900275.7075],[32489262.7502,5900309.6918],[32489418.9382,5900313.688],[32489568.1284,5900284.6974],[32489753.5537,5900214.2227],[32489928.2329,5900117.7585],[32490093.1656,5900001.8022],[32490246.103,5899872.8513],[32490365.3032,5899704.4165],[32490448.5174,5899512.9913],[32490502.9929,5899307.0724],[32490533.4778,5899100.1542],[32490557.7156,5898919.2257],[32490574.9562,5898738.2974],[32490579.202,5898556.3696],[32490566.4545,5898375.9415],[32490568.7012,5898204.0098],[32490571.6976,5898032.0781],[32490573.9443,5897860.6462],[32490574.1918,5897689.7141],[32490550.4483,5897483.2965],[32490498.966,5897280.8777],[32490428.2413,5897080.9581],[32490352.5186,5896886.5365],[32490579.4308,5897056.4657],[32490811.3409,5897221.3968],[32491046.2497,5897380.8301],[32491287.4059,5897532.7662],[32491450.8423,5897628.2259],[32491618.2769,5897716.6883],[32491791.709,5897793.6552],[32491970.3889,5897857.1274],[32492116.0814,5897893.111],[32492266.0221,5897913.6007],[32492416.9621,5897916.5973],[32492567.1522,5897901.6011],[32492664.3631,5897876.6096],[32492758.5751,5897838.1236],[32492844.0404,5897784.6436],[32492912.5122,5897715.1702],[32492951.9954,5897637.2006],[32492972.7359,5897550.2349],[32492977.2328,5897459.2709],[32492966.7358,5897372.3057],[32492934.4974,5897287.8397],[32492889.0144,5897209.8713],[32492831.5363,5897138.9004],[32492766.8111,5897077.4257],[32492700.0871,5897036.9428],[32492628.3652,5897007.4556],[32492551.3956,5896989.9636],[32492475.4257,5896985.4665],[32492638.8597,5896908.4947],[32492799.5446,5896823.5262],[32492951.2329,5896725.5629],[32493089.1764,5896610.6066],[32493206.8778,5896486.6542],[32493319.8311,5896358.2036],[32493433.784,5896230.2528],[32493551.7353,5896106.8001],[32493697.6752,5895960.856],[32493844.6147,5895814.9119],[32493992.8038,5895670.9669],[32494142.7421,5895529.0212],[32494328.6664,5895403.0685],[32494541.3307,5895322.5974],[32494768.7395,5895270.115],[32494996.8983,5895233.1263],[32495146.0886,5895209.1337],[32495297.2782,5895192.1383],[32495447.4685,5895191.1365],[32495595.1601,5895213.6254],[32495753.8477,5895270.6004],[32495902.29,5895359.0631],[32496038.7372,5895468.0178],[32496162.9395,5895587.9683],[32496294.6399,5895785.8877],[32496389.1055,5896008.7977],[32496457.3317,5896244.703],[32496509.8141,5896482.1079],[32496545.5525,5896667.5336],[32496572.2945,5896855.9584],[32496585.0421,5897043.8835],[32496578.7973,5897233.3083],[32496554.5594,5897412.2375],[32496516.3271,5897588.668],[32496462.1011,5897762.5996],[32496393.8806,5897930.0341],[32496352.1487,5898037.9918],[32496308.4176,5898144.9499],[32496258.6889,5898249.4091],[32496198.964,5898346.8713],[32496191.2187,5898460.8261],[32496216.4603,5898576.2798],[32496262.6935,5898688.7345],[32496320.9218,5898793.1921],[32496398.3924,5898895.1504],[32496488.6078,5898987.6124],[32496590.0686,5899069.5783],[32496698.7764,5899140.5485],[32496774.2473,5899208.0206],[32496849.7182,5899275.4927],[32496925.4391,5899342.9647],[32497001.9096,5899410.9366],[32497111.3671,5899484.4058],[32497235.0687,5899538.3825],[32497364.7677,5899580.3639],[32497495.7162,5899619.3465],[32497629.4134,5899647.3334],[32497766.3591,5899663.8249],[32497903.3047,5899667.8213],[32498041.4997,5899663.8208],[32497981.0246,5899726.2969],[32497925.5477,5899793.7709],[32497876.0683,5899864.7434],[32497835.5855,5899941.2136],[32497799.8508,5900021.1823],[32497768.3645,5900103.1502],[32497740.8766,5900185.6179],[32497717.1373,5900270.5844],[32497693.6479,5900361.5486],[32497671.9078,5900453.5124],[32497653.4165,5900545.4761],[32497637.674,5900638.4394],[32497534.4656,5900673.427],[32497429.2578,5900702.9168],[32497323.0504,5900727.9085],[32497216.843,5900748.4019],[32497130.6275,5900764.3968],[32497042.6625,5900767.8967],[32496955.6969,5900757.4021],[32496873.7292,5900731.9135],[32496799.2578,5900660.9428],[32496718.7889,5900597.4692],[32496633.0722,5900539.9933],[32496545.3563,5900487.0156],[32496450.8931,5900430.5394],[32496348.1833,5900382.56],[32496243.2247,5900357.5715],[32496140.2658,5900368.0688],[32496059.7984,5900412.5523],[32495987.3281,5900471.0301],[32495926.8531,5900539.5038],[32495883.3715,5900619.4727],[32495875.6261,5900729.4291],[32495860.8835,5900839.3856],[32495837.1445,5900947.343],[32495802.4098,5901050.8024],[32495760.9274,5901130.7713],[32495714.197,5901207.2416],[32495662.7186,5901281.2129],[32495609.2408,5901353.6849],[32495515.0289,5901392.171],[32495417.5683,5901442.1525],[32495349.0964,5901503.6291],[32495339.6013,5901579.599],[32495367.0914,5901653.0694],[32495394.5815,5901726.5398],[32495422.0716,5901799.5104],[32495450.8112,5901873.9804],[32495505.0409,5901964.4437],[32495548.525,5902061.9043],[32495579.764,5902163.8633],[32495599.0078,5902269.3211],[32495526.5378,5902351.7894],[32495465.8133,5902451.2508],[32495438.0758,5902551.2115],[32495468.5649,5902636.6771],[32495556.781,5902725.1406],[32495644.2475,5902816.1032],[32495732.7136,5902905.5663],[32495821.1797,5902996.5289],[32495892.652,5903048.0074],[32495960.3759,5903107.4828],[32496017.854,5903174.9551],[32496059.3386,5903252.4237],[32496052.8422,5903328.3936],[32496055.3423,5903405.363],[32496065.8392,5903481.3326],[32496082.3337,5903557.802],[32496104.8258,5903633.7715],[32496140.3128,5903707.2418],[32496185.7956,5903772.7151],[32496244.523,5903827.1926],[32496316.2449,5903858.679],[32496396.2133,5903873.1721],[32496476.1815,5903868.6727],[32496549.402,5903842.1821],[32496605.1284,5903745.7197],[32496670.851,5903654.255],[32496746.3198,5903571.7867],[32496832.7845,5903502.313],[32496915.251,5903454.8307],[32497005.4646,5903416.3447],[32497097.6776,5903396.3513],[32497189.6412,5903404.8465],[32497279.3559,5903437.3323],[32497368.3211,5903476.3155],[32497456.0368,5903517.7977],[32497543.7525,5903560.7794],[32497620.2231,5903634.249],[32497705.6901,5903699.7218],[32497798.404,5903753.6989],[32497898.1149,5903793.1818],[32498012.0699,5903821.169],[32498130.0232,5903836.1613],[32498248.976,5903843.1567],[32498367.9288,5903849.1526],[32498547.107,5903810.1655],[32498729.534,5903781.6741],[32498912.4611,5903771.6754],[32499092.3899,5903793.1642],[32499194.3498,5903828.1488],[32499295.0604,5903875.6284],[32499378.5281,5903940.6013],[32499434.0073,5904026.0666],[32499449.2525,5904119.0294],[32499447.7545,5904214.9913],[32499435.0109,5904310.9533],[32499417.2693,5904406.9154],[32499385.284,5904546.8603],[32499337.305,5904684.8062],[32499269.5837,5904812.2565],[32499182.6199,5904925.7127],[32499063.9186,5905027.674],[32498937.2203,5905122.1383],[32498805.7738,5905208.1061],[32498671.0785,5905289.0759],[32498535.6336,5905374.0441],[32498387.9434,5905455.0141],[32498241.5022,5905495.0004],[32498109.8041,5905461.0158],[32498066.5699,5905359.5568],[32498008.0918,5905265.0952],[32497941.617,5905175.6317],[32497872.3933,5905090.1667],[32497780.1784,5904975.2137],[32497672.7197,5904871.2566],[32497551.2669,5904795.2886],[32497417.3198,5904767.3017],[32497285.1228,5904800.2906],[32497156.6746,5904851.772],[32497040.222,5904922.7455],[32496944.5113,5905016.2098],[32496886.7858,5905125.6671],[32496852.0514,5905246.6195],[32496836.0595,5905372.5697],[32496838.3104,5905498.5196],[32496863.3027,5905655.9567],[32496922.0315,5905811.3941],[32497013.2471,5905943.3403],[32497137.6989,5906035.3019],[32497347.3663,5906088.7776],[32497556.0341,5906146.2517],[32497761.4534,5906215.2212],[32497961.1251,5906298.6851],[32498107.5679,5906372.6536],[32498253.0112,5906450.6204],[32498397.7048,5906530.0867],[32498543.1481,5906610.0528],[32498654.3552,5906709.0118],[32498777.8074,5906796.9751],[32498910.2557,5906870.9437],[32499047.9519,5906932.9171],[32499216.6355,5906987.3929],[32499391.3166,5907027.8743],[32499568.2467,5907056.8601],[32499746.1762,5907080.3482],[32499931.6016,5907015.871],[32500128.023,5906981.8817],[32500326.9439,5906980.3795],[32500521.8669,5907011.8642],[32500748.278,5907087.8308],[32500973.6897,5907180.7906],[32501171.8626,5907304.2387],[32501317.8071,5907478.1675],[32501385.5327,5907653.097],[32501457.5065,5907826.5271],[32501534.2285,5907998.4576],[32501616.1983,5908167.8891],[32501710.1632,5908327.8242],[32501801.1294,5908490.7582],[32501889.8464,5908655.1916],[32501977.8138,5908820.1248],[32502070.029,5908953.0706],[32502148.0001,5909097.5121],[32502203.98,5909248.9511],[32502226.9731,5909407.3878],[32502216.7293,5909557.3284],[32502196.7394,5909710.2679],[32502152.7589,5909851.2125],[32502068.0442,5909964.6687],[32501970.584,5910038.1409],[32501873.8735,5910113.1125],[32501778.4125,5910189.5835],[32501683.9511,5910266.0544],[32501531.0137,5910388.0082],[32501379.0758,5910512.9607],[32501229.1372,5910639.9124],[32501081.1978,5910767.8637],[32500918.015,5910927.8025],[32500773.8248,5911106.7334],[32500640.6304,5911294.6607],[32500514.1834,5911487.086],[32500437.7108,5911277.1705],[32500345.9944,5911073.2529],[32500239.284,5910878.3318],[32500115.5806,5910694.4067],[32499989.6285,5910541.4693],[32499848.4326,5910401.5269],[32499692.243,5910279.0779],[32499523.8086,5910179.6199],[32499367.3699,5910118.6464],[32499200.4359,5910085.1622],[32499030.5033,5910077.1679],[32498863.3201,5910095.663],[32498756.8634,5910165.1369],[32498678.1462,5910274.5946],[32498627.1684,5910405.0435],[32498604.1794,5910537.991],[32498598.1837,5910676.4361],[32498607.432,5910816.3803],[32498633.4237,5910953.8253],[32498675.4088,5911086.2721],[32498708.6476,5911226.216],[32498742.6361,5911367.6593],[32498780.623,5911507.1033],[32498822.6082,5911646.5473],[32498827.8578,5911765.5],[32498812.1158,5911886.4521],[32498776.1318,5912004.4058],[32498728.4024,5912116.362],[32498665.6791,5912245.8115],[32498595.7087,5912371.2627],[32498516.7418,5912491.7159],[32498431.0276,5912608.1709],[32498365.3054,5912724.6256],[32498299.3333,5912841.5801],[32498234.6106,5912958.0348],[32498171.8873,5913076.4886],[32498115.9115,5913214.4346],[32498078.9282,5913360.3772],[32498055.6896,5913509.8181],[32498038.6985,5913660.2586],[32498014.9616,5913919.1561],[32498004.2196,5914179.053],[32498000.4747,5914440.4492],[32498002.7275,5914701.3454],[32497942.2504,5914617.8795],[32497882.7729,5914534.4135],[32497823.2954,5914450.9476],[32497764.8174,5914368.4812],[32497706.5892,5914270.0212],[32497643.1131,5914175.5596],[32497574.639,5914084.097],[32497501.4169,5913997.1326],[32497424.9462,5913918.6649],[32497345.2269,5913845.1953],[32497261.7591,5913776.2239],[32497174.0431,5913713.75],[32497093.325,5913702.2557],[32497014.3561,5913676.2672],[32496939.6352,5913638.7832],[32496869.9124,5913596.3011],[32496779.4473,5913525.3306],[32496696.979,5913444.8638],[32496622.5074,5913356.4001],[32496556.0325,5913262.9382],[32496536.0386,5913132.4903],[32496496.8024,5913007.0407],[32496440.5731,5912886.5894],[32496370.3494,5912777.1339],[32496253.3939,5912634.1924],[32496132.1901,5912494.2498],[32496008.2375,5912357.8058],[32495880.0366,5912225.8601],[32495760.8323,5912107.9088],[32495635.6306,5911996.9547],[32495507.1801,5911890.9987],[32495375.9809,5911788.0415],[32495227.5385,5911688.5832],[32495071.0995,5911600.6204],[32494915.66,5911512.1578],[32494769.2169,5911413.1993],[32494677.7521,5911330.2336],[32494599.5318,5911234.7727],[32494536.3055,5911129.3155],[32494494.0707,5911015.8612]],[[32495217.3161,5895626.9666],[32495085.1189,5895639.9634],[32494953.9215,5895665.9549],[32494826.7225,5895700.9429],[32494691.2772,5895757.9222],[32494562.8293,5895832.3945],[32494441.1289,5895918.3621],[32494328.4251,5896013.326],[32494232.7145,5896108.7894],[32494147.0001,5896212.2496],[32494070.2821,5896323.7064],[32494006.5592,5896442.66],[32493932.8398,5896534.1247],[32493859.1204,5896625.5895],[32493784.6513,5896717.0542],[32493709.9323,5896808.5189],[32493638.4616,5896873.994],[32493556.9948,5896929.4731],[32493468.7805,5896972.9571],[32493377.5673,5897007.9445],[32493332.8361,5897081.9158],[32493312.3455,5897168.8815],[32493310.5975,5897260.845],[32493323.0938,5897350.809],[32493368.5767,5897423.2796],[32493436.3006,5897480.7557],[32493516.0195,5897525.7367],[32493600.7362,5897557.223],[32493686.2036,5897652.6838],[32493769.4219,5897750.6436],[32493849.8913,5897851.1025],[32493927.112,5897955.0601],[32494027.5734,5898046.5223],[32494137.031,5898129.4877],[32494250.487,5898206.4555],[32494368.9408,5898277.4256],[32494551.619,5898331.9013],[32494747.791,5898338.3958],[32494947.9611,5898316.9014],[32495144.1326,5898284.9113],[32495240.344,5898257.9206],[32495335.5556,5898218.4349],[32495415.0232,5898162.9558],[32495463.5028,5898085.4859],[32495570.4588,5897979.0266],[32495675.1656,5897871.068],[32495777.8732,5897759.6108],[32495875.5827,5897645.1549],[32495933.3086,5897564.686],[32495988.7854,5897482.7178],[32496042.5129,5897400.2498],[32496094.9909,5897316.7822],[32496129.4763,5897256.8055],[32496158.9637,5897193.8301],[32496182.2035,5897129.3554],[32496198.696,5897063.3814],[32496193.4467,5896963.921],[32496153.9611,5896869.9589],[32496097.7322,5896777.9963],[32496037.255,5896692.5311],[32495981.5264,5896635.0548],[32495918.0509,5896585.5754],[32495847.0786,5896548.0913],[32495772.358,5896524.6017],[32495729.8736,5896434.1383],[32495710.6299,5896335.1779],[32495706.3801,5896230.7195],[32495713.126,5896129.7595],[32495700.6298,5896043.7939],[32495688.1336,5895957.8282],[32495676.8868,5895871.3628],[32495665.3902,5895786.3967],[32495624.9053,5895714.9257],[32495544.1868,5895670.4446],[32495445.2258,5895644.4563],[32495349.2637,5895630.9631],[32495217.3161,5895626.9666]]],"crs":{"type":"EPSG","properties":{"code":4647}}},"properties":{"fl_nr":283,"NRKART":14,"NRKARTTXT":"14","KLARTEXT":"Niedermoore aus Schilf-Seggentorfen; vergesellschaftet mit Gleyen aus Talsanden und selten mit Tiefumbruchboeden aus Niedermoortorfen und Talsanden","BULAND":null}}]}