{"type": "FeatureCollection","features":[{"type":"Feature","geometry":{"type":"Polygon","coordinates":[[[32493394.294,5900175.795],[32493388.936,5900195.035],[32493391.112,5900195.791],[32493381.523,5900228.013],[32493377.083,5900244.264],[32493374.953,5900248.248],[32493371.294,5900249.649],[32493372.252,5900252.128],[32493363.469,5900280.942],[32493313.578,5900257.519],[32493270.04,5900350.699],[32493198.87,5900308.254],[32493193.47,5900305.113],[32493174.209,5900293.911],[32493164.459,5900289.542],[32493160.69,5900286.34],[32493150.001,5900281.693],[32493141.273,5900278.486],[32493133.689,5900274.421],[32493112.044,5900259.553],[32493115.118,5900250.404],[32493123.952,5900230.856],[32493127.988,5900217.333],[32493137.041,5900205.581],[32493155.766,5900175.238],[32493170.242,5900160.51],[32493188.093,5900130.928],[32493192.311,5900126.817],[32493202.934,5900109.411],[32493213.574,5900092.913],[32493217.208,5900088.017],[32493232.809,5900076.473],[32493236.279,5900073.691],[32493239.218,5900067.061],[32493247.987,5900058.494],[32493254.054,5900053.694],[32493254.134,5900051.991],[32493270.766,5900064.982],[32493280.652,5900061.161],[32493300.187,5900038.072],[32493306.092,5900014.831],[32493333.086,5900005.297],[32493349.325,5900011.804],[32493353.404,5900017.793],[32493377.401,5900008.173],[32493374.059,5899996.978],[32493380.923,5899988.625],[32493389.644,5899988.795],[32493404.014,5899994.97],[32493350.312,5900150.381],[32493358.327,5900151.679],[32493370.887,5900156.012],[32493388.46,5900161.889],[32493391.822,5900164.783],[32493401.318,5900161.451],[32493394.294,5900175.795]]],"crs":{"type":"EPSG","properties":{"code":4647}}},"properties":{"FL_NR":3405390,"OGR_FID":360497,"SDE_ID":1839681,"OST":32493166.453,"NORD":5900289.931,"RECHTS":3493234.756,"HOCH":5902210.288,"TK25":2719,"BULAND":null,"KLASSENZEICHEN":"MoII-","KLASSENZEICHEN_KLARTEXT":"Moor/mittlere bis  hohe Leistungsfähigkeit/-","KLASSENZEICHEN_SEP":"Mo;II;-","AREA":55664.625,"UP_DATE":"2023-06-15T15:30:35.0000000","FL_PRONUM":642412,"XMIN":32493112,"XMAX":32493404,"YMIN":5899988,"YMAX":5900350,"BODENZ":37,"ACKERZ":"37"}}]}