{"type": "FeatureCollection","features":[{"type":"Feature","geometry":{"type":"MultiPolygon","coordinates":[[[[32494770.1263,5905025.7378],[32494771.1262,5905048.7287],[32494781.4355,5905074.6104],[32494779.76,5905075.52],[32494756.17,5905036.94],[32494750.72,5905031.18],[32494755.61,5905026.94],[32494776.1767,5905010.5248],[32494770.1263,5905025.7378]]],[[[32494386.73,5905373.21],[32494386.69,5905376.12],[32494385.19,5905380.25],[32494381.51,5905384.18],[32494371.56,5905390.49],[32494366.48,5905391.37],[32494362.36,5905389.08],[32494351.94,5905374.42],[32494379.31,5905353.72],[32494382.9,5905349.06],[32494386.08,5905346.34],[32494389.51,5905345.67],[32494394.46,5905348.16],[32494405.07,5905363.39],[32494405.66,5905366.41],[32494404.45,5905368.34],[32494401.24,5905370.44],[32494396.89,5905370.94],[32494392.99,5905370.04],[32494386.73,5905373.21]]],[[[32493077.397,5902505.737],[32493077.911,5902509.934],[32493090.246,5902515.588],[32493091.359,5902523.383],[32493097.29,5902523.68],[32493104.47,5902530.48],[32493110.033,5902531.606],[32493120.905,5902538.092],[32493169.86,5902572.33],[32493174.14,5902578.48],[32493172.879,5902582.514],[32493167.637,5902589.096],[32493162.803,5902592.707],[32493157.01,5902592.7],[32493146.65,5902585.78],[32493127.15,5902571.36],[32493126.84,5902569.87],[32493127.93,5902567.98],[32493125.766,5902565.103],[32493110.74,5902555.02],[32493103.91,5902551.43],[32493095.042,5902539.572],[32493088.43,5902535.49],[32493073.76,5902522.58],[32493062.1,5902507.97],[32493060.98,5902504.49],[32493051.14,5902498.89],[32493044.2,5902498.88],[32493040.87,5902496.5],[32493039.75,5902492.67],[32493037.58,5902489.39],[32493031.86,5902486.12],[32493028.04,5902485.4],[32493025.26,5902483.05],[32493023.02,5902477.81],[32493024.02,5902474.81],[32493028.44,5902472.66],[32493034.97,5902474.05],[32493038.24,5902480.14],[32493044.89,5902486.54],[32493051.584,5902486.759],[32493053.59,5902493.31],[32493064.39,5902499.67],[32493068.23,5902499.43],[32493077.397,5902505.737]]],[[[32495363.9207,5907189.8691],[32495340.6808,5907252.3446],[32495314.692,5907311.3215],[32495300.8811,5907331.8956],[32495278.4571,5907365.3006],[32495238.9736,5907415.7811],[32495205.9874,5907464.7621],[32495142.514,5907564.7233],[32495104.7798,5907618.7024],[32495062.5473,5907671.682],[32495019.3152,5907715.6651],[32494978.5817,5907740.6558],[32494936.0989,5907763.6473],[32494888.6183,5907800.6333],[32494758.9215,5907911.5911],[32494721.6867,5907938.0811],[32494682.4526,5907960.0729],[32494638.4703,5907975.5674],[32494596.4872,5907988.063],[32494563.7504,5908002.058],[32494537.2611,5908018.5518],[32494493.5782,5908053.1746],[32494456.5441,5908082.5275],[32494421.8083,5908107.0183],[32494382.8241,5908130.5095],[32494359.8333,5908132.0093],[32494340.5909,5908130.0104],[32494294.609,5908116.5164],[32494250.3759,5908066.0371],[32494211.6403,5907993.5665],[32494180.9014,5907916.5975],[32494142.9149,5907803.6429],[32494119.4236,5907754.6628],[32494089.4349,5907708.6816],[32494052.9488,5907668.6979],[32494010.7151,5907632.7128],[32493963.9832,5907600.2264],[32493913.253,5907571.7386],[32493806.045,5907524.2589],[32493772.6407,5907501.1609],[32493759.0632,5907491.7726],[32493719.0786,5907454.288],[32493688.0903,5907412.8049],[32493665.3488,5907370.3221],[32493649.1046,5907326.8396],[32493624.6131,5907238.3752],[32493607.7798,5907205.1414],[32493605.1203,5907199.8907],[32493599.8302,5907195.1423],[32493573.3825,5907171.4025],[32493533.648,5907150.4114],[32493501.784,5907137.51],[32493497.47,5907132.58],[32493535.42,5907092.0],[32493542.6,5907100.44],[32493578.5,5907071.56],[32493541.79,5907027.84],[32493552.08,5907013.92],[32493569.65,5906987.26],[32493607.29,5906928.97],[32493611.15,5906923.79],[32493614.9,5906918.76],[32493665.6,5906840.28],[32493668.84,5906835.25],[32493686.01,5906856.4],[32493666.95,5906880.43],[32493670.17,5906885.22],[32493653.06,5906901.49],[32493673.09,5906926.3],[32493668.7,5906931.68],[32493674.07,5906936.57],[32493679.37,5906932.47],[32493682.07,5906936.37],[32493724.77,5906902.48],[32493774.01,5906861.68],[32493763.12,5906850.36],[32493811.9,5906815.15],[32493844.42,5906790.49],[32493882.85,5906761.33],[32493917.22,5906759.11],[32493928.53,5906773.6],[32493973.25,5906738.17],[32494008.86,5906710.39],[32493996.45,5906695.07],[32493966.74,5906657.68],[32493965.12,5906655.64],[32493955.47,5906642.42],[32493960.44,5906638.98],[32494008.87,5906605.42],[32494012.18,5906603.02],[32494017.48,5906599.18],[32494051.76,5906574.65],[32494081.62,5906553.28],[32494085.86,5906549.03],[32494094.65,5906559.66],[32494121.51,5906592.16],[32494134.22,5906607.73],[32494163.0,5906586.85],[32494158.66,5906578.85],[32494179.42,5906561.38],[32494186.66,5906561.26],[32494205.34,5906584.16],[32494231.01,5906565.24],[32494237.67,5906574.17],[32494294.44,5906530.48],[32494285.52,5906519.55],[32494328.66,5906483.53],[32494344.43,5906502.84],[32494357.55,5906492.48],[32494359.57,5906495.84],[32494388.33,5906470.47],[32494359.67,5906433.87],[32494390.16,5906410.71],[32494375.02,5906391.84],[32494346.66,5906357.18],[32494370.89,5906339.74],[32494374.54,5906336.53],[32494385.71,5906350.27],[32494417.59,5906389.46],[32494451.93,5906370.07],[32494404.92,5906312.96],[32494429.29,5906296.31],[32494434.44,5906292.07],[32494439.32,5906288.05],[32494548.54,5906206.16],[32494553.63,5906202.0],[32494564.98,5906216.24],[32494576.24,5906230.34],[32494538.53,5906258.71],[32494550.58,5906280.57],[32494545.33,5906283.03],[32494547.74,5906286.64],[32494545.12,5906288.25],[32494557.13,5906305.14],[32494548.61,5906312.05],[32494556.01,5906321.2],[32494612.58,5906275.87],[32494617.07,5906281.51],[32494675.05,5906236.99],[32494654.73,5906207.03],[32494636.8,5906187.42],[32494612.76,5906158.12],[32494615.93,5906155.85],[32494687.18,5906101.4],[32494685.91,5906093.81],[32494697.3,5906085.6],[32494734.35,5906133.17],[32494708.29,5906155.78],[32494711.48,5906163.69],[32494718.93,5906170.04],[32494725.56,5906178.21],[32494729.54,5906179.48],[32494745.84,5906203.47],[32494733.24,5906213.94],[32494752.67,5906236.68],[32494795.15,5906203.73],[32494767.37,5906167.02],[32494822.37,5906124.63],[32494843.22,5906109.58],[32494859.46,5906131.05],[32494871.91,5906120.34],[32494822.81,5906060.65],[32494856.54,5906035.75],[32494823.43,5905992.99],[32494833.75,5905986.39],[32494850.05,5905975.96],[32494880.47,5905954.61],[32494890.81,5905947.34],[32494931.71,5905918.12],[32494953.89,5905902.29],[32494981.28,5905883.04],[32494990.1601,5905876.8028],[32495001.9687,5905905.1268],[32495106.4098,5906142.0587],[32495203.056,5906319.7573],[32495234.2322,5906373.5345],[32495269.4475,5906429.1728],[32495289.69,5906471.1558],[32495319.6793,5906553.1228],[32495324.81,5906563.4992],[32495341.9211,5906598.1046],[32495369.4108,5906648.5841],[32495394.6516,5906707.0605],[32495413.895,5906776.5326],[32495417.9227,5906808.1893],[32495424.6419,5906860.9989],[32495427.3841,5906943.232],[32495427.3919,5906943.4661],[32495423.6444,5907010.9393],[32495412.1498,5907068.4166],[32495363.9207,5907189.8691]],[[32493597.03,5906976.49],[32493605.02,5906988.71],[32493598.33,5906992.84],[32493607.2,5907004.81],[32493615.39,5906999.03],[32493615.1,5906995.6],[32493628.37,5906989.01],[32493626.02,5906982.31],[32493613.17,5906965.8],[32493597.03,5906976.49]],[[32494093.37,5906815.0],[32494112.13,5906838.27],[32494115.41,5906849.52],[32494146.78,5906826.65],[32494121.27,5906794.44],[32494093.37,5906815.0]],[[32494200.62,5906787.39],[32494252.17,5906749.79],[32494233.34,5906726.24],[32494212.52,5906702.21],[32494176.9,5906728.21],[32494161.49,5906739.46],[32494200.62,5906787.39]],[[32494767.64,5906722.2],[32494815.88,5906690.59],[32494783.96,5906651.86],[32494776.07,5906647.29],[32494762.9,5906631.55],[32494720.04,5906662.77],[32494767.64,5906722.2]],[[32494872.91,5906686.13],[32494901.21,5906719.25],[32494938.22,5906689.79],[32494941.27,5906686.83],[32494923.32,5906664.05],[32494989.03,5906616.88],[32494960.39,5906582.55],[32494936.22,5906599.59],[32494913.4,5906593.49],[32494867.55,5906575.07],[32494848.84,5906589.43],[32494841.67,5906591.57],[32494813.05,5906613.64],[32494872.91,5906686.13]],[[32494678.11,5906598.19],[32494644.97,5906557.22],[32494634.16,5906556.95],[32494592.56,5906505.84],[32494554.74,5906534.06],[32494540.28,5906542.3],[32494512.15,5906562.86],[32494482.02,5906584.88],[32494495.24,5906601.34],[32494496.38,5906593.6],[32494500.66,5906588.37],[32494510.8,5906580.4],[32494524.83,5906570.4],[32494539.88,5906564.56],[32494547.49,5906567.86],[32494546.28,5906573.37],[32494538.68,5906585.7],[32494529.82,5906598.21],[32494532.91,5906607.0],[32494543.41,5906616.82],[32494558.24,5906631.07],[32494557.28,5906636.69],[32494551.57,5906644.13],[32494539.48,5906651.28],[32494534.94,5906650.82],[32494542.18,5906659.83],[32494575.79,5906631.37],[32494581.63,5906638.93],[32494592.4,5906630.43],[32494593.02,5906626.21],[32494615.58,5906609.31],[32494634.51,5906632.31],[32494678.11,5906598.19]],[[32494053.9,5906649.88],[32494036.08,5906630.88],[32494006.73,5906654.88],[32494019.83,5906670.75],[32494025.88,5906666.0],[32494027.29,5906668.02],[32494053.9,5906649.88]]],[[[32492928.43,5907168.92],[32492940.94,5907197.08],[32492947.7544,5907206.072],[32492913.6455,5907211.896],[32492882.4078,5907204.8993],[32492858.1672,5907185.9072],[32492838.1747,5907157.4188],[32492846.1711,5907124.9316],[32492865.9128,5907095.9428],[32492891.182,5907069.9369],[32492893.91,5907083.01],[32492900.15,5907110.88],[32492901.4,5907121.52],[32492901.84,5907126.98],[32492895.92,5907131.0],[32492904.69,5907132.24],[32492916.23,5907133.87],[32492910.89,5907104.99],[32492924.3,5907099.92],[32492931.76,5907097.19],[32492957.08,5907077.16],[32492995.62,5907046.1],[32493012.23,5907030.6],[32492988.98,5907000.49],[32492997.68,5906994.7],[32492978.6986,5906956.3677],[32492979.1158,5906954.4974],[32492977.366,5906917.5121],[32492964.3707,5906886.5246],[32492941.1296,5906861.5349],[32492870.4072,5906821.5518],[32492831.4222,5906789.5651],[32492762.1988,5906720.0937],[32492747.1533,5906706.9138],[32492750.84,5906700.48],[32492738.645,5906692.277],[32492744.282,5906680.988],[32492651.594,5906634.129],[32492626.9585,5906681.8643],[32492623.0036,5906682.6106],[32492585.5184,5906675.6139],[32492492.555,5906651.125],[32492419.0841,5906640.6303],[32492388.0965,5906643.1297],[32492354.1455,5906659.647],[32492340.2761,5906651.7526],[32492320.1162,5906646.0135],[32492281.9353,5906637.9573],[32492240.2908,5906632.6018],[32492228.4923,5906634.288],[32492220.2141,5906642.8609],[32492194.96,5906719.6988],[32492184.1737,5906725.4654],[32492152.6305,5906742.3292],[32492127.0523,5906757.9405],[32492092.5788,5906781.9307],[32492077.0138,5906794.23],[32492052.564,5906813.5499],[32492037.0439,5906822.9008],[32492025.7992,5906826.6983],[32492013.6403,5906826.419],[32492005.2551,5906823.3061],[32491995.8426,5906815.8134],[32491990.618,5906808.4077],[32491982.8866,5906792.1316],[32491975.135,5906763.2039],[32491964.1538,5906675.4111],[32491962.3799,5906648.4406],[32491962.9355,5906630.4791],[32491966.5144,5906609.7116],[32491974.9233,5906590.5753],[32491987.5152,5906570.0469],[32491992.4142,5906563.3429],[32492019.3591,5906526.4703],[32492027.662,5906507.1371],[32492033.5604,5906483.8417],[32492035.6213,5906462.7992],[32492034.1069,5906441.9147],[32492028.0419,5906421.6943],[32492020.5139,5906408.701],[32492008.023,5906395.7136],[32491991.1438,5906382.9401],[32491969.7976,5906372.296],[32491940.2287,5906366.787],[32491919.4295,5906369.6121],[32491877.1675,5906385.0296],[32491865.7953,5906389.1782],[32491845.3899,5906393.6426],[32491815.3702,5906394.5286],[32491804.2284,5906389.8175],[32491795.3283,5906382.004],[32491787.9093,5906368.814],[32491776.5854,5906341.2586],[32491772.8366,5906320.267],[32491777.3345,5906299.2753],[32491792.5781,5906273.7852],[32491805.5725,5906245.7961],[32491804.5726,5906218.8069],[32491792.0771,5906191.8178],[32491771.335,5906164.329],[32491747.0944,5906147.3361],[32491716.8563,5906134.8415],[32491681.8701,5906126.8452],[32491602.4015,5906117.8499],[32491564.9163,5906110.3534],[32491532.4291,5906100.8577],[32491521.4819,5906096.3502],[32491506.9391,5906090.3622],[32491475.7012,5906069.8709],[32491404.9785,5906008.3963],[32491372.9908,5905979.4083],[32491340.5033,5905948.4211],[32491311.5144,5905914.9348],[32491287.7733,5905881.9482],[32491272.529,5905850.9608],[32491257.7845,5905825.9709],[32491237.0425,5905810.4774],[32491213.052,5905803.4805],[32491189.5613,5905804.9803],[32491163.3219,5905815.4765],[32491133.584,5905834.4693],[32491113.8172,5905851.2093],[32491093.4592,5905877.3183],[32491082.4727,5905891.4084],[32491051.4564,5905924.0339],[32491037.1139,5905934.7926],[32491017.2696,5905943.7103],[32490991.593,5905949.1359],[32490967.6285,5905948.0127],[32490944.6487,5905941.1975],[32490929.4198,5905931.8389],[32490924.2217,5905928.6446],[32490904.625,5905920.9895],[32490889.9726,5905918.2755],[32490865.8762,5905918.6183],[32490845.101,5905921.7602],[32490831.1947,5905927.2999],[32490815.9661,5905941.7809],[32490806.9656,5905954.9262],[32490785.3408,5906050.0171],[32490769.0472,5906121.6652],[32490756.205,5906167.819],[32490748.6297,5906184.2599],[32490738.8926,5906199.2803],[32490725.0376,5906210.9348],[32490719.5412,5906213.3004],[32490711.7571,5906213.8247],[32490691.7951,5906207.112],[32490678.9534,5906194.6962],[32490663.8239,5906168.7741],[32490648.3211,5906129.2687],[32490625.2893,5906056.8883],[32490614.7927,5906002.9099],[32490609.2943,5905959.9271],[32490607.2946,5905924.941],[32490609.7928,5905865.9644],[32490614.2906,5905837.9755],[32490623.5365,5905808.4871],[32490661.7703,5905736.5151],[32490713.4982,5905628.5573],[32490725.2431,5905600.5682],[32490731.7401,5905567.5813],[32490733.9887,5905531.5955],[32490732.9885,5905494.6102],[32490954.9008,5905532.5919],[32491021.3745,5905541.5874],[32491085.5991,5905549.0835],[32491136.5788,5905552.5814],[32491167.3166,5905550.5817],[32491179.4656,5905540.9073],[32491190.0348,5905522.6869],[32491194.6836,5905486.7844],[32491196.5838,5905472.1087],[32491205.8351,5905440.5342],[32491238.7919,5905340.9432],[32491304.075,5905152.8196],[32491379.03,5905181.24],[32491408.98,5905129.57],[32491461.13,5905152.24],[32491468.27,5905139.73],[32491415.75,5905118.46],[32491418.24,5905112.21],[32491328.4126,5905082.6872],[32491331.0366,5905075.1257],[32491408.9754,5905081.3597],[32491451.5914,5905041.5835],[32491455.7378,5905037.7133],[32491518.089,5905056.4178],[32491471.3271,5905143.7096],[32491514.4906,5905152.5956],[32491502.81,5905168.27],[32491512.89,5905174.66],[32491512.49,5905188.38],[32491514.16,5905190.14],[32491505.35,5905206.69],[32491554.15,5905217.36],[32491572.846,5905164.6091],[32491577.3238,5905165.5309],[32491680.2034,5905206.0576],[32491798.6709,5905268.4067],[32491954.5455,5905093.8219],[32491667.7309,5905034.5927],[32491671.9691,5905023.6312],[32491750.1,5905038.19],[32491863.71,5905060.22],[32491962.19,5905079.35],[32491968.22,5905080.12],[32491976.97,5905068.18],[32491901.41,5905056.75],[32491743.87,5905027.21],[32491700.09,5905018.94],[32491675.5747,5905014.3059],[32491682.5295,5904996.3184],[32491698.42,5904999.78],[32491724.76,5904940.9],[32491708.2012,5904934.2214],[32491764.372,5904841.3036],[32491857.8986,5904866.2426],[32491907.7452,5904757.6838],[32491938.63,5904768.45],[32491965.17,5904724.44],[32491972.45,5904730.03],[32491993.14,5904746.86],[32492022.71,5904710.19],[32491997.3,5904701.3],[32492039.72,5904609.94],[32492043.15,5904602.89],[32491988.8599,5904581.0275],[32491998.1839,5904560.7212],[32491855.2778,5904506.5181],[32491820.7918,5904495.9914],[32491776.5591,5904472.0016],[32491699.0891,5904419.0238],[32491659.3547,5904399.0322],[32491616.0088,5904385.5887],[32491564.642,5904374.5433],[32491520.9093,5904369.5459],[32491482.4247,5904373.0451],[32491464.6899,5904379.3047],[32491444.1901,5904386.5403],[32491404.956,5904408.5321],[32491356.2505,5904441.0282],[32491320.4904,5904468.0098],[32491278.9489,5904503.355],[32491246.7706,5904529.9861],[32491209.036,5904556.4761],[32491167.053,5904576.9686],[32491121.0714,5904589.9641],[32491069.8419,5904596.9621],[32491041.4785,5904596.9625],[32491086.54,5904533.44],[32491081.01,5904529.19],[32491048.95,5904576.77],[32491035.1466,5904596.9626],[32491013.1145,5904596.9629],[32490951.6388,5904586.9678],[32490890.4129,5904566.9766],[32490792.7011,5904526.4941],[32490747.719,5904521.9965],[32490687.9929,5904530.9938],[32490570.2211,5904561.6113],[32490570.81,5904560.62],[32490632.85,5904455.72],[32490696.77,5904348.51],[32490688.93,5904345.31],[32490673.35,5904372.44],[32490622.03,5904458.28],[32490612.54,5904474.04],[32490577.82,5904532.89],[32490559.6164,5904563.4319],[32490521.3097,5904569.4809],[32490503.0083,5904568.8811],[32490475.5779,5904567.9822],[32490383.8641,5904551.4901],[32490334.1338,5904545.4932],[32490283.9038,5904546.9933],[32490238.6719,5904554.9908],[32490203.9359,5904568.9857],[32490163.554,5904590.4963],[32490133.7143,5904603.9728],[32490089.2322,5904618.9675],[32490040.0019,5904628.9642],[32489993.7703,5904629.9645],[32489956.0352,5904620.4688],[32489923.0481,5904603.4761],[32489886.6093,5904574.5912],[32489857.8233,5904547.4992],[32489781.6025,5904469.0315],[32489756.8546,5904445.5869],[32489743.6171,5904433.0464],[32489706.8814,5904411.0556],[32489668.8964,5904404.5588],[32489628.9123,5904408.058],[32489584.9299,5904415.5556],[32489546.6951,5904411.058],[32489521.4548,5904387.0679],[32489505.7105,5904351.5822],[32489484.2181,5904278.6115],[32489469.2236,5904248.1238],[32489450.2308,5904221.6346],[32489426.24,5904198.6441],[32489363.5826,5904151.6603],[32489384.9783,5904133.8826],[32489453.9993,5904076.533],[32489455.4213,5904075.3515],[32489465.6231,5904066.8748],[32489465.2951,5904065.5925],[32489456.7277,5904032.0954],[32489448.5313,5904000.0489],[32489443.5506,5903964.3664],[32489444.4561,5903925.4457],[32489453.0489,5903887.2524],[32489466.8752,5903857.2962],[32489486.2327,5903830.6264],[32489515.0885,5903804.294],[32489536.1535,5903791.1131],[32489563.5435,5903773.9744],[32489570.2375,5903764.1283],[32489573.3531,5903752.4866],[32489571.3893,5903737.5133],[32489564.7381,5903727.4433],[32489509.7452,5903689.1306],[32489495.7863,5903679.4057],[32489474.7174,5903662.6021],[32489451.1406,5903635.4117],[32489443.4512,5903615.7821],[32489441.4562,5903603.804],[32489441.7448,5903591.7913],[32489449.3409,5903569.0605],[32489466.2776,5903540.7658],[32489475.6743,5903527.4059],[32489528.4394,5903452.3866],[32489537.163,5903433.2314],[32489542.9917,5903409.917],[32489542.481,5903388.9484],[32489539.2926,5903380.2167],[32489533.8589,5903373.1945],[32489521.6631,5903364.4688],[32489508.0237,5903357.8367],[32489473.5119,5903347.5467],[32489458.0457,5903344.3859],[32489402.215,5903332.976],[32489338.0272,5903317.4806],[32489280.2046,5903301.5815],[32489257.9108,5903293.0281],[32489234.7896,5903278.75],[32489224.7182,5903267.6957],[32489222.086,5903259.1821],[32489222.3584,5903247.927],[32489222.5237,5903241.0992],[32489219.5441,5903220.1829],[32489216.6177,5903211.8501],[32489207.3957,5903199.885],[32489187.3408,5903186.3549],[32489166.4657,5903183.9734],[32489118.5967,5903187.9226],[32489032.9061,5903205.1649],[32488989.8667,5903216.7571],[32488938.7242,5903234.1649],[32488772.8086,5903298.0941],[32488749.626,5903258.788],[32488727.087,5903220.574],[32488681.47,5903143.23],[32488687.435,5903140.63],[32488663.633,5903105.217],[32488639.16,5903122.94],[32488618.87,5903090.44],[32488620.76,5903089.03],[32488643.605,5903075.03],[32488627.122,5903047.538],[32488623.88,5903042.13],[32488623.22,5903038.58],[32488608.0352,5903048.1844],[32488605.2913,5903002.1774],[32488608.2978,5902959.6482],[32488624.0401,5902853.1903],[32488627.5379,5902799.7115],[32488623.7887,5902746.2328],[32488619.1839,5902715.729],[32488606.5441,5902641.7746],[32488600.2957,5902582.7981],[32488599.0452,5902511.8263],[32488601.0425,5902375.3805],[32488598.0429,5902322.9014],[32488590.2954,5902276.42],[32488567.5532,5902191.9539],[32488566.1513,5902184.5978],[32488552.9544,5902115.3502],[32488532.461,5902036.9551],[32488517.1833,5901991.5473],[32488507.4938,5901969.9405],[32488484.0405,5901917.6417],[32488474.5092,5901886.0485],[32488466.0687,5901847.9535],[32488461.3383,5901809.2044],[32488461.8063,5901770.1469],[32488467.5859,5901734.6681],[32488477.3103,5901699.8271],[32488492.1112,5901667.2685],[32488518.9612,5901627.2784],[32488541.8022,5901599.4336],[32488569.4761,5901571.8956],[32488599.4495,5901552.1506],[32488673.9057,5901514.5102],[32488703.9174,5901499.3382],[32488750.1583,5901471.5555],[32488779.621,5901450.7652],[32488807.7448,5901428.3671],[32488829.556,5901407.6321],[32488847.0907,5901387.8414],[32488863.5577,5901365.7931],[32488881.3759,5901337.9425],[32488902.328,5901295.5116],[32488917.0634,5901268.6443],[32488926.2695,5901260.4153],[32488934.2948,5901257.7846],[32488945.488,5901263.0259],[32488952.2177,5901269.0616],[32488961.3288,5901285.1383],[32488969.9538,5901300.3572],[32488986.158,5901318.0811],[32488994.4453,5901321.4954],[32489006.5519,5901322.4852],[32489025.2289,5901318.3013],[32489040.7266,5901311.2836],[32489055.0212,5901300.6325],[32489074.3147,5901281.5922],[32489093.692,5901258.6443],[32489134.1621,5901195.7895],[32489216.0511,5901068.6066],[32489107.0794,5901108.0908],[32489035.0117,5900933.825],[32489064.45,5900923.76],[32489055.14,5900897.89],[32489085.09,5900887.48],[32489093.7,5900905.47],[32489175.03,5900873.26],[32489163.5957,5900842.3758],[32489192.1662,5900831.2833],[32489196.25,5900842.58],[32489256.75,5900824.18],[32489260.33,5900836.65],[32489280.97,5900830.09],[32489278.99,5900824.37],[32489284.88,5900821.57],[32489276.8742,5900798.3952],[32489281.8694,5900796.4558],[32489288.6954,5900793.8056],[32489317.9143,5900857.7675],[32489639.3016,5900710.0974],[32489632.9837,5900659.5596],[32489629.8238,5900572.6976],[32489631.4029,5900554.5355],[32489644.8269,5900550.5871],[32489717.4749,5900532.424],[32489864.3505,5900522.946],[32489918.8365,5900512.6797],[32490094.1389,5900455.0324],[32490132.0422,5900443.9767],[32490184.949,5900442.3966],[32490214.956,5900447.1341],[32490280.4976,5900468.4538],[32490309.715,5900481.8775],[32490376.0467,5900536.3627],[32490473.1756,5900643.7543],[32490523.7147,5900729.0364],[32490567.9371,5900842.7459],[32490585.3107,5900939.0835],[32490605.8436,5901076.4832],[32490615.32,5901115.9658],[32490629.5342,5901145.9725],[32490669.0178,5901202.827],[32490770.095,5901310.2186],[32490796.9438,5901351.2803],[32490844.3254,5901518.6863],[32490868.0156,5901562.9067],[32490915.3959,5901629.237],[32490935.9274,5901670.2987],[32490937.5072,5901703.4642],[32490929.6113,5901742.947],[32490902.7641,5901821.9129],[32490888.5512,5901883.5061],[32490885.3937,5901960.8924],[32490885.3945,5902022.4854],[32490877.4985,5902055.6511],[32490858.5475,5902103.0306],[32490825.3827,5902156.7276],[32490792.2177,5902194.6315],[32490673.1224,5902301.5328],[32490646.4783,5902324.3713],[32490611.2426,5902349.3619],[32490570.5092,5902375.8519],[32490521.2792,5902403.8415],[32490345.9513,5902491.8357],[32490253.3876,5902538.2919],[32490189.6633,5902564.2825],[32490135.4352,5902584.2754],[32490089.9536,5902606.2673],[32490050.7195,5902630.2583],[32489978.499,5902686.2371],[32489936.5161,5902711.7276],[32489887.5359,5902733.2198],[32489830.0589,5902747.7148],[32489768.3336,5902757.2119],[32489709.857,5902766.2092],[32489659.1273,5902776.206],[32489620.143,5902789.7012],[32489586.6565,5902803.6961],[32489522.9322,5902824.6887],[32489502.1906,5902835.6846],[32489490.6953,5902848.6796],[32489485.6976,5902865.6729],[32489485.9478,5902887.6642],[32489491.446,5902916.6526],[32489500.1929,5902945.6409],[32489516.1869,5902966.1326],[32489548.1743,5902978.1273],[32489604.402,5902982.1249],[32489681.3713,5902976.1262],[32489762.3389,5902961.131],[32489837.3088,5902941.6377],[32489895.2855,5902923.644],[32489959.7595,5902900.6522],[32490200.4125,5902807.6857],[32490268.3852,5902785.6934],[32490358.0992,5902763.2011],[32490505.2901,5902729.7122],[32490539.7764,5902725.7133],[32490566.2659,5902730.711],[32490584.7588,5902745.2049],[32490595.2549,5902768.6954],[32490597.7543,5902797.1841],[32490590.5082,5902865.1572],[32490590.009,5902909.6395],[32490594.2579,5902953.622],[32490603.0049,5902989.6076],[32490617.9994,5903020.595],[32490641.2406,5903050.5828],[32490673.4782,5903082.0698],[32490714.7123,5903113.0569],[32490764.6928,5903140.0454],[32490822.67,5903158.5372],[32490894.6416,5903176.0293],[32490977.6089,5903201.5179],[32491059.077,5903233.504],[32491109.1779,5903261.5447],[32491158.6318,5903289.0872],[32491223.3842,5903344.3621],[32491298.1698,5903418.2355],[32491371.8411,5903473.8634],[32491450.8072,5903518.0828],[32491539.2488,5903541.7712],[32491589.7868,5903546.5084],[32491637.166,5903538.6112],[32491669.7001,5903516.921],[32491700.3374,5903477.0172],[32491711.3921,5903445.4308],[32491716.1294,5903398.0514],[32491709.8112,5903336.4585],[32491694.0174,5903287.5001],[32491690.8586,5903268.5484],[32491659.2708,5903154.8387],[32491626.9968,5903058.0488],[32491617.6377,5903035.4575],[32491592.5327,5902974.8578],[32491566.4274,5902924.3096],[32491530.7685,5902868.6968],[32491467.7253,5902784.8377],[32491373.8235,5902667.872],[32491317.07,5902599.6509],[32491197.3792,5902455.7752],[32491154.7759,5902397.7618],[32491106.9849,5902325.0509],[32491075.5753,5902267.0266],[32491049.2627,5902203.2775],[32491039.0267,5902171.8151],[32491030.8046,5902139.871],[32491021.3817,5902083.7434],[32491012.8861,5902000.0993],[32491011.2376,5901952.0988],[32491014.0308,5901904.0965],[32491017.8336,5901880.402],[32491024.1925,5901857.4221],[32491027.6093,5901848.9484],[32491085.73,5901867.2],[32491098.17,5901867.63],[32491111.74,5901831.34],[32491115.53,5901821.18],[32491078.33,5901768.26],[32491068.2632,5901748.1263],[32491069.1296,5901745.9775],[32491080.6984,5901711.9653],[32491089.16,5901664.6977],[32491089.9929,5901646.6215],[32491088.7427,5901628.755],[32491079.5533,5901593.8974],[32491069.6997,5901572.3126],[32491054.6485,5901539.3419],[32491048.7764,5901512.9895],[32491039.5231,5901426.4887],[32491036.2196,5901314.5592],[32491035.2716,5901282.4388],[32491032.1585,5901228.6756],[32491028.1961,5901201.9896],[32491020.227,5901176.0007],[32491001.5682,5901135.0299],[32490980.9962,5901101.7982],[32490960.2533,5901076.3547],[32490929.0481,5901043.2351],[32490904.6059,5901017.2935],[32490849.5283,5900953.7904],[32490826.6125,5900922.1575],[32490819.5268,5900908.7694],[32490814.4533,5900894.8311],[32490810.7514,5900871.1384],[32490810.7587,5900837.9345],[32490814.0477,5900813.9624],[32490820.9967,5900794.3305],[32490828.9783,5900781.3467],[32490838.8057,5900770.1227],[32490861.3612,5900752.1115],[32490888.1589,5900730.7127],[32490905.5753,5900714.3086],[32490913.4637,5900701.3772],[32490915.9304,5900686.588],[32490913.469,5900674.9703],[32490902.908,5900660.2616],[32490836.9769,5900603.4358],[32490834.4362,5900601.246],[32490822.0937,5900588.5154],[32490813.7601,5900572.5677],[32490810.1216,5900551.8169],[32490813.815,5900527.9122],[32490832.1805,5900470.6301],[32490843.1426,5900446.0873],[32490855.6726,5900433.0206],[32490871.2039,5900428.7833],[32490972.8031,5900416.3071],[32491010.9258,5900407.5857],[32491027.0699,5900400.0263],[32491038.8119,5900390.5568],[32491049.033,5900379.5256],[32491059.7531,5900361.4078],[32491059.151,5900354.2807],[32491057.9758,5900340.3712],[32491055.0701,5900328.8515],[32491048.3636,5900318.8196],[32491034.3423,5900307.225],[32491017.5334,5900301.5875],[32491009.9214,5900299.9523],[32490957.6134,5900288.7151],[32490935.8605,5900285.0451],[32490889.527,5900277.2281],[32490857.3995,5900269.6916],[32490843.1629,5900264.3782],[32490830.1223,5900257.3698],[32490821.6747,5900248.3282],[32490818.3788,5900240.1415],[32490816.9125,5900228.3115],[32490817.3159,5900212.9979],[32490823.2654,5900165.3493],[32490831.2003,5900133.3822],[32490838.7143,5900108.0657],[32490854.2523,5900055.7143],[32490866.792,5900003.2103],[32490878.2652,5899944.3456],[32490884.795,5899904.3914],[32490893.5646,5899850.7331],[32490896.3082,5899833.946],[32490901.9915,5899799.1716],[32490910.8528,5899761.3627],[32490919.5242,5899742.0528],[32490933.0751,5899722.2507],[32490946.3333,5899709.8016],[32490961.8249,5899700.8182],[32490976.0582,5899695.3963],[32490990.6736,5899692.414],[32491014.8813,5899691.7848],[32491050.6944,5899690.854],[32491065.4112,5899687.0857],[32491078.5994,5899680.2641],[32491096.1036,5899663.6752],[32491106.8994,5899645.2272],[32491115.807,5899630.0057],[32491137.1956,5899604.6904],[32491156.855,5899591.1523],[32491179.7071,5899583.4365],[32491191.8543,5899582.0009],[32491203.5565,5899583.2268],[32491217.6315,5899588.943],[32491230.1036,5899597.311],[32491256.5767,5899621.8438],[32491275.5001,5899647.5819],[32491286.8115,5899662.9667],[32491300.6461,5899674.4968],[32491314.5564,5899679.6567],[32491329.8209,5899678.1898],[32491338.5995,5899675.3751],[32491344.0849,5899668.7571],[32491348.8334,5899657.2681],[32491350.2607,5899648.4766],[32491349.5616,5899636.2836],[32491346.284,5899624.8478],[32491343.2023,5899618.6516],[32491320.8053,5899573.6195],[32491318.4084,5899562.0034],[32491319.2486,5899546.8102],[32491324.7381,5899529.5467],[32491333.4394,5899517.5706],[32491352.4562,5899502.6558],[32491369.9744,5899493.483],[32491383.6452,5899486.4884],[32491432.1256,5899466.9954],[32491511.5937,5899444.5032],[32491562.4024,5899426.2003],[32491603.6604,5899418.3227],[32491669.6155,5899417.2393],[32491771.4871,5899423.0182],[32491816.1577,5899427.956],[32491842.8394,5899432.9041],[32491871.1757,5899442.4364],[32491905.6717,5899460.7496],[32491928.2539,5899475.5893],[32491954.7072,5899497.1459],[32491970.1973,5899509.7688],[32491990.1778,5899522.8905],[32492009.5045,5899531.5641],[32492029.6695,5899536.7873],[32492065.787,5899538.2053],[32492110.7746,5899536.4627],[32492134.5841,5899533.7163],[32492155.6341,5899529.6096],[32492184.7346,5899523.9323],[32492208.5149,5899522.0215],[32492256.4032,5899526.5775],[32492271.1447,5899530.0936],[32492282.122,5899534.597],[32492292.0174,5899541.739],[32492299.5286,5899551.0084],[32492306.8258,5899564.3367],[32492311.663,5899578.5125],[32492312.7134,5899590.3816],[32492311.5373,5899605.5485],[32492307.2354,5899630.0952],[32492297.5453,5899685.3869],[32492296.0185,5899718.2124],[32492300.3198,5899741.8536],[32492308.476,5899767.6494],[32492316.9384,5899786.8073],[32492327.4798,5899806.3975],[32492333.5872,5899817.7475],[32492349.2709,5899839.0218],[32492367.4374,5899863.6638],[32492386.5002,5899886.7409],[32492413.4319,5899914.8859],[32492463.203,5899962.7213],[32492498.8288,5899994.8679],[32492507.3138,5900002.5242],[32492602.0732,5900068.8538],[32492608.8442,5900070.3716],[32492620.5807,5900073.0024],[32492632.4094,5900073.3172],[32492647.1428,5900069.775],[32492657.7253,5900064.3375],[32492707.8222,5900021.2594],[32492732.2527,5899995.9781],[32492759.957,5899967.309],[32492776.7566,5899954.6932],[32492792.5681,5899945.632],[32492809.0774,5899938.7732],[32492826.7812,5899934.9841],[32492844.9724,5899934.382],[32492862.8142,5899936.9387],[32492880.0114,5899943.077],[32492892.5265,5899951.03],[32492905.6548,5899963.9471],[32492914.8847,5899979.0769],[32492919.4457,5899993.4733],[32492923.2462,5900014.3529],[32492924.747,5900037.1501],[32492927.7862,5900083.3161],[32492931.4646,5900110.0123],[32492938.9001,5900132.9642],[32492951.7407,5900153.0394],[32492972.5363,5900170.5038],[32492985.781,5900177.6841],[32492999.9775,5900182.9263],[32493026.5212,5900186.8814],[32493081.1083,5900187.4487],[32493095.8724,5900185.5678],[32493107.0282,5900182.0083],[32493136.0548,5900166.1108],[32493177.4234,5900135.5692],[32493190.203,5900122.8844],[32493200.946,5900108.6614],[32493223.1977,5900073.0606],[32493252.6812,5900017.1925],[32493360.1689,5899796.013],[32493368.0339,5899779.8291],[32493382.6162,5899754.7362],[32493403.0825,5899728.7063],[32493415.616,5899720.7758],[32493433.3914,5899717.1951],[32493451.1827,5899719.73],[32493473.6139,5899728.7308],[32493487.9386,5899739.3612],[32493493.1948,5899744.0742],[32493523.769,5899771.4884],[32493534.283,5899777.3043],[32493548.7591,5899781.5385],[32493560.81,5899782.6234],[32493572.7286,5899781.174],[32493586.5337,5899775.9901],[32493620.5293,5899763.2246],[32493650.0966,5899757.9691],[32493662.2783,5899757.7727],[32493673.9654,5899759.5828],[32493698.2997,5899769.9015],[32493708.5355,5899777.5274],[32493714.4861,5899784.2508],[32493722.1895,5899797.6378],[32493725.8351,5899808.8621],[32493726.196,5899820.8864],[32493722.7298,5899848.1469],[32493715.5441,5899860.9432],[32493702.8194,5899875.8473],[32493692.0541,5899888.4564],[32493669.6839,5899920.3832],[32493666.6464,5899927.7669],[32493661.8837,5899951.3343],[32493660.1067,5899966.1768],[32493660.493,5899978.1694],[32493665.1924,5900010.9914],[32493669.3792,5900028.4207],[32493683.8995,5900054.6243],[32493726.0609,5900083.8943],[32493805.6273,5900148.0808],[32493808.6063,5900151.3785],[32493823.4985,5900167.864],[32493842.9013,5900189.3428],[32493859.6974,5900210.3447],[32493877.0786,5900238.4408],[32493889.4783,5900265.9212],[32493894.826,5900282.9162],[32493898.1849,5900303.664],[32493900.8988,5900339.7398],[32493901.4025,5900358.6889],[32493902.7328,5900408.7391],[32493909.2589,5900453.4167],[32493915.0487,5900473.5511],[32493925.6591,5900498.4129],[32493937.4375,5900519.6207],[32493949.5044,5900536.652],[32493959.7883,5900547.3426],[32493976.5793,5900560.3053],[32493996.7861,5900573.4599],[32494011.3802,5900581.0265],[32494036.8239,5900594.2184],[32494060.1599,5900612.8848],[32494080.5396,5900635.0324],[32494092.7446,5900652.3851],[32494098.2853,5900666.1018],[32494100.9088,5900684.1794],[32494097.8928,5900707.9547],[32494092.513,5900722.0018],[32494086.1714,5900732.509],[32494080.0842,5900739.2712],[32494072.8305,5900744.0568],[32494064.0363,5900746.7737],[32494051.9667,5900748.0847],[32494033.8581,5900746.1647],[32494015.0989,5900737.2078],[32493990.662,5900719.537],[32493962.6175,5900694.4186],[32493957.1289,5900689.5027],[32493953.291,5900687.8027],[32493945.3058,5900684.2658],[32493936.2607,5900682.8517],[32493930.5414,5900684.5445],[32493925.9465,5900691.9744],[32493922.5418,5900706.9446],[32493922.1399,5900719.0123],[32493924.7681,5900730.5556],[32493932.8991,5900751.4487],[32493987.6286,5900843.4113],[32494008.8706,5900874.8985],[32494036.6101,5900908.8846],[32494071.8466,5900946.3692],[32494110.5817,5900983.8537],[32494182.8039,5901048.3271],[32494211.293,5901080.3139],[32494227.7869,5901112.8008],[32494225.7882,5901146.2875],[32494206.2963,5901173.7769],[32494177.0581,5901188.7713],[32494142.0721,5901192.2705],[32494105.8364,5901187.273],[32494067.8513,5901173.2791],[32494027.867,5901153.7874],[32493959.3937,5901114.8039],[32493944.4684,5901109.0168],[32493934.9033,5901105.308],[32493915.6609,5901107.3075],[32493904.6655,5901122.3017],[32493904.6659,5901151.79],[32493913.9128,5901186.776],[32493940.9031,5901262.7454],[32493954.1486,5901315.7241],[32493965.6449,5901376.6997],[32493974.3922,5901435.6762],[32493977.8916,5901491.6539],[32493973.644,5901541.6341],[32493953.6534,5901642.0944],[32493947.1566,5901690.5753],[32493947.1572,5901732.0588],[32493950.7805,5901756.212],[32493946.432,5901757.111],[32493951.5123,5901761.0904],[32493952.4056,5901767.0448],[32493961.1526,5901801.0312],[32493973.898,5901832.5185],[32493991.1415,5901860.5071],[32494013.633,5901888.4956],[32494042.122,5901916.9839],[32494076.6087,5901944.4725],[32494118.0926,5901967.9625],[32494161.5756,5901989.4534],[32494199.061,5902012.9435],[32494227.0503,5902041.9315],[32494241.545,5902079.4164],[32494257.7898,5902167.3812],[32494268.786,5902207.865],[32494282.0312,5902239.8521],[32494297.7752,5902262.8427],[32494316.7679,5902281.3351],[32494340.0089,5902295.3292],[32494399.4856,5902320.3184],[32494426.975,5902340.8099],[32494448.2169,5902368.2986],[32494460.2126,5902401.7851],[32494462.4621,5902432.273],[32494456.7147,5902452.7649],[32494442.9704,5902469.2586],[32494421.4792,5902486.7519],[32494391.2415,5902507.2442],[32494353.5068,5902527.7366],[32494311.7737,5902547.7293],[32494229.057,5902578.7182],[32494193.0716,5902594.7124],[32494169.0814,5902616.704],[32494164.0838,5902647.1919],[32494173.5805,5902679.1791],[32494189.5745,5902703.1693],[32494213.5651,5902718.163],[32494246.802,5902724.6599],[32494289.535,5902721.1607],[32494386.4961,5902702.6666],[32494430.2287,5902698.1678],[32494501.2005,5902698.1668],[32494525.4409,5902705.6634],[32494537.6863,5902724.6557],[32494539.6859,5902748.6461],[32494535.9376,5902768.6382],[32494528.4409,5902785.1318],[32494508.6991,5902812.1214],[32494502.2019,5902828.1151],[32494502.2021,5902844.6085],[32494511.4487,5902860.1023],[32494527.1926,5902870.5979],[32494546.185,5902874.0962],[32494568.4262,5902873.5961],[32494621.6549,5902868.0975],[32494647.8945,5902869.5965],[32494671.6352,5902880.092],[32494688.9186,5902903.1358],[32494714.6194,5902967.5566],[32494774.0984,5903158.9796],[32494821.8321,5903346.4045],[32494834.3279,5903404.3812],[32494848.324,5903523.8336],[32494862.5697,5903617.2962],[32494881.0637,5903715.257],[32494901.0569,5903796.7243],[32494909.8814,5903828.726],[32494919.8004,5903864.6971],[32494935.5451,5903935.6686],[32494946.2919,5904007.6399],[32494950.2913,5904078.6116],[32494954.0427,5904288.0283],[32494954.7941,5904407.9806],[32494952.0466,5904505.4419],[32494945.5501,5904570.4162],[32494942.0006,5904587.9677],[32494936.5543,5904614.8987],[32494925.0593,5904644.3871],[32494911.565,5904665.8788],[32494901.5693,5904690.869],[32494889.5751,5904765.3396],[32494874.5817,5904808.8225],[32494845.7251,5904877.2167],[32494817.8561,5904943.2699],[32494797.1149,5904977.7565],[32494786.5761,5904992.7712],[32494783.5,5904988.91],[32494766.44,5905007.42],[32494743.52,5905025.65],[32494640.87,5905108.77],[32494625.68,5905091.33],[32494634.1,5905086.22],[32494621.95,5905067.76],[32494613.78,5905072.75],[32494604.67,5905054.25],[32494569.51,5905069.54],[32494568.2,5905067.66],[32494548.47,5905073.94],[32494595.61,5905143.81],[32494510.57,5905212.63],[32494505.15,5905217.04],[32494420.54,5905285.83],[32494415.355,5905279.269],[32494370.65,5905226.49],[32494340.11,5905251.03],[32494337.14,5905255.98],[32494312.41,5905272.22],[32494316.83,5905277.6],[32494253.67,5905317.57],[32494245.54,5905310.87],[32494242.95,5905313.19],[32494216.41,5905336.97],[32494223.32,5905346.37],[32494222.11,5905356.17],[32494194.66,5905376.79],[32494196.74,5905379.29],[32494167.86,5905404.62],[32494208.23,5905444.82],[32494170.31,5905474.5],[32494162.95,5905469.14],[32494150.64,5905455.53],[32494137.67,5905428.08],[32494121.93,5905414.65],[32494053.95,5905469.21],[32494109.45,5905524.02],[32494085.83,5905542.82],[32494024.39,5905592.64],[32494022.59,5905590.61],[32494006.07,5905570.41],[32493996.22,5905559.31],[32493971.58,5905581.67],[32493959.44,5905592.69],[32493941.65,5905573.38],[32493949.37,5905566.6],[32493944.12,5905560.16],[32493936.15,5905565.93],[32493931.42,5905561.39],[32493880.72,5905604.9],[32493921.89,5905645.76],[32493936.67,5905660.68],[32493929.52,5905665.3],[32493872.76,5905710.53],[32493866.8,5905715.33],[32493855.0,5905700.43],[32493849.49,5905693.11],[32493845.26,5905688.44],[32493837.61,5905683.03],[32493826.78,5905678.78],[32493823.72,5905677.15],[32493814.89,5905666.55],[32493747.38,5905719.62],[32493753.87,5905726.38],[32493788.36,5905759.9],[32493798.79,5905770.05],[32493794.81,5905773.37],[32493716.13,5905836.5],[32493712.23,5905839.55],[32493708.49,5905842.48],[32493671.03,5905872.81],[32493626.83,5905908.56],[32493578.6,5905947.16],[32493574.11,5905951.47],[32493566.56,5905958.69],[32493482.82,5906025.73],[32493479.08,5906028.74],[32493474.08,5906032.78],[32493427.95,5906069.94],[32493417.32,5906078.52],[32493390.72,5906100.5],[32493387.3,5906103.65],[32493384.01,5906106.25],[32493323.28,5906154.19],[32493318.6,5906158.05],[32493314.16,5906161.72],[32493266.33,5906199.82],[32493261.56,5906204.04],[32493255.43,5906209.49],[32493208.62,5906245.84],[32493203.09,5906250.99],[32493197.84,5906255.88],[32493150.13,5906294.12],[32493143.83,5906299.03],[32493138.71,5906303.01],[32493083.44,5906348.03],[32493078.55,5906351.93],[32493072.28,5906356.92],[32493011.81,5906406.81],[32492945.017,5906461.915],[32492940.72,5906465.46],[32492903.81,5906428.8],[32492889.09,5906415.74],[32492890.42,5906408.88],[32492848.69,5906370.06],[32492831.37,5906351.84],[32492798.44,5906384.1],[32492859.51,5906441.64],[32492863.1,5906446.05],[32492857.94,5906449.78],[32492827.22,5906421.89],[32492780.22,5906471.05],[32492762.37,5906489.62],[32492836.7,5906526.74],[32492816.86,5906563.34],[32492810.75,5906573.79],[32492817.99,5906579.03],[32492832.1,5906564.33],[32492855.27,5906545.09],[32492869.13,5906534.05],[32492923.14,5906569.46],[32492946.36,5906582.32],[32492951.49,5906588.35],[32492952.78,5906603.82],[32492966.32,5906612.45],[32493018.69,5906567.69],[32493048.66,5906542.67],[32493025.28,5906511.54],[32492980.19,5906456.05],[32493070.59,5906382.57],[32493131.12,5906334.94],[32493136.34,5906330.61],[32493142.92,5906325.17],[32493198.84,5906280.15],[32493203.46,5906276.21],[32493208.84,5906271.63],[32493263.49,5906226.98],[32493267.79,5906223.84],[32493273.61,5906219.6],[32493329.29,5906173.95],[32493333.7,5906171.09],[32493339.91,5906167.08],[32493397.64,5906120.59],[32493400.23,5906118.51],[32493406.87,5906112.46],[32493453.76,5906074.45],[32493468.68,5906062.49],[32493500.4,5906107.62],[32493518.51,5906091.67],[32493535.46,5906108.89],[32493584.38,5906076.33],[32493602.25,5906100.41],[32493608.62,5906109.01],[32493624.95,5906127.37],[32493675.64,5906174.677],[32493710.805,5906141.279],[32493714.7,5906137.58],[32493683.61,5906083.47],[32493654.27,5906039.24],[32493741.21,5905984.77],[32493719.39,5905945.35],[32493686.27,5905890.57],[32493684.37,5905887.03],[32493742.11,5905840.13],[32493793.21,5905799.23],[32493796.71,5905796.04],[32493803.16,5905806.65],[32493830.76,5905852.08],[32493816.84,5905861.95],[32493775.1,5905895.12],[32493780.36,5905902.7],[32493767.59,5905912.69],[32493792.16,5905954.24],[32493862.34,5905904.18],[32493834.97,5905854.97],[32493903.7,5905810.07],[32493931.65,5905850.39],[32493949.14,5905841.25],[32493928.86,5905810.41],[32493931.27,5905809.0],[32493918.58,5905789.66],[32493921.98,5905786.59],[32493917.24,5905779.0],[32493899.04,5905755.25],[32493902.83,5905751.28],[32493889.91,5905735.25],[32493882.57,5905741.27],[32493875.79,5905734.71],[32493875.25,5905732.65],[32493887.74,5905722.66],[32493929.49,5905688.66],[32493933.77,5905686.2],[32493935.94,5905690.3],[32493969.76,5905753.81],[32493987.62,5905743.68],[32493996.92,5905738.3],[32494016.25,5905732.08],[32494063.52,5905718.71],[32494051.46,5905691.87],[32494041.91,5905672.52],[32494037.74,5905674.65],[32494028.43,5905656.31],[32494026.16,5905650.33],[32494018.87,5905635.12],[32494016.73,5905630.66],[32494012.37,5905625.34],[32494012.23,5905625.17],[32494016.08,5905623.25],[32494035.06,5905607.57],[32494068.06,5905580.92],[32494126.76,5905533.52],[32494130.98,5905531.83],[32494134.2,5905529.26],[32494199.98,5905476.7],[32494268.79,5905421.1],[32494335.35,5905367.5],[32494373.61,5905462.02],[32494428.88,5905441.52],[32494432.03,5905453.52],[32494457.08,5905447.7],[32494450.39,5905429.91],[32494453.78,5905427.43],[32494433.62,5905388.56],[32494430.49,5905390.91],[32494395.09,5905332.09],[32494388.24,5905324.7],[32494392.98,5905321.12],[32494467.11,5905259.55],[32494496.51,5905340.46],[32494565.14,5905300.63],[32494541.23,5905264.88],[32494534.14,5905259.56],[32494514.46,5905230.68],[32494510.62,5905225.05],[32494516.03,5905221.27],[32494598.39,5905154.12],[32494602.91,5905158.23],[32494625.78,5905226.91],[32494712.47,5905187.62],[32494710.81,5905180.54],[32494749.79,5905151.58],[32494752.03,5905155.48],[32494760.58,5905151.37],[32494758.48,5905147.34],[32494787.69,5905133.18],[32494811.61,5905183.04],[32494816.08,5905184.35],[32494835.2058,5905173.4671],[32494853.1193,5905202.7586],[32494880.3754,5905247.3268],[32494763.4687,5905333.0611],[32494986.9882,5905869.1946],[32494983.89,5905871.35],[32494828.14,5905979.69],[32494806.42,5905993.82],[32494741.2,5906040.2],[32494734.48,5906045.31],[32494727.89,5906050.34],[32494703.13,5906069.99],[32494690.16,5906078.91],[32494684.13,5906083.07],[32494658.05,5906101.52],[32494611.26,5906136.41],[32494565.27,5906170.69],[32494459.62,5906249.45],[32494340.31,5906338.39],[32494318.52,5906354.63],[32494217.84,5906429.46],[32494112.99,5906507.39],[32494062.972,5906544.094],[32494061.11,5906545.46],[32494067.32,5906551.55],[32494007.47,5906597.52],[32493950.59,5906635.73],[32493941.54,5906640.69],[32493903.24,5906661.67],[32493900.86,5906662.86],[32493894.65,5906665.95],[32493887.88,5906669.32],[32493860.67,5906682.87],[32493837.48,5906696.96],[32493775.86,5906638.61],[32493730.87,5906672.02],[32493784.41,5906723.45],[32493754.86,5906741.07],[32493728.13,5906759.07],[32493709.13,5906736.16],[32493692.28,5906711.83],[32493689.91,5906702.21],[32493671.62,5906714.94],[32493647.06,5906734.83],[32493665.86,5906763.46],[32493677.47,5906756.5],[32493686.43,5906751.09],[32493696.32,5906749.98],[32493709.57,5906756.34],[32493718.47,5906767.87],[32493705.72,5906779.46],[32493686.47,5906797.15],[32493662.9,5906827.94],[32493651.9,5906845.17],[32493631.39,5906877.21],[32493604.73,5906916.91],[32493576.2,5906960.57],[32493536.19,5907021.15],[32493520.88,5907044.3],[32493489.11,5907092.57],[32493474.33,5907115.03],[32493468.5072,5907124.0365],[32493452.18,5907117.4257],[32493421.6749,5907108.8174],[32493331.602,5907051.463],[32493296.2046,5907093.3855],[32493240.3983,5907092.7796],[32493201.7792,5907093.9387],[32493160.7956,5907100.9365],[32493125.06,5907115.4313],[32493043.8429,5907156.916],[32493013.8388,5907170.9304],[32493000.04,5907152.13],[32492990.33,5907160.42],[32492974.84,5907133.0],[32492928.43,5907168.92]],[[32493016.62,5906200.89],[32493011.07,5906210.68],[32492985.49,5906237.32],[32492975.88,5906250.26],[32493005.36,5906279.04],[32493036.92,5906250.97],[32493048.51,5906241.47],[32493057.2,5906234.91],[32493064.41,5906231.67],[32493077.75,5906232.57],[32493088.31,5906243.2],[32493118.66,5906210.37],[32493141.92,5906187.32],[32493149.16,5906195.05],[32493173.87,5906169.9],[32493201.4,5906141.48],[32493204.73,5906132.43],[32493252.57,5906091.02],[32493254.28,5906085.11],[32493203.443,5906036.863],[32493153.92,5906082.54],[32493145.98,5906098.32],[32493105.09,5906143.8],[32493070.54,5906179.36],[32493051.94,5906199.75],[32493035.37,5906184.18],[32493016.62,5906200.89]],[[32493275.05,5906064.08],[32493297.1,5906089.91],[32493314.42,5906104.07],[32493322.54,5906099.72],[32493363.74,5906075.83],[32493366.77,5906070.23],[32493336.05,5906036.81],[32493320.98,5906050.58],[32493305.16,5906032.34],[32493275.05,5906064.08]],[[32493342.4,5905980.31],[32493383.44,5906022.44],[32493428.21,5905985.96],[32493433.53,5905982.87],[32493434.66,5905980.58],[32493432.1,5905977.68],[32493392.72,5905937.69],[32493342.4,5905980.31]],[[32493464.9,5905838.69],[32493526.12,5905901.93],[32493541.73,5905886.53],[32493582.03,5905848.42],[32493579.6,5905845.64],[32493591.99,5905833.62],[32493579.59,5905822.15],[32493572.56,5905817.25],[32493567.47,5905814.87],[32493557.67,5905812.14],[32493544.79,5905805.88],[32493539.57,5905802.23],[32493534.45,5905796.55],[32493530.21,5905790.23],[32493526.62,5905785.3],[32493521.9,5905782.16],[32493464.9,5905838.69]],[[32493613.73,5905814.56],[32493623.72,5905806.87],[32493644.07,5905789.72],[32493654.45,5905782.66],[32493658.0,5905780.48],[32493645.85,5905769.01],[32493684.78,5905732.56],[32493680.29,5905727.14],[32493686.36,5905721.63],[32493700.64,5905708.45],[32493720.23,5905691.31],[32493721.1,5905688.0],[32493693.99,5905660.75],[32493612.61,5905735.46],[32493591.13,5905714.27],[32493550.94,5905751.37],[32493613.73,5905814.56]],[[32493318.3,5905690.17],[32493285.28,5905657.53],[32493191.53,5905581.34],[32493164.51,5905559.38],[32493158.94,5905554.85],[32493152.71,5905561.6],[32493102.28,5905616.23],[32493133.73,5905645.48],[32493163.0,5905674.73],[32493162.11,5905675.24],[32493222.94,5905730.2],[32493244.78,5905706.56],[32493320.73,5905782.62],[32493359.79,5905747.44],[32493368.23,5905740.04],[32493351.5,5905722.99],[32493318.3,5905690.17]],[[32493126.07,5905536.07],[32493130.94,5905530.61],[32493104.3,5905508.95],[32493098.12,5905516.07],[32493067.94,5905549.66],[32493057.83,5905558.62],[32493057.34,5905560.02],[32493082.19,5905585.06],[32493126.07,5905536.07]],[[32493092.69,5905499.06],[32493051.95,5905465.31],[32493046.16,5905460.65],[32493038.05,5905469.44],[32492990.64,5905523.01],[32493037.27,5905563.08],[32493092.69,5905499.06]],[[32492917.32,5905460.22],[32492930.31,5905444.44],[32492947.16,5905456.89],[32492986.94,5905410.37],[32492940.99,5905368.01],[32492935.63,5905362.95],[32492928.45,5905370.85],[32492878.73,5905427.26],[32492874.33,5905433.25],[32492911.24,5905463.74],[32492913.4,5905464.99],[32492917.32,5905460.22]],[[32492905.76,5905358.38],[32492901.48,5905344.44],[32492905.75,5905334.76],[32492882.65,5905314.63],[32492874.66,5905307.67],[32492865.92,5905300.05],[32492756.42,5905200.88],[32492750.18,5905195.21],[32492740.98,5905186.86],[32492715.62,5905163.86],[32492693.55,5905144.0],[32492688.6,5905139.53],[32492681.6,5905133.23],[32492602.65,5905062.14],[32492507.86,5904978.09],[32492501.56,5904972.5],[32492494.87,5904966.57],[32492441.91,5904919.61],[32492363.84,5904846.38],[32492357.84,5904840.94],[32492352.57,5904836.14],[32492313.6,5904800.73],[32492271.62,5904773.08],[32492260.58,5904775.06],[32492205.91,5904834.85],[32492188.62,5904853.83],[32492194.1,5904856.64],[32492274.14,5904926.847],[32492279.07,5904931.24],[32492284.62,5904925.24],[32492319.11,5904954.85],[32492323.16,5904951.64],[32492373.07,5904994.87],[32492381.8,5904984.85],[32492440.61,5905040.38],[32492449.82,5905028.63],[32492510.81,5905088.54],[32492508.53,5905090.71],[32492508.81,5905093.88],[32492533.46,5905115.3],[32492536.65,5905117.06],[32492540.71,5905116.4],[32492633.11,5905200.6],[32492631.72,5905205.02],[32492692.49,5905261.37],[32492756.7,5905317.61],[32492778.81,5905338.15],[32492817.9,5905369.51],[32492807.79,5905380.76],[32492831.54,5905399.52],[32492836.99,5905396.3],[32492854.1,5905409.26],[32492905.76,5905358.38]],[[32492081.94,5904929.31],[32492032.65,5904890.11],[32492034.54,5904887.81],[32491986.78,5904849.28],[32491953.03,5904886.92],[32491963.84,5904900.73],[32491971.83,5904918.58],[32491971.78,5904931.79],[32491955.64,5904953.99],[32491971.61,5904965.43],[32491974.69,5904972.84],[32491981.05,5904973.25],[32491993.43,5904981.29],[32492004.78,5904965.85],[32492033.62,5904986.73],[32492081.94,5904929.31]],[[32491895.26,5905259.21],[32491890.41,5905256.83],[32491846.36,5905308.75],[32491895.33,5905347.2],[32491949.23,5905286.69],[32491933.61,5905271.2],[32491923.28,5905283.61],[32491895.26,5905259.21]],[[32494552.81,5904574.14],[32494529.85,5904591.24],[32494537.62,5904603.06],[32494541.33,5904611.12],[32494540.61,5904613.67],[32494515.42,5904625.6],[32494521.85,5904629.54],[32494543.88,5904687.19],[32494595.9,5904664.4],[32494603.42,5904661.12],[32494627.06,5904650.76],[32494614.637,5904625.854],[32494642.167,5904618.044],[32494628.59,5904582.62],[32494613.12,5904588.56],[32494596.84,5904552.47],[32494582.98,5904561.38],[32494574.08,5904563.9],[32494569.13,5904561.79],[32494552.81,5904574.14]],[[32494852.78,5904560.5],[32494859.0,5904557.29],[32494854.72,5904375.34],[32494850.02,5904374.54],[32494847.56,5904235.57],[32494841.93,5904198.58],[32494827.21,5904158.83],[32494815.54,5904136.23],[32494791.24,5904089.01],[32494744.3,5903997.03],[32494717.63,5903951.88],[32494678.99,5903879.31],[32494620.37,5903767.62],[32494610.22,5903747.9],[32494507.73,5903559.41],[32494463.453,5903475.689],[32494460.18,5903469.41],[32494453.41,5903473.07],[32494455.6,5903479.95],[32494456.513,5903481.902],[32494459.79,5903487.74],[32494488.9,5903543.27],[32494564.99,5903688.39],[32494584.32,5903723.58],[32494599.54,5903751.26],[32494601.18,5903754.47],[32494604.52,5903761.01],[32494644.72,5903836.43],[32494667.74,5903879.61],[32494670.47,5903884.05],[32494672.37,5903887.15],[32494700.22,5903938.92],[32494706.86,5903951.26],[32494708.98,5903955.92],[32494710.1,5903958.38],[32494731.76,5903998.67],[32494734.11,5904003.51],[32494737.75,5904011.03],[32494780.351,5904087.134],[32494810.46,5904142.16],[32494831.66,5904211.89],[32494837.24,5904252.6],[32494838.09,5904292.08],[32494839.04,5904358.53],[32494839.2,5904366.54],[32494838.64,5904378.8],[32494839.36,5904385.42],[32494842.34,5904512.04],[32494851.98,5904512.89],[32494852.42,5904539.67],[32494852.78,5904560.5]],[[32494098.0,5903543.29],[32494139.15,5903516.28],[32494124.02,5903492.2],[32494097.35,5903445.91],[32494091.463,5903442.83],[32494084.65,5903446.06],[32494088.5,5903472.92],[32494033.49,5903507.05],[32494070.03,5903555.42],[32494092.27,5903542.33],[32494099.49,5903546.75],[32494098.0,5903543.29]],[[32492925.4039,5903382.7762],[32492917.8493,5903375.2657],[32492958.9263,5903313.6484],[32492927.3813,5903296.124],[32492923.0743,5903293.7313],[32492800.9689,5903225.8972],[32492729.9264,5903371.2168],[32492838.5034,5903468.9334],[32492840.0275,5903470.3051],[32492859.1,5903487.4698],[32492925.4039,5903382.7762]],[[32494205.12,5903387.03],[32494228.956,5903428.273],[32494232.48,5903434.37],[32494269.58,5903412.25],[32494252.949,5903383.571],[32494240.55,5903361.87],[32494205.12,5903387.03]],[[32494182.3,5903749.72],[32494157.329,5903681.842],[32494133.523,5903627.238],[32494129.84,5903618.79],[32494062.2,5903665.33],[32494093.14,5903717.54],[32494082.349,5903725.204],[32494124.999,5903789.715],[32494182.3,5903749.72]],[[32490978.68,5903762.14],[32490928.77,5903709.4],[32490923.37,5903715.3],[32490920.04,5903724.48],[32490893.31,5903753.88],[32490860.88,5903785.13],[32490893.91,5903822.85],[32490931.69,5903786.19],[32490940.55,5903795.35],[32490946.1,5903796.67],[32490978.68,5903762.14]],[[32494331.32,5903974.2],[32494336.34,5903952.11],[32494344.22,5903946.41],[32494321.19,5903914.91],[32494294.7,5903876.73],[32494255.93,5903910.57],[32494235.04,5903926.86],[32494276.49,5903994.07],[32494260.28,5904005.16],[32494298.72,5904072.46],[32494364.69,5904025.83],[32494331.32,5903974.2]],[[32494370.09,5904022.42],[32494415.45,5904089.17],[32494420.22,5904086.83],[32494440.17,5904116.52],[32494459.15,5904103.11],[32494502.67,5904073.74],[32494461.998,5904017.028],[32494433.83,5903978.63],[32494370.09,5904022.42]],[[32494049.51,5904103.58],[32494022.47,5904105.11],[32493973.19,5904140.12],[32494019.34,5904203.91],[32494076.03,5904163.55],[32494063.41,5904141.18],[32494073.49,5904133.93],[32494049.51,5904103.58]],[[32494497.82,5904162.8],[32494466.37,5904185.37],[32494515.07,5904283.24],[32494508.07,5904288.59],[32494510.7,5904293.52],[32494564.08,5904261.5],[32494554.76,5904224.96],[32494583.04,5904208.34],[32494585.34,5904191.08],[32494557.01,5904131.24],[32494550.59,5904130.0],[32494546.98,5904127.27],[32494497.82,5904162.8]],[[32489925.4826,5904241.6121],[32489917.693,5904239.8812],[32489910.7689,5904241.6123],[32489901.2484,5904248.5366],[32489898.6519,5904251.9987],[32489899.9502,5904255.0279],[32490040.5982,5904413.4148],[32490044.9257,5904412.5492],[32490050.3992,5904409.3563],[32490055.3118,5904406.4905],[32490087.9676,5904380.012],[32490119.359,5904354.5588],[32490011.1685,5904254.1608],[32490006.4082,5904254.5937],[32489982.6069,5904276.2318],[32489976.1156,5904277.0974],[32489962.7001,5904273.6356],[32489949.7173,5904264.5479],[32489925.4826,5904241.6121]],[[32492325.26,5904460.86],[32492281.35,5904429.03],[32492269.47,5904443.35],[32492314.28,5904473.89],[32492325.26,5904460.86]],[[32488829.3,5903142.17],[32488905.36,5903129.1],[32488886.64,5903012.49],[32488933.84,5902998.31],[32488988.53,5902987.25],[32489118.54,5902967.86],[32489141.38,5902964.84],[32489306.61,5902942.99],[32489437.78,5902925.71],[32489434.53,5902916.64],[32489413.73,5902920.37],[32489325.31,5902931.53],[32489229.33,5902944.68],[32489122.32,5902957.87],[32489052.05,5902968.64],[32488948.97,5902986.83],[32488810.61,5903025.76],[32488805.63,5903033.75],[32488813.2,5903062.78],[32488821.55,5903097.28],[32488829.3,5903142.17]],[[32489763.32,5902229.17],[32489763.61,5902235.27],[32489826.19,5902247.28],[32489831.76,5902224.5],[32489842.0,5902225.93],[32489844.11,5902208.67],[32489772.24,5902194.82],[32489763.32,5902229.17]],[[32489778.59,5901998.82],[32489781.17,5902008.76],[32489766.63,5902073.49],[32489771.48,5902074.43],[32489750.31,5902164.98],[32489756.14,5902161.89],[32489766.23,5902150.13],[32489842.03,5902162.06],[32489848.6,5902139.66],[32489851.63,5902116.39],[32489793.6,5902102.56],[32489798.89,5902079.76],[32489890.76,5902096.8],[32489903.51,5902041.18],[32489910.34,5902011.57],[32489930.4,5901924.94],[32489797.31,5901902.46],[32489785.38,5901962.31],[32489798.215,5901962.538],[32489807.345,5901976.155],[32489852.064,5901983.034],[32489851.09,5901988.53],[32489860.1,5901990.89],[32489857.84,5902001.91],[32489780.97,5901987.04],[32489778.59,5901998.82]],[[32490111.87,5900682.1],[32490121.01,5900700.12],[32490127.87,5900692.5],[32490133.33,5900691.23],[32490134.6,5900689.07],[32490125.96,5900671.93],[32490111.87,5900682.1]],[[32490147.0,5900515.28],[32490137.28,5900556.54],[32490159.11,5900621.12],[32490199.98,5900622.43],[32490200.49,5900635.64],[32490247.47,5900640.93],[32490248.697,5900632.018],[32490294.424,5900607.925],[32490296.62,5900603.13],[32490292.14,5900589.23],[32490264.62,5900552.45],[32490242.11,5900546.38],[32490212.66,5900544.29],[32490176.08,5900510.04],[32490155.62,5900463.57],[32490147.0,5900515.28]],[[32493640.41,5903086.87],[32493685.98,5903153.17],[32493691.45,5903152.18],[32493749.066,5903103.78],[32493760.309,5903101.248],[32493757.23,5903094.0],[32493725.09,5903054.34],[32493722.61,5903045.94],[32493714.41,5903036.49],[32493640.41,5903086.87]],[[32494512.21,5903037.02],[32494526.95,5903059.58],[32494531.66,5903061.43],[32494542.27,5903054.96],[32494552.09,5903058.53],[32494558.42,5903056.68],[32494597.43,5903031.98],[32494665.547,5902980.329],[32494655.08,5902957.3],[32494650.897,5902936.244],[32494639.241,5902934.702],[32494616.517,5902960.726],[32494613.24,5902953.59],[32494609.46,5902956.68],[32494601.58,5902945.35],[32494585.69,5902955.68],[32494547.57,5902980.12],[32494545.04,5903017.1],[32494512.21,5903037.02]],[[32494342.6,5902903.48],[32494395.87,5902872.65],[32494375.6,5902843.68],[32494360.19,5902817.08],[32494343.26,5902791.25],[32494329.629,5902797.211],[32494314.867,5902785.166],[32494287.46,5902803.299],[32494292.18,5902813.92],[32494280.83,5902819.854],[32494246.251,5902836.961],[32494280.61,5902900.4],[32494324.32,5902871.4],[32494342.6,5902903.48]],[[32494094.18,5902757.56],[32494142.25,5902732.86],[32494122.83,5902687.12],[32494086.93,5902704.16],[32494100.95,5902732.32],[32494094.18,5902757.56]],[[32493991.26,5902661.52],[32494004.81,5902685.53],[32494063.8,5902656.82],[32494071.9,5902641.49],[32494092.6,5902629.17],[32494095.39,5902627.51],[32494091.61,5902618.4],[32494078.75,5902592.02],[32494074.18,5902580.26],[32494062.01,5902584.21],[32494044.12,5902561.82],[32494036.76,5902538.18],[32493940.45,5902580.98],[32493967.48,5902625.53],[32493918.75,5902637.37],[32493932.13,5902691.61],[32493991.26,5902661.52]],[[32493113.69,5902523.88],[32493071.32,5902492.86],[32493005.136,5902447.601],[32492906.089,5902367.927],[32492869.0,5902420.36],[32492832.74,5902470.8],[32492878.56,5902499.92],[32492900.84,5902513.24],[32492935.93,5902468.23],[32492945.03,5902475.52],[32492938.1,5902486.02],[32492990.97,5902524.03],[32492946.79,5902589.74],[32493169.523,5902738.335],[32493177.979,5902724.923],[32493196.499,5902703.906],[32493217.685,5902670.64],[32493208.08,5902647.17],[32493232.592,5902611.348],[32493250.97,5902591.491],[32493221.029,5902602.789],[32493113.69,5902523.88]],[[32494052.56,5902450.11],[32494087.59,5902515.23],[32494090.887,5902513.848],[32494104.87,5902507.99],[32494120.08,5902487.69],[32494121.79,5902481.32],[32494128.06,5902472.99],[32494139.82,5902467.52],[32494145.27,5902478.89],[32494175.38,5902465.47],[32494171.21,5902456.51],[32494181.45,5902451.82],[32494169.61,5902425.29],[32494236.75,5902394.05],[32494235.351,5902392.624],[32494218.16,5902366.2],[32494185.535,5902377.185],[32494177.198,5902362.862],[32494166.936,5902368.848],[32494163.943,5902375.689],[32494173.136,5902406.046],[32494120.545,5902431.7],[32494114.351,5902419.953],[32494052.56,5902450.11]],[[32494029.42,5902410.52],[32494145.365,5902342.637],[32494109.022,5902269.033],[32494082.64,5902288.78],[32494053.46,5902305.49],[32494042.93,5902306.63],[32494009.203,5902326.368],[32494019.227,5902341.921],[32493954.03,5902383.06],[32493982.902,5902427.621],[32493989.4,5902434.72],[32494029.42,5902410.52]],[[32493559.93,5902263.31],[32493551.77,5902247.9],[32493554.95,5902246.39],[32493533.04,5902196.62],[32493479.52,5902222.48],[32493505.86,5902275.45],[32493511.5,5902288.05],[32493559.93,5902263.31]],[[32494026.0,5902215.35],[32494124.61,5902149.4],[32494120.59,5902141.7],[32494110.75,5902147.91],[32494091.5,5902117.27],[32493993.25,5902175.53],[32493993.9,5902177.18],[32493991.92,5902181.39],[32493995.35,5902182.37],[32494004.9,5902195.84],[32494011.71,5902190.82],[32494026.0,5902215.35]],[[32492417.96,5902151.82],[32492346.44,5902231.31],[32492388.9,5902266.98],[32492380.33,5902276.58],[32492395.27,5902284.91],[32492440.27,5902320.85],[32492442.45,5902316.55],[32492480.55,5902255.39],[32492417.96,5902151.82]],[[32492580.95,5902332.8],[32492577.17,5902327.7],[32492547.93,5902354.44],[32492606.649,5902409.873],[32492625.54,5902433.37],[32492610.98,5902448.93],[32492617.55,5902453.39],[32492602.15,5902477.81],[32492634.21,5902498.43],[32492648.67,5902473.62],[32492639.86,5902420.37],[32492635.48,5902421.57],[32492628.76,5902427.55],[32492627.942,5902422.724],[32492604.4,5902300.8],[32492580.95,5902332.8]],[[32493662.57,5902365.79],[32493688.44,5902408.37],[32493809.72,5902345.88],[32493805.66,5902337.81],[32493792.01,5902306.62],[32493786.61,5902295.55],[32493662.57,5902365.79]],[[32493194.16,5902207.82],[32493178.38,5902219.49],[32493201.4,5902269.58],[32493224.09,5902256.24],[32493229.97,5902251.7],[32493322.22,5902206.5],[32493333.94,5902201.61],[32493306.51,5902159.55],[32493230.61,5902210.56],[32493217.13,5902191.06],[32493194.16,5902207.82]],[[32493174.97,5901992.66],[32493143.03,5902014.39],[32493195.35,5902085.53],[32493251.84,5902044.32],[32493256.21,5902037.85],[32493207.39,5901971.8],[32493174.97,5901992.66]],[[32493641.77,5902013.34],[32493647.069,5902010.724],[32493663.93,5902002.4],[32493690.69,5901993.64],[32493672.46,5901946.21],[32493628.71,5901962.65],[32493620.85,5901967.13],[32493641.77,5902013.34]],[[32492506.63,5901920.27],[32492564.26,5901848.88],[32492524.68,5901801.02],[32492515.56,5901807.41],[32492493.08,5901838.0],[32492490.2,5901816.55],[32492481.25,5901794.53],[32492477.97,5901801.24],[32492426.58,5901914.64],[32492479.49,5901962.7],[32492506.63,5901920.27]],[[32493358.8,5901817.56],[32493489.01,5901757.43],[32493506.47,5901741.08],[32493494.75,5901731.74],[32493451.99,5901688.89],[32493398.56,5901724.64],[32493407.14,5901742.14],[32493391.04,5901749.58],[32493375.79,5901748.88],[32493369.84,5901753.1],[32493345.12,5901794.49],[32493358.8,5901817.56]],[[32493698.16,5901710.41],[32493703.56,5901729.57],[32493649.03,5901747.73],[32493670.23,5901806.14],[32493742.75,5901804.62],[32493791.81,5901798.4],[32493818.97,5901791.83],[32493797.25,5901712.92],[32493788.11,5901716.01],[32493772.23,5901685.07],[32493747.36,5901691.4],[32493736.34,5901668.07],[32493725.3,5901671.43],[32493729.67,5901684.11],[32493698.16,5901710.41]],[[32492293.11,5901679.27],[32492292.45,5901673.82],[32492314.71,5901649.2],[32492308.56,5901645.11],[32492313.749,5901640.436],[32492375.07,5901563.53],[32492316.48,5901526.58],[32492294.76,5901557.81],[32492280.13,5901550.25],[32492257.52,5901582.86],[32492229.62,5901562.15],[32492218.51,5901578.96],[32492198.404,5901564.201],[32492190.225,5901575.283],[32492206.759,5901589.665],[32492187.05,5901608.38],[32492236.05,5901642.25],[32492199.74,5901697.44],[32492261.88,5901743.06],[32492293.11,5901679.27]],[[32492502.17,5901579.55],[32492510.31,5901584.08],[32492560.38,5901649.3],[32492567.7,5901639.24],[32492613.48,5901589.99],[32492569.26,5901528.3],[32492502.17,5901579.55]],[[32493392.74,5901617.76],[32493398.81,5901614.4],[32493523.8,5901545.85],[32493596.15,5901506.25],[32493561.66,5901452.82],[32493537.99,5901414.9],[32493534.31,5901411.78],[32493475.47,5901436.16],[32493305.89,5901507.74],[32493290.25,5901487.71],[32493286.81,5901483.3],[32493278.73,5901486.96],[32493198.8,5901526.28],[32493225.27,5901569.86],[32493263.05,5901544.63],[32493281.95,5901570.73],[32493329.52,5901537.51],[32493351.53,5901565.39],[32493392.74,5901617.76]],[[32492647.53,5901470.55],[32492595.36,5901418.04],[32492581.47,5901438.06],[32492548.202,5901496.375],[32492572.189,5901526.096],[32492647.53,5901470.55]],[[32492701.13,5901743.35],[32492704.08,5901750.46],[32492662.55,5901781.89],[32492693.18,5901815.04],[32492711.16,5901801.76],[32492765.55,5901807.76],[32492765.46,5901815.25],[32492769.65,5901815.23],[32492779.15,5901810.74],[32492780.28,5901808.08],[32492775.65,5901794.88],[32492775.23,5901784.96],[32492789.7,5901781.48],[32492757.32,5901723.3],[32492753.5,5901720.39],[32492726.02,5901741.34],[32492720.2,5901733.2],[32492701.13,5901743.35]],[[32492494.92,5901304.26],[32492508.4,5901279.17],[32492490.94,5901266.16],[32492484.18,5901260.14],[32492461.34,5901251.31],[32492434.06,5901231.88],[32492407.84,5901287.99],[32492415.64,5901293.19],[32492428.93,5901295.08],[32492438.22,5901301.03],[32492448.53,5901286.29],[32492494.92,5901304.26]],[[32492816.86,5901254.21],[32492840.14,5901222.11],[32492848.828,5901205.191],[32492844.056,5901187.729],[32492885.95,5901134.63],[32492882.76,5901129.94],[32492864.16,5901115.67],[32492856.57,5901095.25],[32492852.11,5901092.73],[32492834.0,5901103.34],[32492824.95,5901097.29],[32492812.19,5901113.73],[32492801.323,5901122.258],[32492762.09,5901100.22],[32492738.562,5901141.876],[32492766.467,5901162.911],[32492740.12,5901201.25],[32492816.86,5901254.21]],[[32493504.45,5901227.05],[32493646.115,5901156.307],[32493622.481,5901117.741],[32493615.28,5901090.89],[32493603.92,5901097.93],[32493579.05,5901113.78],[32493561.27,5901085.52],[32493507.243,5901114.714],[32493480.514,5901113.23],[32493478.169,5901138.604],[32493473.48,5901141.04],[32493429.51,5901165.11],[32493424.09,5901176.82],[32493424.91,5901189.65],[32493441.16,5901189.45],[32493475.79,5901176.22],[32493504.45,5901227.05]],[[32493554.18,5901060.27],[32493516.81,5900993.864],[32493506.332,5901003.822],[32493483.7,5901003.28],[32493476.07,5901001.27],[32493463.5,5901003.11],[32493457.39,5901000.59],[32493442.56,5901007.51],[32493415.38,5901008.64],[32493409.04,5901010.83],[32493395.82,5901038.96],[32493357.9,5901053.74],[32493327.495,5901090.173],[32493350.78,5901112.84],[32493366.37,5901103.89],[32493449.92,5901065.54],[32493476.35,5901097.96],[32493554.18,5901060.27]],[[32492175.78,5900991.03],[32492106.28,5900954.1],[32492095.32,5900947.8],[32492081.851,5900935.637],[32492054.883,5900898.609],[32492039.12,5900868.81],[32491996.74,5900954.73],[32491987.81,5900974.98],[32492069.08,5901015.26],[32492074.27,5901017.89],[32492079.58,5901009.6],[32492103.14,5901024.38],[32492113.14,5901015.44],[32492148.12,5901036.56],[32492175.78,5900991.03]],[[32492512.5,5900890.25],[32492547.89,5900911.45],[32492586.89,5900845.26],[32492566.74,5900832.85],[32492553.72,5900825.0],[32492548.35,5900832.63],[32492512.5,5900890.25]],[[32491834.67,5900817.84],[32491793.1,5900798.62],[32491784.26,5900829.83],[32491767.3,5900865.2],[32491803.71,5900879.74],[32491829.22,5900836.27],[32491834.67,5900817.84]],[[32491257.93,5900860.88],[32491254.76,5900854.28],[32491216.78,5900847.84],[32491210.95,5900869.44],[32491202.32,5900870.34],[32491197.37,5900899.05],[32491248.84,5900908.39],[32491257.93,5900860.88]],[[32491914.35,5900915.6],[32491944.11,5900931.75],[32491966.37,5900885.27],[32491936.14,5900867.4],[32491914.35,5900915.6]],[[32491882.7,5900898.32],[32491903.44,5900860.79],[32491847.88,5900834.72],[32491825.55,5900887.08],[32491872.79,5900905.58],[32491882.7,5900898.32]],[[32491652.51,5900970.94],[32491636.0,5901010.37],[32491628.63,5901008.22],[32491622.28,5901010.77],[32491606.04,5901034.15],[32491625.59,5901042.9],[32491680.33,5901059.48],[32491684.23,5901055.84],[32491708.37,5900992.48],[32491711.29,5900989.05],[32491708.63,5900987.05],[32491700.12,5900991.63],[32491652.51,5900970.94]],[[32492597.25,5901169.27],[32492606.12,5901167.2],[32492624.14,5901133.72],[32492557.26,5901105.18],[32492551.0,5901108.49],[32492524.84,5901109.87],[32492514.06,5901113.48],[32492501.52,5901122.16],[32492496.04,5901130.21],[32492530.9,5901151.0],[32492517.93,5901176.2],[32492529.12,5901182.82],[32492544.32,5901155.02],[32492555.12,5901160.89],[32492553.78,5901164.5],[32492579.9,5901184.85],[32492597.25,5901169.27]],[[32491856.24,5901116.76],[32491837.31,5901170.71],[32491892.22,5901185.72],[32491888.45,5901196.31],[32491915.79,5901207.35],[32491922.64,5901193.36],[32491932.42,5901197.54],[32491938.14,5901184.33],[32491942.84,5901186.35],[32491962.62,5901152.79],[32491921.99,5901128.71],[32491914.88,5901125.79],[32491886.95,5901133.7],[32491856.24,5901116.76]],[[32491977.013,5901228.989],[32492023.71,5901258.11],[32492054.08,5901202.65],[32492006.86,5901178.26],[32492004.58,5901180.69],[32491977.013,5901228.989]],[[32491218.4,5900718.9],[32491289.39,5900732.93],[32491283.05,5900768.5],[32491326.7,5900776.66],[32491332.05,5900741.78],[32491336.5,5900725.9],[32491333.57,5900710.65],[32491246.21,5900695.63],[32491238.21,5900717.1],[32491220.18,5900714.07],[32491218.4,5900718.9]],[[32491544.589,5900697.61],[32491626.52,5900748.14],[32491639.73,5900710.46],[32491646.53,5900684.5],[32491634.51,5900687.09],[32491618.77,5900683.29],[32491623.662,5900661.869],[32491574.669,5900650.902],[32491571.892,5900666.642],[32491549.67,5900661.318],[32491544.589,5900697.61]],[[32492624.09,5900703.47],[32492649.99,5900659.96],[32492659.31,5900644.11],[32492649.14,5900637.85],[32492597.66,5900618.61],[32492645.02,5900534.07],[32492696.06,5900558.88],[32492709.89,5900524.78],[32492694.48,5900515.69],[32492696.75,5900510.85],[32492677.14,5900500.4],[32492678.52,5900497.85],[32492672.67,5900494.19],[32492682.33,5900477.36],[32492649.55,5900463.28],[32492647.79,5900467.87],[32492640.32,5900472.22],[32492628.61,5900469.09],[32492625.17,5900465.29],[32492617.92,5900462.15],[32492606.23,5900461.82],[32492601.15,5900463.87],[32492581.63,5900503.6],[32492568.37,5900522.2],[32492569.25,5900549.39],[32492556.54,5900580.32],[32492557.96,5900585.38],[32492575.85,5900607.68],[32492572.72,5900620.77],[32492589.37,5900633.1],[32492563.57,5900676.88],[32492624.09,5900703.47]],[[32492005.76,5900508.09],[32491965.25,5900489.59],[32491914.83,5900469.83],[32491883.72,5900461.73],[32491877.88,5900484.35],[32491867.66,5900524.04],[32491949.14,5900553.63],[32491959.54,5900508.77],[32491991.92,5900520.33],[32492005.76,5900508.09]],[[32491103.09,5900362.82],[32491110.52,5900362.87],[32491214.39,5900378.75],[32491351.816,5900402.667],[32491356.61,5900403.56],[32491359.65,5900388.74],[32491295.29,5900381.39],[32491267.45,5900377.41],[32491220.34,5900367.8],[32491118.62,5900351.29],[32491101.35,5900347.99],[32491103.09,5900362.82]],[[32491377.23,5900316.34],[32491375.13,5900327.94],[32491411.08,5900329.04],[32491433.82,5900305.72],[32491438.5,5900265.75],[32491426.02,5900245.77],[32491385.78,5900269.31],[32491377.23,5900316.34]],[[32492204.77,5900296.7],[32492244.48,5900225.26],[32492257.98,5900231.68],[32492296.49,5900171.23],[32492266.43,5900158.21],[32492292.15,5900121.42],[32492235.52,5900087.96],[32492216.66,5900117.6],[32492229.66,5900142.24],[32492210.98,5900170.89],[32492192.96,5900206.04],[32492157.79,5900231.12],[32492167.66,5900233.34],[32492146.12,5900275.48],[32492164.59,5900285.82],[32492167.1,5900282.0],[32492204.77,5900296.7]],[[32492068.43,5900075.19],[32492080.18,5900058.38],[32492058.91,5900046.27],[32491991.13,5899998.15],[32491970.49,5900041.82],[32491955.98,5900064.87],[32491963.75,5900072.72],[32491956.19,5900084.95],[32491967.15,5900095.19],[32491954.4,5900112.14],[32491948.62,5900128.31],[32491950.57,5900138.97],[32491976.31,5900158.42],[32491991.7,5900166.54],[32491996.04,5900168.0],[32492010.56,5900145.58],[32492018.34,5900126.48],[32492019.95,5900116.19],[32492038.04,5900127.41],[32492068.43,5900075.19]],[[32491116.27,5900107.77],[32491100.9,5900077.17],[32491080.06,5900043.65],[32491020.15,5900105.07],[32491024.34,5900107.23],[32491040.59,5900108.36],[32491040.72,5900126.14],[32491037.8,5900141.25],[32491013.3,5900137.72],[32491027.41,5900189.66],[32491029.32,5900191.18],[32491039.99,5900264.34],[32491094.23,5900267.68],[32491092.43,5900207.51],[32491108.8,5900206.98],[32491108.04,5900192.24],[32491117.69,5900192.11],[32491116.27,5900107.77]],[[32491364.16,5900174.19],[32491338.76,5900187.43],[32491310.45,5900192.54],[32491310.58,5900210.32],[32491312.37,5900250.84],[32491346.02,5900252.58],[32491349.33,5900265.41],[32491366.73,5900288.51],[32491371.68,5900283.55],[32491381.2,5900262.45],[32491388.04,5900225.6],[32491390.45,5900225.47],[32491390.32,5900204.52],[32491392.73,5900198.17],[32491409.49,5900199.29],[32491412.66,5900172.74],[32491396.67,5900170.85],[32491400.98,5900149.37],[32491359.95,5900138.37],[32491364.16,5900174.19]],[[32493168.9,5906480.53],[32493172.09,5906483.04],[32493177.86,5906475.25],[32493208.6,5906450.6],[32493212.29,5906451.84],[32493225.13,5906441.32],[32493216.77,5906429.59],[32493233.29,5906417.14],[32493283.21,5906380.9],[32493264.94,5906355.44],[32493292.19,5906337.55],[32493332.39,5906306.6],[32493334.44,5906308.74],[32493370.5,5906284.3],[32493402.02,5906261.18],[32493404.6,5906265.84],[32493438.87,5906240.15],[32493470.79,5906219.68],[32493462.43,5906208.09],[32493451.36,5906190.55],[32493445.24,5906174.5],[32493435.78,5906167.6],[32493367.87,5906218.2],[32493374.55,5906228.18],[32493337.75,5906257.07],[32493331.4,5906254.84],[32493308.09,5906272.82],[32493294.13,5906260.14],[32493227.56,5906307.19],[32493216.15,5906322.02],[32493225.13,5906332.2],[32493166.71,5906368.27],[32493134.7,5906392.67],[32493144.97,5906405.77],[32493119.23,5906421.74],[32493139.66,5906448.45],[32493152.53,5906454.04],[32493155.41,5906462.39],[32493164.06,5906478.67],[32493168.11,5906477.87],[32493168.9,5906480.53]],[[32494115.39,5905679.08],[32494162.46,5905648.18],[32494185.85,5905635.02],[32494180.57,5905624.58],[32494168.74,5905603.08],[32494159.11,5905583.82],[32494157.73,5905584.74],[32494089.51,5905626.34],[32494115.39,5905679.08]]]],"crs":{"type":"EPSG","properties":{"code":4647}}},"properties":{"BODEN":"Hochmoor","OBJECTID":18776,"KATEGORIE":"Hochmoor","UP_DATE":"2022-05-11T00:00:00.0000000"}}]}