{"type": "FeatureCollection","features":[{"type":"Feature","geometry":{"type":"Polygon","coordinates":[[[32499929.2384,5916598.6706],[32488849.1567,5916611.7684],[32477769.1071,5916650.7406],[32477717.0273,5905527.2137],[32477665.0152,5894403.8749],[32485102.4202,5894377.7822],[32485114.5131,5894386.4163],[32485112.812,5894377.7457],[32485625.3477,5894375.9476],[32485675.3531,5894423.8452],[32485746.6995,5894534.8439],[32485760.9779,5894563.3995],[32485819.1064,5894627.9847],[32485877.2347,5894686.1114],[32485977.3436,5894731.3201],[32486267.9822,5894812.0485],[32486432.6767,5894824.9633],[32486486.0744,5894833.4576],[32486574.7662,5894847.5663],[32486726.5438,5894889.545],[32486858.9465,5894954.1292],[32486968.7438,5895038.0894],[32487259.3855,5895338.4103],[32487398.2478,5895535.3957],[32487472.5235,5895664.5667],[32487530.6521,5895748.5279],[32487601.698,5895822.8007],[32487706.0205,5895903.0466],[32487706.3382,5895902.1219],[32487772.8523,5895922.9066],[32487885.8782,5895945.51],[32488018.2797,5895948.7373],[32488150.681,5895948.7354],[32488308.9164,5895913.2108],[32488457.4639,5895884.1449],[32488589.8648,5895845.3914],[32488728.7244,5895832.4722],[32488864.3554,5895838.9287],[32489074.2602,5895874.4482],[32489400.421,5895961.6345],[32489904.1953,5896174.7615],[32490301.4018,5896362.0554],[32490583.6827,5896549.0605],[32490583.7988,5896549.4228],[32490592.8854,5896577.7846],[32490602.1134,5896606.5881],[32490609.1217,5896635.7],[32490615.7191,5896677.2274],[32490619.0996,5896722.1296],[32490619.1076,5896755.1638],[32490616.3217,5896784.9237],[32490607.3563,5896838.4757],[32490592.5284,5896927.0451],[32490586.4435,5896974.5922],[32490586.9478,5896989.7448],[32490589.451,5897001.3446],[32490595.288,5897012.061],[32490603.7604,5897020.5642],[32490617.585,5897026.176],[32490635.6758,5897028.1221],[32490653.5375,5897026.1558],[32490670.9548,5897021.1515],[32490684.274,5897014.5692],[32490691.1957,5897010.2468],[32490733.7066,5896983.6998],[32490807.3737,5896931.6976],[32490821.2685,5896926.6017],[32490833.4681,5896926.6],[32490845.1128,5896929.6462],[32490856.136,5896934.9173],[32490875.8082,5896953.0029],[32490923.8204,5897006.9642],[32490954.8716,5897044.7678],[32490975.3673,5897069.7204],[32490999.4563,5897096.0963],[32491009.9673,5897102.0357],[32491033.1892,5897108.975],[32491051.0663,5897111.5452],[32491066.0666,5897110.525],[32491082.9541,5897104.2846],[32491102.6015,5897089.9397],[32491113.7947,5897076.0504],[32491126.5516,5897052.3136],[32491141.0703,5897015.8578],[32491148.1635,5896989.6927],[32491151.3544,5896962.9567],[32491151.63,5896926.9422],[32491149.0151,5896866.6228],[32491146.2133,5896852.0847],[32491141.8937,5896841.0838],[32491130.5228,5896823.1007],[32491113.2811,5896802.1443],[32491099.7218,5896790.2811],[32491079.2341,5896777.7243],[32491124.8788,5896736.6423],[32491139.6222,5896702.2413],[32491203.2822,5896734.2534],[32491205.5407,5896735.3434],[32491208.2399,5896736.6541],[32491210.9349,5896737.9722],[32491213.6251,5896739.2989],[32491216.3099,5896740.6353],[32491218.9885,5896741.9825],[32491221.6605,5896743.3417],[32491224.325,5896744.714],[32491226.9815,5896746.1005],[32491229.6294,5896747.5024],[32491232.268,5896748.9209],[32491234.8967,5896750.3569],[32491237.5149,5896751.8118],[32491240.1225,5896753.2854],[32491242.7234,5896754.7713],[32491245.3183,5896756.2682],[32491247.9075,5896757.7757],[32491250.4912,5896759.2933],[32491253.0695,5896760.8207],[32491255.6426,5896762.3575],[32491258.2107,5896763.9034],[32491260.7741,5896765.4579],[32491263.3328,5896767.0207],[32491265.8872,5896768.5915],[32491268.4373,5896770.1697],[32491270.9834,5896771.7552],[32491273.5257,5896773.3474],[32491276.0643,5896774.946],[32491278.5994,5896776.5506],[32491281.1313,5896778.1609],[32491283.6601,5896779.7764],[32491286.186,5896781.3968],[32491288.7093,5896783.0218],[32491291.23,5896784.6509],[32491293.7484,5896786.2837],[32491296.2647,5896787.9199],[32491298.7791,5896789.5592],[32491301.2917,5896791.201],[32491303.8027,5896792.8452],[32491306.3124,5896794.4912],[32491308.8209,5896796.1386],[32491311.3285,5896797.7873],[32491313.8352,5896799.4366],[32491316.3414,5896801.0863],[32491318.8471,5896802.736],[32491321.3526,5896804.3854],[32491323.8581,5896806.0339],[32491326.3638,5896807.6813],[32491328.8691,5896809.3286],[32491331.3724,5896810.9789],[32491333.8738,5896812.6322],[32491336.3733,5896814.2886],[32491338.8709,5896815.9479],[32491341.3666,5896817.6101],[32491343.8605,5896819.2751],[32491346.3527,5896820.9427],[32491348.8431,5896822.6131],[32491351.3319,5896824.286],[32491353.8191,5896825.9614],[32491356.3046,5896827.6393],[32491358.7887,5896829.3195],[32491361.2712,5896831.002],[32491363.7522,5896832.6867],[32491366.2319,5896834.3736],[32491368.7102,5896836.0626],[32491371.1871,5896837.7535],[32491373.6627,5896839.4464],[32491376.1371,5896841.1411],[32491378.6103,5896842.8377],[32491381.0824,5896844.5359],[32491383.5533,5896846.2358],[32491386.0231,5896847.9372],[32491388.4919,5896849.6402],[32491390.9598,5896851.3446],[32491393.4266,5896853.0503],[32491395.8926,5896854.7574],[32491398.3577,5896856.4656],[32491400.822,5896858.175],[32491403.2855,5896859.8854],[32491405.7483,5896861.5969],[32491408.2103,5896863.3092],[32491410.6718,5896865.0224],[32491413.1326,5896866.7364],[32491415.5929,5896868.4512],[32491418.0526,5896870.1665],[32491420.5119,5896871.8824],[32491422.97,5896873.5999],[32491425.4248,5896875.3223],[32491427.8764,5896877.0496],[32491430.3249,5896878.7814],[32491432.7705,5896880.5176],[32491435.2134,5896882.2578],[32491437.6538,5896884.0017],[32491440.0919,5896885.749],[32491442.5279,5896887.4994],[32491444.962,5896889.2527],[32491447.3945,5896891.0084],[32491449.8254,5896892.7664],[32491452.255,5896894.5263],[32491454.6835,5896896.2878],[32491457.111,5896898.0506],[32491459.5379,5896899.8145],[32491461.9642,5896901.5791],[32491464.3902,5896903.3442],[32491466.8161,5896905.1093],[32491469.2421,5896906.8744],[32491471.6683,5896908.6389],[32491474.095,5896910.4027],[32491476.5224,5896912.1655],[32491478.9506,5896913.9268],[32491481.3798,5896915.6866],[32491483.8104,5896917.4444],[32491486.2423,5896919.1999],[32491488.6759,5896920.953],[32491489.3729,5896921.4538],[32491513.1461,5896938.2778],[32491558.5103,5896967.5016],[32491597.8434,5896989.4239],[32491619.7458,5896999.3418],[32491628.3256,5897001.4305],[32491643.167,5896998.938],[32491641.3988,5896984.0589],[32491632.6,5896976.1781],[32491577.0053,5896940.6287],[32491576.8383,5896940.5236],[32491574.2985,5896938.9277],[32491571.7575,5896937.3334],[32491569.2155,5896935.7405],[32491566.6726,5896934.1488],[32491564.1291,5896932.5581],[32491561.5849,5896930.9682],[32491559.0402,5896929.3789],[32491556.4953,5896927.79],[32491553.9502,5896926.2013],[32491551.405,5896924.6126],[32491548.86,5896923.0237],[32491546.3152,5896921.4344],[32491543.7708,5896919.8446],[32491541.227,5896918.2539],[32491538.6838,5896916.6623],[32491536.1414,5896915.0695],[32491533.6,5896913.4754],[32491531.0597,5896911.8796],[32491528.5206,5896910.2821],[32491525.9829,5896908.6826],[32491523.4467,5896907.0809],[32491520.9121,5896905.4769],[32491518.3794,5896903.8703],[32491515.8485,5896902.261],[32491513.3198,5896900.6487],[32491510.7932,5896899.0332],[32491508.2691,5896897.4144],[32491505.7474,5896895.7921],[32491503.2283,5896894.1659],[32491500.712,5896892.5359],[32491498.1987,5896890.9017],[32491495.6883,5896889.2631],[32491493.1812,5896887.6201],[32491490.6774,5896885.9722],[32491488.1771,5896884.3195],[32491485.6804,5896882.6616],[32491483.1875,5896880.9984],[32491480.6985,5896879.3296],[32491478.2134,5896877.6552],[32491475.7326,5896875.9748],[32491473.2565,5896874.2877],[32491470.7946,5896872.5805],[32491468.3503,5896870.8485],[32491465.9221,5896869.0936],[32491463.5087,5896867.3178],[32491461.1087,5896865.5231],[32491458.7206,5896863.7114],[32491456.3433,5896861.8845],[32491453.9752,5896860.0444],[32491451.615,5896858.193],[32491449.2613,5896856.3323],[32491446.9128,5896854.4643],[32491444.5681,5896852.5907],[32491442.2258,5896850.7135],[32491439.8845,5896848.8348],[32491437.5429,5896846.9563],[32491435.1996,5896845.0801],[32491432.8532,5896843.208],[32491431.7441,5896842.3276],[32491416.2273,5896830.3813],[32491394.5449,5896814.7146],[32491394.348,5896814.5745],[32491391.9016,5896812.8384],[32491389.4533,5896811.1047],[32491387.0036,5896809.3731],[32491384.5526,5896807.6431],[32491382.1009,5896805.9142],[32491379.6487,5896804.1861],[32491377.1963,5896802.4582],[32491374.7441,5896800.7302],[32491372.2924,5896799.0016],[32491369.8415,5896797.2721],[32491367.3919,5896795.541],[32491364.9437,5896793.8081],[32491362.4975,5896792.0729],[32491360.0534,5896790.335],[32491357.6119,5896788.5939],[32491355.1732,5896786.8491],[32491352.7378,5896785.1004],[32491350.3059,5896783.3471],[32491347.8778,5896781.589],[32491345.454,5896779.8255],[32491343.0348,5896778.0563],[32491340.6204,5896776.2808],[32491338.2113,5896774.4987],[32491335.8077,5896772.7096],[32491333.4113,5896770.8996],[32491331.0331,5896769.0409],[32491328.6884,5896767.1297],[32491326.3925,5896765.1626],[32491324.1606,5896763.1366],[32491322.0082,5896761.0483],[32491319.9506,5896758.8946],[32491318.0098,5896756.658],[32491316.3025,5896754.1649],[32491314.8922,5896751.4455],[32491313.8128,5896748.6032],[32491313.1031,5896745.7294],[32491312.7853,5896742.7803],[32491312.7488,5896741.0649],[32491311.7402,5896727.7849],[32491306.0077,5896716.9908],[32491300.7867,5896715.1231],[32491297.7078,5896715.0868],[32491294.5597,5896715.1573],[32491291.513,5896715.0029],[32491288.5216,5896714.745],[32491285.5246,5896714.5083],[32491282.526,5896714.2737],[32491279.5301,5896714.0218],[32491276.5411,5896713.7333],[32491273.563,5896713.3889],[32491270.6002,5896712.9693],[32491267.6567,5896712.4552],[32491264.7251,5896711.8523],[32491261.7963,5896711.1839],[32491258.8768,5896710.4478],[32491255.9733,5896709.6415],[32491253.0925,5896708.7628],[32491250.2409,5896707.8092],[32491247.4253,5896706.7785],[32491244.6522,5896705.6681],[32491241.9194,5896704.464],[32491239.2207,5896703.1679],[32491236.5532,5896701.7928],[32491233.9139,5896700.3521],[32491231.2998,5896698.8587],[32491228.708,5896697.326],[32491226.1356,5896695.7671],[32491223.5793,5896694.1951],[32491221.0203,5896692.627],[32491218.4486,5896691.0674],[32491215.867,5896689.5136],[32491213.2785,5896687.963],[32491210.686,5896686.4132],[32491208.0924,5896684.8615],[32491205.5006,5896683.3054],[32491202.9136,5896681.7423],[32491200.3342,5896680.1697],[32491197.7654,5896678.585],[32491195.2102,5896676.9857],[32491192.6713,5896675.3691],[32491190.1517,5896673.7328],[32491187.6544,5896672.0741],[32491185.1823,5896670.3905],[32491182.7382,5896668.6794],[32491180.3252,5896666.9383],[32491177.946,5896665.1647],[32491175.6037,5896663.3559],[32491174.9207,5896662.8073],[32491198.2863,5896586.7822],[32491218.5258,5896520.2779],[32491231.4424,5896462.1503],[32491231.4416,5896404.0226],[32491228.7782,5896380.0545],[32491221.7526,5896316.8319],[32491195.9165,5896229.6409],[32491174.2556,5896121.3432],[32491139.1947,5896098.8382],[32491106.2075,5896073.3488],[32491074.2198,5896044.8606],[32491044.7311,5896013.8733],[32491018.0267,5895981.5053],[32491024.4679,5895974.2587],[32490961.6368,5895909.9621],[32490915.3347,5895843.8161],[32490875.6471,5895780.9774],[32490835.9595,5895691.6804],[32490763.5866,5895565.0557],[32490703.6676,5895470.0914],[32490604.647,5895369.1359],[32490511.8443,5895308.0338],[32490425.8545,5895268.3462],[32490331.2196,5895241.2993],[32490333.5557,5895237.8341],[32490171.2212,5895093.3211],[32490141.5261,5895075.5045],[32490074.2172,5895047.7903],[32490012.8473,5895027.9945],[32489913.8636,5894982.4637],[32489872.2903,5894958.7083],[32489838.6356,5894923.0749],[32489784.6627,5894842.0199],[32489739.5354,5894780.6799],[32489689.714,5894723.2079],[32489628.3282,5894663.5509],[32489549.3634,5894605.5466],[32489427.4781,5894552.5931],[32489322.1352,5894518.0511],[32489211.2561,5894484.8261],[32489082.5951,5894455.3931],[32489024.2137,5894436.2859],[32488974.9181,5894411.1731],[32488930.4448,5894377.4725],[32488914.8744,5894364.6817],[32499928.9243,5894351.6946],[32499929.0808,5905475.0885],[32499929.2384,5916598.6706]]],"crs":{"type":"EPSG","properties":{"code":4647}}},"properties":{"FL_NR":1822,"BR":3,"BR_NAME":"GEEST","TKNR":2718,"TKNAME":"Osterholz-Scharmbeck","UP_DATE":"2018-09-06T14:12:10.0000000"}}]}