{"type": "FeatureCollection","features":[{"type":"Feature","geometry":{"type":"Polygon","coordinates":[[[32461324.0403,5916759.5178],[32455837.272,5916804.4439],[32455830.537,5916778.8521],[32455826.7332,5916752.2287],[32455828.0006,5916728.141],[32455833.0714,5916706.5887],[32455840.1714,5916690.0214],[32455891.5059,5916677.6638],[32455947.9832,5916661.6693],[32456016.7055,5916636.6783],[32456038.3123,5916626.6542],[32456065.1859,5916614.1866],[32456083.1787,5916610.1879],[32456102.671,5916608.6882],[32456123.1628,5916610.1873],[32456147.1534,5916618.1838],[32456176.6379,5916638.124],[32456224.814,5916683.7633],[32456236.2243,5916701.512],[32456245.0992,5916721.7962],[32456255.2415,5916735.7416],[32456274.2582,5916745.8836],[32456294.5428,5916750.9544],[32456307.2206,5916750.9542],[32456323.7015,5916744.6151],[32456335.1114,5916734.4727],[32456355.3954,5916704.0458],[32456368.0728,5916674.8867],[32456385.8211,5916645.7276],[32456407.1345,5916620.0948],[32456410.6323,5916615.8881],[32456423.3086,5916603.1615],[32456440.5515,5916590.9482],[32456454.2029,5916585.0321],[32456477.8811,5916580.4234],[32456504.8806,5916578.4016],[32456532.9024,5916579.7977],[32456597.5387,5916567.1225],[32456616.5553,5916555.7122],[32456626.6973,5916544.302],[32456631.7681,5916532.892],[32456635.6829,5916485.3473],[32456640.6411,5916425.1308],[32456648.2473,5916397.2396],[32456660.9248,5916373.1518],[32456685.0122,5916351.5992],[32456709.0998,5916337.6532],[32456734.4552,5916331.314],[32456769.9529,5916326.2424],[32456846.0194,5916319.9024],[32456865.036,5916313.5634],[32456880.2489,5916300.8854],[32456890.3911,5916284.4041],[32456892.9264,5916261.5841],[32456892.9261,5916245.103],[32456887.8546,5916224.8186],[32456868.8376,5916196.9277],[32456821.9289,5916139.8785],[32456795.3055,5916119.5944],[32456757.2717,5916094.2394],[32456734.4514,5916065.0808],[32456724.3088,5916043.5288],[32456720.5052,5916021.9766],[32456720.5049,5916001.6922],[32456725.5757,5915976.3366],[32456740.7884,5915940.8386],[32456772.4819,5915878.7171],[32456807.9789,5915825.4699],[32456856.1535,5915763.3482],[32456873.9021,5915736.7246],[32456889.1149,5915711.3689],[32456899.2569,5915688.5488],[32456910.6664,5915655.5864],[32456949.9667,5915596.0003],[32457013.3545,5915532.6106],[32457048.4392,5915508.0505],[32457098.0093,5915511.6101],[32457178.2277,5915530.6014],[32457229.2077,5915548.5935],[32457296.6813,5915580.0801],[32457285.1862,5915602.0715],[32457279.6888,5915627.5614],[32457277.6899,5915654.5508],[32457278.1901,5915677.5416],[32457280.6894,5915696.534],[32457285.4377,5915712.5276],[32457292.1852,5915726.0222],[32457300.4321,5915737.0177],[32457310.4282,5915746.014],[32457321.9238,5915753.5108],[32457334.4189,5915758.0088],[32457347.1638,5915759.0083],[32457370.3288,5915755.331],[32457394.3949,5915751.5106],[32457403.8912,5915753.5097],[32457412.138,5915759.0074],[32457388.1484,5915847.8312],[32457370.1569,5915914.4462],[32457354.0116,5915910.0942],[32457312.6796,5915898.9532],[32457313.8341,5915922.2014],[32457314.5462,5915936.5401],[32457314.9885,5915945.4465],[32457316.1792,5915969.4251],[32457377.5774,5915982.7343],[32457387.651,5915984.9179],[32457385.0337,5916008.3577],[32457384.7825,5916010.6072],[32457382.4155,5916031.8057],[32457381.9149,5916036.2885],[32457379.798,5916055.2473],[32457379.0465,5916061.9779],[32457376.6568,5916083.379],[32457379.2716,5916113.3544],[32457386.4752,5916138.5659],[32457396.08,5916158.9752],[32457415.2892,5916182.986],[32457480.1197,5916227.4056],[32457495.7269,5916233.4081],[32457626.5874,5916245.4118],[32457711.827,5916269.4217],[32457770.6545,5916293.4319],[32457800.6685,5916306.6376],[32457829.4821,5916324.6454],[32457855.8946,5916347.4556],[32457875.1037,5916366.6642],[32457894.3129,5916393.0761],[32457919.5249,5916415.8863],[32457951.9401,5916432.6935],[32458010.7674,5916451.9016],[32458111.6141,5916467.5073],[32458201.6557,5916473.5088],[32458216.0624,5916477.1103],[32458235.2714,5916485.5139],[32458253.2797,5916489.1154],[32458349.3241,5916499.9189],[32458362.5302,5916503.5203],[32458368.5331,5916505.9215],[32458375.7366,5916516.7263],[32458387.7424,5916540.7372],[32458396.1464,5916550.3415],[32458414.155,5916561.1463],[32458438.166,5916567.1486],[32458468.1798,5916567.1482],[32458510.1992,5916561.1449],[32458554.6194,5916550.3392],[32458597.8391,5916531.1298],[32458612.2457,5916528.7286],[32458630.2541,5916528.7283],[32458643.4602,5916537.132],[32458666.271,5916555.1399],[32458686.6807,5916574.3485],[32458699.8868,5916580.351],[32458710.6918,5916580.3509],[32458728.7001,5916577.9496],[32458744.3071,5916569.5454],[32458759.9141,5916555.1386],[32458761.1144,5916537.1303],[32458756.3122,5916528.7265],[32458744.3064,5916519.1222],[32458720.2951,5916507.117],[32458710.6906,5916497.5127],[32458692.6819,5916465.0981],[32458691.4811,5916451.892],[32458693.882,5916439.8864],[32458704.6869,5916430.2818],[32458764.7142,5916401.4677],[32458792.3268,5916393.0634],[32458823.541,5916389.4613],[32458907.5799,5916390.6607],[32458988.0167,5916383.4562],[32459079.2586,5916367.8477],[32459130.8823,5916365.4459],[32459193.3112,5916365.445],[32459308.5641,5916354.6384],[32459396.2044,5916352.236],[32459543.709,5916335.2965],[32459580.2843,5916341.2453],[32459603.0253,5916341.7448],[32459622.7674,5916338.7457],[32459642.0097,5916332.7478],[32459684.7424,5916313.7548],[32459706.7335,5916301.2594],[32459747.4668,5916271.2707],[32459764.4598,5916254.2773],[32459777.9542,5916236.784],[32459786.7004,5916215.7922],[32459790.1987,5916190.8021],[32459789.9484,5916163.8128],[32459786.9492,5916137.3234],[32459782.4506,5916112.3334],[32459772.454,5916073.349],[32459770.4544,5916042.3614],[32459771.9532,5916002.3772],[32459775.701,5915955.8956],[32459788.4445,5915854.9356],[32459829.4249,5915622.5273],[32459836.6715,5915591.0397],[32459846.1673,5915560.5517],[32459858.9118,5915532.0629],[32459875.6548,5915505.5731],[32459897.8956,5915481.0826],[32459922.8854,5915460.5903],[32459948.375,5915445.5959],[32459973.6148,5915435.0998],[32459998.8547,5915428.602],[32460023.5948,5915425.6028],[32460047.5853,5915425.1027],[32460092.3175,5915430.1],[32460111.0601,5915430.0998],[32460125.5542,5915423.6022],[32460136.5497,5915413.1062],[32460144.2964,5915400.1112],[32460149.5442,5915386.6165],[32460154.5418,5915362.626],[32460193.5267,5915388.6151],[32460226.514,5915415.6039],[32460253.7536,5915444.0922],[32460275.4953,5915473.5802],[32460291.9892,5915504.0678],[32460303.735,5915534.5555],[32460310.9826,5915565.0433],[32460313.9818,5915595.0314],[32460315.015,5915675.9082],[32460316.7338,5915810.4457],[32460322.4828,5915896.4115],[32460327.7312,5915930.8977],[32460343.0786,5915993.41],[32460354.972,5916041.8533],[32460358.9707,5916067.8429],[32460360.4705,5916093.3327],[32460358.2218,5916119.3224],[32460351.7247,5916145.3122],[32460338.9801,5916166.304],[32460319.7379,5916176.8001],[32460293.4984,5916179.2995],[32460289.2329,5916182.5224],[32460248.5168,5916213.2867],[32460226.5258,5916234.2786],[32460215.5304,5916247.7734],[32460192.2902,5916285.7587],[32460160.2453,5916350.2959],[32460156.3055,5916358.2304],[32460160.5541,5916374.224],[32460160.5543,5916389.7178],[32460157.0559,5916405.7115],[32460140.988,5916437.2142],[32460108.057,5916501.7786],[32460081.0883,5916554.6534],[32460072.8418,5916572.1466],[32460062.3464,5916601.635],[32460082.2609,5916594.4605],[32460223.2816,5916543.6558],[32460252.0201,5916540.1567],[32460287.0062,5916543.6548],[32460304.7493,5916547.653],[32460321.4927,5916553.6504],[32460336.9866,5916561.647],[32460349.9816,5916571.143],[32460408.5668,5916639.8547],[32460438.676,5916678.6938],[32460404.2102,5916579.6389],[32460384.2171,5916506.6682],[32460380.4681,5916477.6797],[32460380.4677,5916447.6916],[32460384.2158,5916417.7035],[32460391.7124,5916389.7145],[32460398.9593,5916373.221],[32460433.1926,5916158.8057],[32460470.1072,5915953.0124],[32460503.6591,5915785.453],[32460527.8981,5915692.4896],[32460583.3737,5915524.0557],[32460639.599,5915362.6191],[32460678.3321,5915258.6598],[32460716.0658,5915169.1948],[32460754.5493,5915089.7259],[32460795.0321,5915015.2549],[32460839.7632,5914939.7842],[32460889.4924,5914862.8141],[32460943.7197,5914786.8435],[32460972.4577,5914749.358],[32461030.9335,5914678.3854],[32461081.1625,5914612.9107],[32461122.1453,5914551.4345],[32461139.8879,5914521.4462],[32461170.8747,5914462.9689],[32461184.3689,5914431.4813],[32461196.3636,5914395.9952],[32461206.8589,5914357.0105],[32461215.6048,5914316.0267],[32461222.3515,5914274.5431],[32461226.8491,5914233.5593],[32461228.8478,5914194.075],[32461228.0975,5914158.0893],[32461202.1018,5913740.2557],[32461180.8568,5913500.3513],[32461163.6112,5913327.4202],[32461146.1245,5913170.7082],[32461131.9082,5913043.3052],[32461089.381,5912662.1856],[32461072.1354,5912487.7552],[32461062.9146,5912424.8179],[32461052.1416,5912368.8027],[32461037.3967,5912315.3242],[32461018.6535,5912268.8429],[32460975.9193,5912189.8749],[32460953.9275,5912153.3897],[32460931.436,5912119.4035],[32460883.954,5912056.929],[32460858.7136,5912028.4407],[32460805.9838,5911974.4629],[32460751.0049,5911921.4847],[32460720.2667,5911896.4951],[32460686.03,5911873.0049],[32460647.0452,5911852.5136],[32460602.3127,5911834.5214],[32460550.3332,5911820.5277],[32460446.874,5911797.5383],[32460359.1585,5911773.5491],[32460320.6736,5911760.055],[32460285.9372,5911745.0615],[32460254.4495,5911727.5688],[32460226.4603,5911707.0774],[32460198.2212,5911682.5875],[32460135.2454,5911621.6126],[32460070.0203,5911549.6422],[32460039.282,5911512.6573],[32460011.2925,5911475.1726],[32459987.3016,5911439.1872],[32459949.1901,5911373.4626],[32459900.5301,5911365.9413],[32459836.0643,5911349.4511],[32459805.3307,5911345.7035],[32459782.0931,5911346.4534],[32459723.6245,5911351.7014],[32459662.9071,5911363.696],[32459638.9201,5911370.4426],[32459508.4905,5911416.9197],[32459482.2544,5911407.1753],[32459468.7614,5911398.9299],[32459457.5174,5911389.1852],[32459451.5204,5911378.6909],[32459448.5217,5911360.7006],[32459454.5181,5911333.7149],[32459466.5116,5911322.4707],[32459480.0043,5911314.225],[32459527.2288,5911301.4811],[32459575.2029,5911285.7388],[32459599.1899,5911275.9937],[32459698.1362,5911223.5203],[32459743.1117,5911191.287],[32459759.6027,5911176.2947],[32459764.8498,5911166.5499],[32459765.5992,5911156.0555],[32459762.6006,5911143.3123],[32459752.1059,5911126.0717],[32459735.6146,5911112.5791],[32459672.6477,5911075.8497],[32459518.9788,5910997.8935],[32459484.4969,5910971.658],[32459467.2559,5910955.9167],[32459453.7628,5910937.1769],[32459448.5154,5910925.933],[32459447.7656,5910912.4402],[32459451.5135,5910903.4449],[32459461.2582,5910894.4496],[32459474.7509,5910892.2006],[32459506.9837,5910892.2002],[32459628.4189,5910903.4424],[32459658.4029,5910903.442],[32459672.6452,5910901.193],[32459682.3899,5910897.4449],[32459687.6371,5910890.6984],[32459689.8857,5910881.7032],[32459686.8872,5910871.9584],[32459680.1407,5910862.9633],[32459620.1721,5910815.7394],[32459605.1799,5910805.9948],[32459560.9533,5910788.0051],[32459538.4652,5910775.2622],[32459517.4761,5910754.2737],[32459495.7373,5910728.7877],[32459487.4915,5910710.0478],[32459484.4928,5910689.8087],[32459484.4926,5910674.8167],[32459486.7411,5910660.5743],[32459491.9881,5910643.3334],[32459513.726,5910611.1003],[32459547.714,5910570.6089],[32459509.8054,5910508.0616],[32459479.4787,5910472.9973],[32459443.4659,5910436.9855],[32459409.3483,5910399.0782],[32459372.3876,5910352.6418],[32459362.9104,5910333.6881],[32459353.4331,5910308.1005],[32459350.5898,5910294.8328],[32459349.6418,5910266.5136],[32459356.2752,5910237.0234],[32459370.4903,5910218.0693],[32459407.4499,5910189.638],[32459422.6129,5910184.8993],[32459441.5668,5910184.899],[32459485.1607,5910188.6892],[32459539.1799,5910229.4392],[32459566.6632,5910246.4973],[32459618.7867,5910269.2412],[32459633.9498,5910269.241],[32459645.3221,5910265.4501],[32459660.485,5910256.9206],[32459706.9212,5910203.8491],[32459729.2083,5910177.6853],[32459736.3831,5910180.6908],[32459798.8587,5910207.1794],[32459851.838,5910232.1688],[32459907.5662,5910261.6562],[32459992.2832,5910309.636],[32460017.7725,5910268.1521],[32460049.0094,5910221.6701],[32460107.7349,5910144.2001],[32460133.2244,5910115.2112],[32460195.4487,5910052.2354],[32460236.6818,5910014.2499],[32460308.1525,5909953.2731],[32460268.1669,5909848.3154],[32460199.4414,5909657.892],[32460172.6923,5909577.4146],[32460113.7218,5909399.9957],[32460151.6172,5909396.366],[32460210.0856,5909379.874],[32460228.076,5909376.8753],[32460244.5673,5909379.8735],[32460283.5469,5909403.8601],[32460367.5027,5909463.8269],[32460400.4855,5909489.3127],[32460416.9767,5909495.3093],[32460478.444,5909504.3036],[32460524.9193,5909516.2965],[32460542.9097,5909516.2963],[32460566.8968,5909514.7968],[32460589.3848,5909507.3004],[32460614.871,5909495.3065],[32460631.3621,5909490.8087],[32460655.3492,5909490.8083],[32460689.8309,5909495.3054],[32460749.799,5909511.7957],[32460883.2285,5909567.2642],[32460920.7086,5909576.2588],[32460977.6781,5909576.258],[32461046.6412,5909576.257],[32461108.1079,5909549.2706],[32461135.0936,5909541.7742],[32461211.5522,5909526.7811],[32461271.5198,5909504.2923],[32461404.9479,5909466.8104],[32461677.4557,5909459.2887],[32461724.5751,5909459.288],[32461757.9871,5909461.001],[32461801.6797,5909466.1407],[32461890.7789,5909502.9783],[32462078.0187,5909565.079],[32462143.4701,5909584.3284],[32462234.5887,5909607.4275],[32462291.0565,5909613.8434],[32462378.325,5909630.5258],[32462624.7302,5909697.2568],[32462746.6494,5909728.0556],[32462987.9208,5909770.4029],[32463095.7228,5909784.5183],[32463116.5255,5909785.9048],[32463067.14,5909657.4923],[32463035.5625,5909575.3843],[32463011.0714,5909515.4084],[32462984.5811,5909455.9325],[32462956.0916,5909398.4557],[32462924.1035,5909340.979],[32462850.1312,5909223.0269],[32462769.9114,5909106.0745],[32462691.9408,5908998.6184],[32462622.4671,5908907.6555],[32462556.4923,5908832.1864],[32462467.7761,5908734.2266],[32462442.7856,5908701.7399],[32462420.2941,5908668.7533],[32462400.0516,5908632.2681],[32462380.3088,5908590.2851],[32462361.8156,5908545.803],[32462331.0764,5908453.3402],[32462319.5804,5908408.858],[32462311.8329,5908367.8744],[32462308.0838,5908331.8888],[32462306.1931,5908290.1311],[32462446.749,5908345.9065],[32462495.7061,5908363.1846],[32462652.1762,5908399.66],[32462746.2501,5908415.0176],[32462824.9651,5908425.5758],[32462903.6804,5908469.7318],[32462954.5573,5908489.8897],[32462991.9951,5908502.3684],[32463048.6315,5908514.8467],[32463129.265,5908439.0106],[32463165.7423,5908406.3722],[32463195.4998,5908382.3733],[32463346.4214,5908268.5274],[32463378.1571,5908248.4066],[32463399.8982,5908231.413],[32463478.1162,5908162.9391],[32463536.8421,5908111.4587],[32463564.0809,5908085.4687],[32463586.5715,5908060.4783],[32463605.5636,5908034.9881],[32463621.5569,5908008.9982],[32463635.301,5907982.0088],[32463658.2071,5907923.6058],[32463712.9675,5907869.8287],[32463765.8372,5907831.7612],[32463820.8218,5907808.4975],[32463873.6921,5907804.2672],[32463979.4325,5907804.2657],[32464057.6806,5907808.4941],[32464279.7363,5907852.9018],[32464387.5918,5907867.7041],[32464476.4136,5907869.8177],[32464525.0544,5907863.4725],[32464690.0087,5907816.9443],[32464742.8785,5907785.2214],[32464789.4036,5907751.3837],[32464812.6661,5907706.9723],[32464831.6987,5907647.7573],[32464844.386,5907550.4759],[32464842.2697,5907440.5058],[32464831.6938,5907313.6174],[32464812.6588,5907201.5327],[32464776.7047,5907045.0372],[32464755.555,5906935.0675],[32464747.0942,5906814.5234],[32464749.2081,5906740.505],[32464753.4365,5906672.831],[32464764.0101,5906617.8458],[32464783.0441,5906570.2586],[32464793.6162,5906543.8271],[32464797.8456,5906524.7937],[32464812.6486,5906495.1861],[32464857.0587,5906421.1672],[32464865.517,5906366.182],[32464859.1702,5906218.1453],[32464859.1696,5906182.1936],[32464867.6288,5906146.2417],[32464907.8079,5906000.3192],[32464916.2666,5905951.6784],[32464916.2661,5905915.7267],[32464905.6905,5905833.2492],[32464905.69,5905797.2974],[32464912.0343,5905769.8048],[32464916.2635,5905738.0826],[32464931.0664,5905700.0158],[32464956.2878,5905626.4465],[32464972.241,5905557.7203],[32464990.6483,5905461.9948],[32465017.6442,5905211.636],[32465017.6434,5905156.4099],[32465015.1882,5905115.9107],[32465001.6869,5905014.0494],[32464978.368,5904923.2335],[32464956.2767,5904861.8714],[32464927.7515,5904725.2218],[32464927.7509,5904680.1075],[32464918.3517,5904659.4302],[32464901.4338,5904650.0317],[32464875.117,5904646.2725],[32464799.9266,5904650.0332],[32464725.3163,5904660.0779],[32464682.9956,5904645.4696],[32464580.5863,5904637.7421],[32464515.2644,5904626.2156],[32464480.6822,5904614.6889],[32464455.7059,5904597.3982],[32464421.1235,5904568.5801],[32464336.5879,5904460.9929],[32464294.3201,5904399.5141],[32464248.2094,5904313.0595],[32464184.8071,5904178.5748],[32464136.7751,5904090.199],[32464071.452,5903990.2961],[32464013.8138,5903896.1569],[32463958.0974,5903832.7572],[32463900.4598,5903782.8062],[32463854.3501,5903759.7521],[32463812.083,5903752.0679],[32463700.6518,5903744.3845],[32463665.2925,5903650.7746],[32463617.0778,5903551.4267],[32463595.1623,5903517.8239],[32463557.1746,5903424.3198],[32463476.8173,5903300.1353],[32463413.9923,5903187.6385],[32463361.3948,5903107.2838],[32463348.2456,5903088.2909],[32463320.4859,5903054.6881],[32463190.4538,5902886.674],[32463092.5643,5902755.1846],[32463035.584,5902689.4401],[32462857.3382,5902496.5895],[32462595.8589,5902605.1902],[32462518.3864,5902642.6952],[32462401.2156,5902721.1173],[32462326.9957,5902766.1005],[32462226.2866,5902824.0789],[32462195.2992,5902839.5731],[32462115.3314,5902873.061],[32462051.8592,5902896.835],[32461911.1637,5902949.5335],[32461861.9336,5902972.0253],[32461823.4492,5902993.0175],[32461798.5304,5903009.2973],[32461772.5967,5903026.2402],[32461736.2347,5903049.9961],[32461702.9984,5903077.4856],[32461675.7596,5903106.9743],[32461665.264,5903121.4687],[32461656.7676,5903135.963],[32461650.7702,5903151.9568],[32461648.7706,5903127.4665],[32461643.5224,5903105.9751],[32461603.5367,5902995.0198],[32461578.046,5902935.5438],[32461565.0508,5902910.0541],[32461552.0557,5902890.0623],[32461525.9316,5902855.7885],[32461489.5793,5902808.0957],[32461489.5792,5902804.0973],[32461489.5788,5902775.6087],[32461495.076,5902729.6269],[32461501.8229,5902704.1369],[32461512.0685,5902679.1467],[32461526.5624,5902655.156],[32461567.7953,5902609.1737],[32461592.785,5902585.6827],[32461646.513,5902539.2004],[32461698.5274,5902498.0421],[32461749.4709,5902457.7313],[32461759.2539,5902448.8029],[32461775.2103,5902434.2403],[32461800.9497,5902407.7504],[32461849.6795,5902352.2718],[32461887.6637,5902300.7917],[32461900.1584,5902279.3001],[32461937.6424,5902200.8307],[32461962.6315,5902137.3556],[32461977.375,5902092.3733],[32461987.6203,5902052.8888],[32461994.8669,5902012.9046],[32461999.6144,5901970.4214],[32462002.3626,5901923.9399],[32462006.3589,5901777.9978],[32462011.6055,5901690.0327],[32462017.1028,5901653.5471],[32462031.2629,5901593.5904],[32462085.8327,5901546.6055],[32462114.5836,5901529.1044],[32462142.0845,5901517.8535],[32462197.8619,5901511.2126],[32462299.5906,5901499.1006],[32462337.0919,5901487.8495],[32462363.3427,5901472.8486],[32462392.0936,5901451.5973],[32462410.844,5901427.8461],[32462422.094,5901404.095],[32462432.094,5901365.3432],[32462432.0241,5901286.3672],[32462424.6846,5901227.2108],[32462419.4364,5901205.2196],[32462410.6895,5901181.2292],[32462386.4484,5901132.7488],[32462373.4533,5901112.2572],[32462517.0951,5901209.0858],[32462557.0967,5901209.0852],[32462584.5977,5901205.3347],[32462694.6017,5901174.0818],[32462748.3538,5901171.581],[32462768.3546,5901176.5809],[32462788.3555,5901184.0809],[32462810.8568,5901206.5815],[32462918.0975,5901359.7719],[32462948.365,5901401.5873],[32462987.1172,5901432.838],[32463079.6213,5901464.0879],[32463114.6227,5901464.0874],[32463190.8756,5901457.8361],[32463233.3775,5901462.8357],[32463278.3792,5901470.3353],[32463313.3808,5901484.0854],[32463352.1328,5901507.8358],[32463387.1346,5901535.3364],[32463422.1365,5901567.8372],[32463445.8877,5901595.3379],[32463467.1391,5901630.339],[32463497.7502,5901674.4597],[32463512.509,5901702.0064],[32463536.4999,5901735.9926],[32463630.714,5901841.9491],[32463675.9468,5901896.4268],[32463717.1813,5901955.9025],[32463739.423,5901995.8863],[32463756.9166,5902036.37],[32463764.1641,5902057.8613],[32463775.6601,5902103.3431],[32463782.9079,5902147.3255],[32463786.5607,5902197.5684],[32463791.1563,5902260.7803],[32463799.1537,5902302.7635],[32463805.4015,5902324.7547],[32463822.3954,5902368.7369],[32463845.137,5902411.2197],[32463867.8784,5902445.2059],[32463892.6191,5902477.1928],[32463926.856,5902512.1784],[32463945.3488,5902526.1726],[32463964.3414,5902535.1687],[32463983.084,5902540.6663],[32464022.5684,5902545.6637],[32464116.9491,5902564.3806],[32464195.504,5902577.2765],[32464274.059,5902587.8275],[32464330.3372,5902601.8962],[32464384.2706,5902618.3098],[32464492.1375,5902665.2067],[32464592.9699,5902730.863],[32464648.0762,5902776.5882],[32464653.5675,5902883.6615],[32464657.4105,5902927.8496],[32464663.1745,5902948.983],[32464676.6236,5902981.6437],[32464682.3877,5903012.3832],[32464684.3094,5903045.044],[32464686.2311,5903077.7048],[32464695.8379,5903119.9717],[32464695.8383,5903146.8688],[32464699.681,5903173.766],[32464707.3662,5903194.8993],[32464738.1065,5903235.2446],[32464791.9015,5903283.2745],[32464832.2481,5903338.9895],[32464859.146,5903388.941],[32464870.6737,5903419.6805],[32464882.2029,5903548.4025],[32464889.8888,5903604.1179],[32464901.4164,5903629.0936],[32464966.7393,5903727.0753],[32464999.4011,5903786.6328],[32465020.5351,5903815.4508],[32465116.598,5903934.5655],[32465135.8105,5903948.0138],[32465156.9441,5903953.7772],[32465179.9988,5903957.6194],[32465410.5461,5903961.4584],[32465445.1282,5903965.3004],[32465460.4981,5903974.9063],[32465458.5749,5903830.8144],[32465454.731,5903734.7532],[32465445.1236,5903648.298],[32465433.5953,5903584.8978],[32465420.1461,5903540.7098],[32465387.7063,5903426.4843],[32465382.8488,5903393.2947],[32465364.5358,5903165.3952],[32465358.5591,5903138.5012],[32465357.0644,5903104.1367],[32465361.5462,5903063.7956],[32465361.5456,5903023.4544],[32465355.5684,5902966.6782],[32465348.0969,5902915.8784],[32465346.6023,5902871.0551],[32465348.0957,5902832.2081],[32465352.5774,5902782.9023],[32465349.5881,5902700.726],[32465346.5992,5902658.8909],[32465340.6221,5902615.5617],[32465339.1271,5902543.8442],[32465333.1492,5902449.7151],[32465327.1721,5902415.3507],[32465318.206,5902301.7981],[32465300.2757,5902243.5279],[32465285.3336,5902174.7989],[32465273.3801,5902140.4345],[32465271.8858,5902121.011],[32465264.4147,5902082.1642],[32465236.025,5901989.5295],[32465227.0597,5901941.718],[32465198.6065,5901749.8349],[32465120.3047,5901305.3208],[32465071.0525,5901166.4108],[32465042.0065,5901095.6928],[32465007.9085,5900987.0902],[32464990.2279,5900918.8978],[32464959.9186,5900815.3465],[32464916.981,5900709.2696],[32464925.1815,5900611.4196],[32464933.3695,5900620.2483],[32464967.5349,5900685.471],[32465003.7714,5900780.717],[32465031.6277,5900848.0353],[32465073.138,5900939.6327],[32465091.774,5900999.6791],[32465092.9715,5901004.3488],[32465095.9075,5901006.5625],[32465114.7119,5901037.6835],[32465116.1407,5901039.914],[32465117.7783,5901042.443],[32465119.4226,5901044.9689],[32465121.0667,5901047.495],[32465122.7035,5901050.0246],[32465124.3261,5901052.5606],[32465125.9275,5901055.1065],[32465127.5008,5901057.6653],[32465129.039,5901060.2404],[32465130.5351,5901062.8347],[32465131.9823,5901065.4517],[32465133.3734,5901068.0944],[32465134.7016,5901070.7661],[32465135.9598,5901073.4699],[32465137.1506,5901076.2047],[32465138.297,5901078.9598],[32465139.4035,5901081.733],[32465140.4734,5901084.523],[32465141.5097,5901087.3283],[32465142.5157,5901090.1475],[32465143.4947,5901092.979],[32465144.4498,5901095.8216],[32465145.3843,5901098.6736],[32465146.3013,5901101.5337],[32465147.2041,5901104.4004],[32465148.0958,5901107.2723],[32465148.9798,5901110.1478],[32465149.81,5901112.865],[32465164.1888,5901152.9309],[32465172.0799,5901252.2815],[32465180.9201,5901286.3777],[32465207.4406,5901368.461],[32465236.487,5901468.224],[32465270.0599,5901686.4872],[32465283.8151,5901745.7308],[32465366.0278,5902099.8216],[32465372.2758,5902134.3078],[32465377.0244,5902173.2922],[32465389.0231,5902408.1987],[32465396.2715,5902501.1616],[32465403.2696,5902556.6395],[32465415.0158,5902619.6143],[32465420.0145,5902665.5959],[32465421.7647,5902729.0706],[32465421.3348,5902794.2171],[32465420.5179,5902917.9956],[32465430.7664,5903093.4257],[32465433.0492,5903153.0602],[32465434.5163,5903191.3867],[32465442.0143,5903259.8594],[32465459.7588,5903364.8174],[32465467.0074,5903467.7764],[32465474.0055,5903526.7528],[32465489.3332,5903598.7215],[32465519.9903,5903742.6664],[32465527.4886,5903828.6321],[32465532.4886,5903966.5772],[32465532.4891,5904003.0627],[32465526.4926,5904077.5332],[32465516.0483,5904156.0834],[32465507.7521,5904218.4774],[32465504.7537,5904248.9653],[32465502.2555,5904306.4425],[32465502.006,5904335.431],[32465504.5059,5904392.9081],[32465511.0041,5904450.885],[32465515.7527,5904480.3732],[32465522.7503,5904508.8618],[32465532.4968,5904536.3507],[32465557.9875,5904589.8291],[32465601.4713,5904668.7971],[32465614.9664,5904696.2859],[32465626.7121,5904723.7748],[32465644.4558,5904774.7543],[32465657.9512,5904829.7323],[32465651.2183,5904843.8975],[32465651.5545,5904849.9699],[32465654.6177,5904858.5124],[32465661.2807,5904864.4173],[32465665.1799,5904866.2993],[32465666.6825,5904866.9622],[32465669.4917,5904868.1009],[32465672.3246,5904869.2103],[32465675.1448,5904870.3354],[32465677.916,5904871.5211],[32465701.6159,5904882.7781],[32465705.7571,5904885.8839],[32465705.7571,5904890.025],[32465703.6868,5904903.4838],[32465702.6515,5904909.6956],[32465727.4991,5904952.6597],[32465774.0884,5905044.7996],[32465786.5124,5905081.0345],[32465789.6186,5905112.0932],[32465789.6192,5905151.4341],[32465793.7609,5905183.528],[32465810.3264,5905246.1627],[32465831.033,5905304.1385],[32465870.3749,5905378.6787],[32465882.7992,5905428.3723],[32465901.437,5905610.5828],[32465907.6511,5905773.123],[32465899.373,5906066.3685],[32465901.4437,5906075.6861],[32465904.5496,5906077.7566],[32465963.561,5906077.7557],[32465968.7375,5906080.8615],[32465960.4579,5906269.8018],[32465959.8034,5906280.6041],[32465958.388,5906312.2486],[32465909.7297,5906333.9904],[32465906.6239,5906338.1316],[32465903.5197,5906454.0839],[32465904.5551,5906459.2603],[32465928.3668,5906466.507],[32465929.4023,5906473.754],[32465920.0855,5906533.2832],[32465897.6044,5906657.9338],[32465872.4654,5906747.071],[32465849.6904,5906843.3531],[32465841.4089,5906894.0823],[32465833.6466,5907003.8469],[32465833.2084,5907010.0439],[32465814.4956,5907182.9282],[32465806.2151,5907307.6805],[32465806.0808,5907312.1118],[32465805.9915,5907315.1092],[32465805.9012,5907318.1067],[32465805.8108,5907321.1041],[32465805.7203,5907324.1016],[32465805.6298,5907327.099],[32465805.5392,5907330.0965],[32465805.4486,5907333.0939],[32465805.358,5907336.0914],[32465805.2673,5907339.0888],[32465805.1766,5907342.0862],[32465805.0858,5907345.0837],[32465804.9951,5907348.0811],[32465804.9043,5907351.0786],[32465804.8135,5907354.076],[32465804.7228,5907357.0735],[32465804.632,5907360.0709],[32465804.5413,5907363.0684],[32465804.4505,5907366.0658],[32465804.3598,5907369.0632],[32465804.2691,5907372.0607],[32465804.1785,5907375.0581],[32465804.0879,5907378.0556],[32465803.9973,5907381.053],[32465803.9068,5907384.0505],[32465803.8164,5907387.0479],[32465803.726,5907390.0454],[32465803.6357,5907393.0428],[32465803.5455,5907396.0403],[32465803.4553,5907399.0377],[32465803.3652,5907402.0352],[32465803.2752,5907405.0327],[32465803.1854,5907408.0301],[32465803.0956,5907411.0276],[32465803.0059,5907414.025],[32465802.9163,5907417.0225],[32465802.8269,5907420.02],[32465802.7376,5907423.0174],[32465802.6484,5907426.0149],[32465802.5593,5907429.0124],[32465802.4704,5907432.0098],[32465802.3817,5907435.0073],[32465802.2931,5907438.0048],[32465802.2046,5907441.0023],[32465802.0694,5907444.4215],[32465779.9407,5907455.1872],[32465771.9439,5907460.6851],[32465765.4466,5907467.6825],[32465758.1997,5907481.677],[32465755.451,5907495.1717],[32465755.2012,5907504.8685],[32465754.2022,5907543.6524],[32465753.4203,5907549.5606],[32465751.9533,5907560.6457],[32465747.7052,5907574.1404],[32465741.9576,5907584.6363],[32465734.4607,5907593.6329],[32465725.9642,5907601.13],[32465713.1562,5907610.0692],[32465677.9838,5907634.6174],[32465672.4861,5907641.6147],[32465668.4878,5907650.1114],[32465662.9903,5907674.1019],[32465657.1184,5907726.5812],[32465651.2465,5907779.0604],[32465647.9981,5907796.0537],[32465643.0003,5907811.0478],[32465635.7533,5907825.0423],[32465626.0074,5907838.0373],[32465613.0127,5907850.0327],[32465598.2688,5907860.5288],[32465567.7811,5907875.5233],[32465520.0503,5907892.5172],[32465486.064,5907906.5121],[32465471.8199,5907918.0078],[32465463.3235,5907934.0015],[32465460.8248,5907953.4938],[32465463.574,5907974.9852],[32465471.5711,5907996.4766],[32465484.3163,5908017.9679],[32465501.5598,5908036.4603],[32465523.0514,5908051.454],[32465564.5353,5908074.9441],[32465581.7786,5908086.939],[32465596.7728,5908100.9333],[32465609.518,5908117.4265],[32465620.264,5908138.418],[32465629.0109,5908163.9078],[32465635.7587,5908195.3952],[32465640.2574,5908231.8806],[32465643.2574,5908311.349],[32465642.5099,5908461.7892],[32465644.2596,5908490.2779],[32465648.2583,5908513.2687],[32465655.2558,5908533.7604],[32465664.0026,5908551.2534],[32465674.4987,5908567.7467],[32465690.2176,5908588.4115],[32465710.2351,5908614.7275],[32465721.4809,5908632.7202],[32465729.9778,5908652.7121],[32465733.9766,5908675.2031],[32465734.4767,5908698.194],[32465729.4793,5908739.1778],[32465721.7328,5908769.1659],[32465743.8812,5908768.4841],[32465798.952,5908764.1668],[32465833.5794,5908758.8046],[32465833.6477,5908761.3847],[32465833.7279,5908764.3838],[32465833.8088,5908767.383],[32465833.8905,5908770.3822],[32465833.9728,5908773.3815],[32465834.0557,5908776.3809],[32465834.139,5908779.3804],[32465834.2228,5908782.3799],[32465834.307,5908785.3794],[32465834.3915,5908788.379],[32465834.4763,5908791.3786],[32465834.5612,5908794.3782],[32465834.6462,5908797.3778],[32465834.7313,5908800.3774],[32465834.8164,5908803.3771],[32465834.9013,5908806.3767],[32465834.9862,5908809.3763],[32465835.0708,5908812.3759],[32465835.1551,5908815.3754],[32465835.2391,5908818.3749],[32465835.3226,5908821.3744],[32465835.4057,5908824.3738],[32465835.4883,5908827.3732],[32465835.5702,5908830.3725],[32465835.6515,5908833.3717],[32465835.7321,5908836.3708],[32465835.8118,5908839.3698],[32465835.8906,5908842.3688],[32465835.9686,5908845.3676],[32465836.0455,5908848.3663],[32465836.1214,5908851.365],[32465836.1961,5908854.3634],[32465836.2696,5908857.3618],[32465836.3419,5908860.36],[32465836.4128,5908863.3581],[32465836.4824,5908866.356],[32465836.5505,5908869.3537],[32465836.617,5908872.3513],[32465836.682,5908875.3487],[32465836.7453,5908878.3459],[32465836.8069,5908881.3429],[32465836.8668,5908884.3397],[32465836.9247,5908887.3364],[32465836.9808,5908890.3328],[32465837.0348,5908893.329],[32465837.0869,5908896.3249],[32465837.1368,5908899.3206],[32465837.1845,5908902.3161],[32465837.23,5908905.3113],[32465837.2731,5908908.3063],[32465837.2609,5908911.3052],[32465836.7711,5908914.2988],[32465835.782,5908917.1703],[32465834.4354,5908919.8417],[32465833.0398,5908922.484],[32465831.6292,5908925.123],[32465830.2032,5908927.7577],[32465828.7615,5908930.3873],[32465827.3039,5908933.0108],[32465825.8299,5908935.6272],[32465824.3392,5908938.2356],[32465822.8315,5908940.8352],[32465821.3064,5908943.425],[32465819.7637,5908946.0041],[32465818.2029,5908948.5715],[32465816.6238,5908951.1264],[32465815.0261,5908953.6677],[32465813.4093,5908956.1946],[32465811.7745,5908958.7074],[32465810.1336,5908961.2161],[32465808.4895,5908963.7231],[32465806.8421,5908966.2285],[32465805.1917,5908968.7321],[32465803.5382,5908971.2342],[32465801.8818,5908973.7347],[32465800.2225,5908976.2336],[32465798.5605,5908978.7309],[32465796.8957,5908981.2267],[32465795.2284,5908983.7211],[32465793.5585,5908986.2139],[32465791.8861,5908988.7052],[32465790.2114,5908991.1952],[32465788.5343,5908993.6837],[32465786.8551,5908996.1708],[32465785.1737,5908998.6566],[32465783.4903,5909001.141],[32465781.8049,5909003.624],[32465780.1176,5909006.1058],[32465778.4285,5909008.5863],[32465776.7376,5909011.0656],[32465775.0452,5909013.5436],[32465773.3511,5909016.0204],[32465771.6556,5909018.496],[32465769.9587,5909020.9704],[32465768.9577,5909022.4282],[32465728.6086,5908913.1544],[32465725.1952,5908897.7955],[32465726.9009,5908846.5988],[32465670.5845,5908834.6538],[32465638.1599,5908822.7083],[32465597.2027,5908819.2959],[32465546.0061,5908821.0032],[32465510.1684,5908829.5365],[32465482.8638,5908844.8958],[32465458.9724,5908875.6141],[32465361.6973,5908754.4502],[32465361.6975,5908769.8092],[32465358.2845,5908781.755],[32465346.3549,5908786.019],[32465367.6573,5908815.8414],[32465376.1008,5908834.1351],[32465380.3227,5908853.8361],[32465376.1014,5908870.7228],[32465366.2511,5908891.8312],[32465340.9216,5908914.3469],[32465312.7774,5908929.8268],[32465287.4475,5908936.8634],[32465259.3033,5908939.6782],[32465219.9011,5908935.4571],[32465180.4988,5908925.607],[32465079.7273,5908883.3053],[32464831.4724,5908778.6419],[32464795.3352,5908769.2736],[32464713.6923,5908757.2291],[32464606.6196,5908743.8466],[32464523.6385,5908742.5094],[32464429.9502,5908751.8796],[32464321.5398,5908778.6493],[32464245.251,5908804.0801],[32464186.3616,5908833.5259],[32464130.1491,5908873.6789],[32464088.6591,5908913.8317],[32464036.4625,5908998.152],[32463997.6502,5909094.5178],[32463989.6207,5909160.0998],[32463992.2981,5909205.6056],[32464008.3594,5909233.7119],[32464032.4509,5909256.4644],[32464063.2345,5909267.1713],[32464110.0787,5909269.8474],[32464170.3068,5909253.7857],[32464215.8122,5909228.3553],[32464342.9592,5909125.2962],[32464479.4752,5909026.2522],[32464535.6878,5908999.4832],[32464582.5319,5908987.4369],[32464640.0832,5908984.7592],[32464707.0036,5908987.4351],[32464764.5552,5908998.1415],[32464823.4454,5909024.9088],[32464839.5067,5909051.6767],[32464846.1991,5909073.0911],[32464848.8766,5909122.6121],[32464844.862,5909173.4716],[32464835.4941,5909232.3615],[32464816.7572,5909287.2365],[32464785.9749,5909344.7885],[32464741.8084,5909409.0325],[32464670.8741,5909496.0299],[32464281.4027,5909825.2834],[32464163.6242,5909906.9279],[32464120.7954,5909928.3431],[32464077.9668,5909940.3893],[32464029.7842,5909947.0821],[32463924.0503,5909955.114],[32463683.1372,5909956.4559],[32463632.2779,5909959.1334],[32463585.9674,5909973.1645],[32463524.3674,5910033.4831],[32463352.0041,5910171.3851],[32463372.4375,5910190.1352],[32463452.4067,5910257.6072],[32463509.1347,5910299.5897],[32463536.8739,5910316.5826],[32463572.61,5910335.5745],[32463661.8251,5910376.0571],[32463712.5552,5910395.0489],[32463765.2845,5910412.5412],[32463818.5136,5910427.5344],[32463870.7429,5910438.5293],[32463924.4717,5910445.5258],[32463973.648,5910447.6819],[32463970.8867,5910455.5715],[32463949.0558,5910486.3698],[32463921.377,5910513.6595],[32463908.9021,5910524.5754],[32463882.7825,5910540.9493],[32463854.3239,5910554.5944],[32463827.4246,5910561.2222],[32463788.05,5910563.172],[32463770.8967,5910559.6636],[32463741.2618,5910550.6724],[32463650.1431,5910518.5899],[32463589.825,5910486.507],[32463515.3897,5910440.3072],[32463462.7715,5910408.224],[32463419.1371,5910378.7074],[32463258.7158,5910260.6409],[32463184.2828,5910362.0272],[32463174.0163,5910382.561],[32463168.8832,5910408.2282],[32463159.901,5910501.9132],[32463147.0687,5910593.0318],[32463137.7705,5910765.4423],[32462825.0911,5910784.345],[32462842.9154,5910723.9384],[32462851.8982,5910676.4541],[32462854.4644,5910639.2369],[32462848.047,5910595.6027],[32462839.0631,5910562.2356],[32462803.1285,5910519.8853],[32462771.0442,5910494.2187],[32462705.5925,5910455.719],[32462678.6417,5910435.1857],[32462672.2247,5910419.7855],[32462668.3745,5910404.3853],[32462664.524,5910377.4349],[32462651.6899,5910341.5011],[32462631.1558,5910317.1176],[32462610.622,5910303.0011],[32462538.7537,5910276.0516],[32462516.9364,5910260.6516],[32462506.6693,5910243.9681],[32462505.3858,5910228.5679],[32462511.802,5910195.2005],[32462509.2349,5910161.8333],[32462501.5342,5910123.3327],[32462482.2833,5910089.9658],[32462457.8991,5910060.4489],[32462409.1312,5910028.3657],[32462329.5626,5909984.7327],[32462276.9447,5909965.4832],[32462189.7792,5909912.485],[32462181.2124,5909949.3239],[32462163.2221,5909999.8706],[32462142.6625,5910104.3904],[32462135.8091,5910127.5219],[32462122.9587,5910151.5101],[32462104.968,5910174.6418],[32462079.2668,5910198.6302],[32462052.7088,5910215.765],[32462025.2939,5910230.3296],[32461985.0284,5910240.6107],[32461927.6285,5910247.4653],[32461811.9717,5910251.7506],[32461722.873,5910249.1817],[32461652.622,5910237.1886],[32461566.0933,5910217.4854],[32461484.7049,5910197.782],[32461418.4509,5910178.9297],[32461391.3222,5910166.9415],[32461369.9042,5910161.8015],[32461349.343,5910159.2317],[32461279.0922,5910160.9461],[32461243.1102,5910166.9436],[32461199.4177,5910178.9383],[32461130.8807,5910204.6407],[32461106.0361,5910217.4919],[32461093.1258,5910229.1574],[32461067.6399,5910265.1385],[32461031.6603,5910337.1005],[32460997.1801,5910436.0482],[32460965.6985,5910543.9909],[32460936.9827,5910621.1598],[32460919.2249,5910654.9321],[32460896.7375,5910692.4125],[32460851.7619,5910713.4019],[32460820.2788,5910717.9],[32460770.8053,5910713.403],[32460725.8292,5910702.9093],[32460694.3457,5910687.9179],[32460629.8796,5910650.4388],[32460490.4533,5910593.4711],[32460478.4598,5910593.4713],[32460464.9672,5910597.9692],[32460409.4974,5910644.4451],[32460370.5191,5910696.9176],[32460345.0335,5910753.8877],[32460327.0439,5910804.8606],[32460322.547,5910849.8365],[32460322.5476,5910891.8141],[32460325.6595,5910922.3878],[32460354.6482,5910934.8824],[32460402.8793,5910952.3747],[32460471.1025,5910973.3654],[32460738.4971,5911040.335],[32460778.4816,5911070.3225],[32460815.4673,5911094.8123],[32460903.1832,5911147.2902],[32460954.1633,5911174.7785],[32461065.3698,5911226.7563],[32461231.3049,5911296.2263],[32461323.5188,5911336.7089],[32461410.0355,5911379.216],[32461660.1698,5911509.4061],[32461680.1992,5911552.322],[32461687.1151,5911574.9544],[32461692.7735,5911598.2155],[32461704.7198,5911698.1754],[32461708.4922,5911716.407],[32461714.1505,5911729.6092],[32461722.3235,5911742.8114],[32461783.935,5911806.3072],[32461868.1685,5911871.0076],[32461942.0444,5911934.5734],[32461967.8151,5911970.6514],[32461974.6878,5912006.7298],[32461974.6883,5912041.0902],[32461974.6888,5912072.0147],[32461967.8171,5912108.0932],[32461966.0996,5912139.0177],[32461974.6905,5912188.8401],[32461988.4352,5912231.7905],[32462002.1798,5912255.8426],[32462031.3865,5912283.3306],[32462067.4653,5912307.3824],[32462077.7736,5912315.9723],[32462086.364,5912338.3065],[32462088.0827,5912382.9751],[32462100.1093,5912410.4632],[32462117.2899,5912436.2333],[32462137.9063,5912448.2591],[32462216.9358,5912484.3365],[32462246.1424,5912499.7983],[32462254.7328,5912516.9783],[32462258.1691,5912541.0307],[32462254.0922,5912567.0226],[32462113.7219,5912533.2222],[32462013.2614,5912504.2352],[32461916.0496,5912470.7499],[32461870.8173,5912452.7577],[32461828.5838,5912433.266],[32461792.2834,5912414.1857],[32461804.6074,5912262.7175],[32461816.6318,5912144.1739],[32461806.3231,5912108.0955],[32461794.2966,5912078.8893],[32461770.2437,5912041.0932],[32461782.2696,5912020.4768],[32461783.9871,5911989.5523],[32461777.1148,5911963.7821],[32461751.3439,5911925.986],[32461708.3929,5911895.0622],[32461655.1339,5911881.3188],[32461612.183,5911858.9851],[32461581.2584,5911831.4972],[32461565.7957,5911805.7271],[32461555.4873,5911778.2389],[32461545.1781,5911709.5181],[32461536.5877,5911688.902],[32461503.9448,5911654.542],[32461471.302,5911625.3361],[32461436.9413,5911608.1564],[32461387.1184,5911590.9768],[32461349.3217,5911573.7972],[32461318.397,5911554.8994],[32461299.4986,5911540.2966],[32461270.2919,5911516.2446],[32461155.1823,5911368.4964],[32461131.1296,5911346.1625],[32461062.4081,5911298.0588],[32461043.5096,5911279.1608],[32461024.6113,5911275.725],[32461007.4311,5911277.4434],[32460995.4051,5911287.7516],[32460986.8153,5911310.086],[32460983.3797,5911346.1646],[32460981.6627,5911409.7314],[32460975.067,5911432.8177],[32461037.3845,5911472.659],[32461076.3694,5911499.6477],[32461110.3563,5911525.6369],[32461171.3328,5911581.114],[32461234.8086,5911648.5863],[32461295.2856,5911723.0558],[32461352.514,5911804.5226],[32461380.5035,5911848.0049],[32461436.4826,5911942.9664],[32461463.5649,5912001.1261],[32461479.9669,5912047.9241],[32461493.7121,5912100.403],[32461503.2091,5912148.8836],[32461508.9574,5912191.3667],[32461513.7064,5912255.3412],[32461507.3901,5912290.2102],[32461503.9546,5912329.7247],[32461503.9551,5912367.5212],[32461524.573,5912474.0383],[32461523.1443,5912527.7629],[32461506.4656,5912689.1689],[32461502.7179,5912748.1456],[32461500.9695,5912809.1213],[32461501.7201,5912868.5977],[32461508.7189,5912981.5527],[32461514.2175,5913033.532],[32461527.2136,5913122.9963],[32461540.4593,5913191.9687],[32461555.4544,5913258.9418],[32461574.9476,5913325.915],[32461587.1932,5913359.4015],[32461601.6879,5913392.3882],[32461618.4317,5913424.875],[32461685.6568,5913547.8252],[32461731.02,5913637.5028],[32461769.8758,5913723.2543],[32461780.622,5913754.2418],[32461796.1168,5913824.2138],[32461803.6145,5913868.696],[32461815.3612,5913965.6573],[32461818.6107,5914014.6378],[32461819.361,5914060.6196],[32461817.3624,5914101.6033],[32461811.8652,5914142.5871],[32461805.6071,5914174.5753],[32461802.8694,5914188.569],[32461791.1248,5914238.0495],[32461761.3881,5914340.0094],[32461727.403,5914435.9717],[32461710.4104,5914477.9553],[32461660.7731,5914590.3932],[32461674.0718,5914608.6784],[32461699.8425,5914631.0123],[32461796.0523,5914668.8074],[32461875.0815,5914692.8586],[32461960.9832,5914727.2179],[32462146.5307,5914811.3983],[32462143.0953,5914849.1948],[32462136.2235,5914874.9652],[32462125.9158,5914907.6079],[32462101.8644,5914971.175],[32461936.9391,5915303.6145],[32461876.8099,5915406.6967],[32461827.3667,5915482.1208],[32461775.4488,5915561.3202],[32461734.2171,5915607.7073],[32461677.523,5915654.0948],[32461625.9831,5915709.0723],[32461591.6234,5915758.8953],[32461581.3157,5915789.8199],[32461572.7263,5915836.2066],[32461576.163,5915880.8751],[32461586.4718,5915930.6976],[32461598.4985,5915959.9039],[32461610.5249,5915983.956],[32461625.2575,5916008.5245],[32461636.2963,5916054.3946],[32461622.5528,5916105.9355],[32461593.3474,5916174.6567],[32461540.0904,5916281.1747],[32461495.4248,5916489.0563],[32461471.3734,5916557.7774],[32461433.5779,5916621.3447],[32461378.6023,5916693.5026],[32461347.6784,5916726.1453],[32461324.0403,5916759.5178]],[[32461386.5642,5916207.7726],[32461394.8742,5916201.2581],[32461373.2841,5916205.2355],[32461352.491,5916206.3598],[32461329.4499,5916205.7981],[32461296.2931,5916202.4267],[32461268.756,5916190.6256],[32461233.9131,5916172.6428],[32461212.5576,5916155.7837],[32461200.1939,5916140.0485],[32461187.8301,5916117.5696],[32461174.9042,5916088.3469],[32461167.5982,5916067.5538],[32461156.3583,5916047.8847],[32461138.3746,5916023.7199],[32461121.5151,5916006.8608],[32461111.3994,5915999.5552],[32461100.7217,5915996.7455],[32461086.1103,5915995.6217],[32461068.689,5915997.3079],[32461041.7142,5916005.738],[32460979.8971,5916037.2097],[32460963.5998,5916042.8297],[32460939.2668,5916042.1724],[32460901.2202,5916041.1446],[32460869.7495,5916045.0789],[32460852.3281,5916042.2693],[32460823.8603,5916026.3679],[32460786.5512,5916100.3239],[32460763.5612,5916160.8002],[32460727.8271,5916278.254],[32460703.0882,5916365.7196],[32460684.3468,5916443.6889],[32460679.0993,5916474.1769],[32460694.3442,5916536.152],[32460710.8383,5916585.1323],[32460717.0963,5916598.7128],[32460733.9255,5916619.9046],[32460774.4399,5916645.459],[32460890.8052,5916702.1086],[32460905.4891,5916712.361],[32460914.9373,5916720.6566],[32460930.0683,5916733.9418],[32460932.6094,5916736.1729],[32460936.7583,5916737.4113],[32460928.3943,5916710.9027],[32460925.9008,5916691.5806],[32460925.9006,5916672.2585],[32460929.0167,5916646.0801],[32460942.1053,5916610.5522],[32460966.7604,5916569.6782],[32460992.2257,5916536.1478],[32461029.9602,5916497.1627],[32461071.693,5916458.1776],[32461115.9249,5916419.6923],[32461204.6385,5916348.2194],[32461248.4997,5916314.3585],[32461386.5642,5916207.7726]],[[32460917.7215,5910361.0894],[32460950.7026,5910272.6361],[32460763.3032,5910293.6276],[32460686.8443,5910310.1199],[32460625.3775,5910332.6087],[32460577.4035,5910362.5934],[32460547.4201,5910394.077],[32460520.4351,5910437.5541],[32460512.9395,5910466.0389],[32460803.7853,5910570.9788],[32460827.7726,5910564.9816],[32460863.7529,5910536.4964],[32460880.2436,5910509.5105],[32460895.2353,5910476.5279],[32460904.23,5910440.547],[32460910.2259,5910391.0734],[32460917.7215,5910361.0894]],[[32465387.8182,5905573.7364],[32465384.7349,5905572.461],[32465312.7924,5905577.1983],[32465158.0067,5905596.1141],[32465154.4946,5905600.7789],[32465153.9627,5905606.8287],[32465155.9929,5905693.7778],[32465156.8887,5905696.7335],[32465162.0781,5905699.0064],[32465202.8632,5905697.6744],[32465363.2343,5905692.4367],[32465380.675,5905689.0825],[32465387.7334,5905683.2786],[32465397.2522,5905671.6717],[32465397.4019,5905662.4409],[32465397.6905,5905644.6523],[32465396.1798,5905623.6716],[32465391.9697,5905590.6295],[32465387.8182,5905573.7364]],[[32465325.7957,5904180.3401],[32465316.4781,5904178.2697],[32465310.2664,5904179.8227],[32465292.149,5904190.6935],[32465232.8908,5904236.1418],[32465142.5517,5904314.4125],[32465140.9988,5904317.5184],[32465142.5518,5904322.1772],[32465217.0939,5904417.9403],[32465221.7527,5904417.9402],[32465228.482,5904413.799],[32465319.3778,5904260.9632],[32465339.2552,5904227.4455],[32465351.6783,5904203.1161],[32465351.6782,5904196.9043],[32465348.0546,5904191.2103],[32465325.7957,5904180.3401]],[[32464923.0747,5904599.3788],[32464922.5565,5904560.5555],[32464916.862,5904529.4969],[32464916.344,5904507.7559],[32464919.9673,5904489.1206],[32464919.9671,5904476.1796],[32464916.7407,5904469.886],[32464901.8494,5904466.8622],[32464893.0495,5904467.8976],[32464870.7909,5904477.7332],[32464813.8505,5904507.7574],[32464775.0273,5904513.9697],[32464764.1569,5904520.1815],[32464743.4513,5904535.7112],[32464733.0985,5904539.3348],[32464718.6046,5904548.135],[32464713.4283,5904555.8997],[32464713.946,5904563.1467],[32464720.6755,5904570.9113],[32464741.899,5904579.1933],[32464744.4873,5904583.852],[32464746.5581,5904596.7931],[32464752.2522,5904601.9695],[32464764.6757,5904604.0399],[32464793.6637,5904597.8277],[32464822.6517,5904591.6156],[32464854.2279,5904591.0975],[32464895.6396,5904597.8263],[32464918.9337,5904605.0729],[32464923.0748,5904603.52],[32464923.0747,5904599.3788]],[[32465749.4359,5906288.6512],[32465737.6906,5906286.1523],[32465726.445,5906286.1525],[32465704.9537,5906293.6498],[32465685.4617,5906308.6441],[32465676.4654,5906318.1405],[32465660.9718,5906339.1324],[32465656.7237,5906350.6279],[32465654.7247,5906362.6231],[32465655.2246,5906375.1182],[32465657.9737,5906387.6132],[32465662.9719,5906400.1081],[32465678.9659,5906423.0988],[32465700.7074,5906434.5939],[32465724.448,5906439.0917],[32465738.6924,5906438.0919],[32465753.9362,5906434.0933],[32465767.9306,5906426.5961],[32465778.6761,5906416.5999],[32465786.6728,5906405.6042],[32465791.9206,5906393.6088],[32465794.9192,5906381.1138],[32465795.4186,5906357.6231],[32465791.1701,5906339.1305],[32465785.1722,5906322.1373],[32465775.6757,5906306.1438],[32465768.9283,5906299.1467],[32465760.1817,5906293.1492],[32465749.4359,5906288.6512]]],"crs":{"type":"EPSG","properties":{"code":4647}}},"properties":{"FL_NR":6266,"BR":1,"BR_NAME":"KÜSTENHOLOZÄN","BGL":3,"BGL_NAME":" Küstenmarschen","BL":1,"BL_NAME":"Junge Marsch","BR_BGL_BL_NAME":"KÜSTENHOLOZÄN /  Küstenmarschen / Junge Marsch","TKNR":null,"TKNAME":null,"UP_DATE":"2018-09-06T14:14:16.0000000"}}]}