{"type": "FeatureCollection","features":[{"type":"Feature","geometry":{"type":"Polygon","coordinates":[[[32460375.142,5911068.3291],[32460393.0538,5911128.6153],[32460399.6345,5911150.764],[32460401.7851,5911158.0025],[32460410.7026,5911241.9641],[32460410.703,5911271.6851],[32460401.7875,5911326.6689],[32460391.3857,5911361.5912],[32460383.2126,5911374.2227],[32460375.0395,5911380.91],[32460334.1734,5911395.0282],[32460306.6816,5911400.9726],[32460243.5244,5911385.3702],[32460207.1161,5911379.4264],[32460162.5347,5911375.7119],[32460117.9532,5911374.2266],[32460071.8858,5911374.9703],[32460036.9637,5911377.1997],[32460007.9859,5911383.1445],[32459986.4382,5911382.4016],[32459949.1901,5911373.4626],[32459922.8255,5911323.734],[32459903.3327,5911282.7507],[32459885.0894,5911242.7667],[32459855.1002,5911167.2971],[32459835.1072,5911100.8238],[32459820.8618,5911026.3536],[32459815.8632,5910986.8694],[32459810.8641,5910909.9],[32459810.8635,5910874.4142],[32459812.8623,5910841.927],[32459840.8494,5910721.9744],[32459866.5878,5910625.5123],[32459888.8837,5910573.4471],[32459917.3134,5910495.7358],[32459941.0048,5910424.6586],[32459992.2832,5910309.636],[32460017.7725,5910268.1522],[32460049.0094,5910221.6701],[32460107.7349,5910144.2001],[32460133.2244,5910115.2113],[32460195.4487,5910052.2355],[32460236.6818,5910014.2499],[32460308.1525,5909953.2731],[32460336.0262,5909924.0812],[32460372.0067,5909904.5912],[32460407.9873,5909892.5972],[32460428.9761,5909883.6017],[32460442.4686,5909873.1072],[32460578.8944,5909793.6477],[32460641.8604,5909766.661],[32460712.3222,5909732.1785],[32460838.254,5909663.2136],[32460956.6897,5909606.2423],[32461046.6412,5909576.257],[32461108.1079,5909549.2706],[32461135.0936,5909541.7742],[32461211.5522,5909526.7811],[32461271.5198,5909504.2923],[32461317.6351,5909511.5536],[32461351.9039,5909523.5472],[32461384.4595,5909544.9647],[32461409.3047,5909570.6658],[32461418.7289,5909590.3703],[32461423.0127,5909604.9344],[32461422.1561,5909619.4987],[32461416.1594,5909633.2061],[32461404.1655,5909643.4869],[32461359.6166,5909673.4727],[32461339.9122,5909682.8968],[32461323.6346,5909687.1807],[32461239.6765,5909695.749],[32461151.4348,5909714.5981],[32461051.1997,5909769.4295],[32461023.7849,5909778.8538],[32460994.6565,5909780.5676],[32460953.5341,5909777.998],[32460855.0114,5909763.4352],[32460829.3098,5909762.5788],[32460813.889,5909767.7194],[32460804.4653,5909779.7136],[32460801.0387,5909796.8479],[32460805.3225,5909817.4091],[32460813.0331,5909825.9762],[32460826.7407,5909833.6864],[32460861.8662,5909839.683],[32460913.2695,5909855.9599],[32460968.9564,5909879.9472],[32461002.3687,5909897.9377],[32461023.7867,5909907.3615],[32461048.6316,5909913.358],[32461072.6199,5909925.3517],[32461094.8948,5909943.3425],[32461114.5996,5909965.6169],[32461124.8806,5909992.175],[32461131.7348,5910023.0167],[32461134.3061,5910100.1213],[32461133.4497,5910121.5392],[32461129.1663,5910137.8169],[32461117.1727,5910170.3724],[32461108.8433,5910190.7344],[32461093.1258,5910229.1574],[32461067.6399,5910265.1385],[32461031.6603,5910337.1006],[32460997.1801,5910436.0482],[32460970.8002,5910526.4985],[32460965.6985,5910543.991],[32460936.9827,5910621.1598],[32460919.2249,5910654.9321],[32460896.7375,5910692.4125],[32460851.7619,5910713.402],[32460820.2788,5910717.9],[32460770.8053,5910713.4031],[32460725.8292,5910702.9093],[32460694.3457,5910687.9179],[32460629.8796,5910650.4388],[32460490.4533,5910593.4712],[32460478.4598,5910593.4713],[32460464.9672,5910597.9692],[32460409.4974,5910644.4451],[32460370.5191,5910696.9176],[32460345.0335,5910753.8878],[32460327.0439,5910804.8606],[32460322.547,5910849.8365],[32460322.5476,5910891.8141],[32460325.6595,5910922.3878],[32460331.4078,5910961.872],[32460341.9042,5910999.8567],[32460356.6489,5911035.3424],[32460375.142,5911068.3291]],[[32460917.7215,5910361.0895],[32460950.7026,5910272.6361],[32460763.3032,5910293.6276],[32460686.8443,5910310.1199],[32460625.3775,5910332.6087],[32460577.4035,5910362.5934],[32460547.4201,5910394.077],[32460520.4351,5910437.5541],[32460512.9395,5910466.0389],[32460803.7853,5910570.9789],[32460827.7726,5910564.9816],[32460863.7529,5910536.4965],[32460880.2436,5910509.5106],[32460895.2353,5910476.5279],[32460904.23,5910440.547],[32460910.2259,5910391.0734],[32460917.7215,5910361.0895]]],"crs":{"type":"EPSG","properties":{"code":4647}}},"properties":{"FL_NR":536555,"VDST":6,"VDST_TEXT":"äußerst hoch"}}]}