{"type": "FeatureCollection","features":[{"type":"Feature","geometry":{"type":"Polygon","coordinates":[[[32459994.919,5911311.066],[32459999.817,5911311.406],[32460044.869,5911319.252],[32460086.432,5911325.929],[32460121.319,5911330.757],[32460131.255,5911331.566],[32460140.821,5911330.927],[32460169.293,5911334.368],[32460159.529,5911424.656],[32460143.031,5911422.4],[32460109.335,5911419.162],[32460055.806,5911413.625],[32460021.489,5911408.298],[32460002.987,5911405.159],[32459994.919,5911311.066]]],"crs":{"type":"EPSG","properties":{"code":4647}}},"properties":{"FL_NR":3217372,"OGR_FID":177356,"SDE_ID":1657254,"OST":32460102.724,"NORD":5911418.396,"RECHTS":3460157.719,"HOCH":5913342.702,"TK25":2616,"BULAND":null,"KLASSENZEICHEN":"LI-","KLASSENZEICHEN_KLARTEXT":"Lehm/hohe bis sehr hohe Leistungsfähigkeit/-","KLASSENZEICHEN_SEP":"L;I;-","AREA":15154.578125,"UP_DATE":"2023-06-15T15:02:29.0000000","FL_PRONUM":594029,"XMIN":32459994,"XMAX":32460169,"YMIN":5911311,"YMAX":5911424,"BODENZ":84,"ACKERZ":"84"}}]}