{"type": "FeatureCollection","features":[{"type":"Feature","geometry":{"type":"Polygon","coordinates":[[[32456239.7116,5923291.0326],[32456380.1547,5923219.0592],[32456518.8484,5923135.0906],[32456632.5517,5923031.6301],[32456701.5224,5922902.1805],[32456719.2638,5922790.2247],[32456716.0134,5922675.2704],[32456694.7703,5922561.8158],[32456655.5344,5922456.3582],[32456601.0546,5922351.9004],[32456539.8275,5922251.4412],[32456470.3538,5922156.9797],[32456392.1337,5922072.5143],[32456353.6475,5921970.0556],[32456324.4076,5921865.5975],[32456304.1642,5921758.6402],[32456294.9163,5921651.183],[32456315.4069,5921561.2185],[32456362.1371,5921479.7502],[32456427.6101,5921407.278],[32456502.0796,5921348.8002],[32456619.2826,5921315.3118],[32456745.2325,5921318.3088],[32456873.182,5921343.2971],[32456996.8833,5921379.2811],[32457091.8457,5921386.277],[32457186.808,5921392.773],[32457281.7703,5921400.2687],[32457377.7323,5921409.2638],[32457504.9314,5921384.2719],[32457620.6343,5921308.8002],[32457726.3408,5921208.8384],[32457826.0498,5921108.3769],[32457892.7714,5920981.9262],[32457921.7579,5920837.9829],[32457923.7549,5920686.0433],[32457908.7588,5920537.6024],[32457921.0017,5920384.663],[32457933.9944,5920232.7231],[32457944.9878,5920079.7837],[32457952.9825,5919927.3441],[32457975.9716,5919807.3914],[32458013.705,5919690.9372],[32458063.4336,5919577.9813],[32458123.1584,5919472.5223],[32458123.1566,5919350.5708],[32458098.9145,5919228.1198],[32458055.68,5919110.667],[32458000.4504,5919000.2117],[32457933.9758,5918924.7426],[32457850.2582,5918863.2682],[32457757.5444,5918819.2869],[32457659.8329,5918793.7984],[32457537.8808,5918750.8172],[32457414.1794,5918710.8349],[32457290.4781,5918675.8505],[32457165.5274,5918647.8634],[32457087.0577,5918583.3901],[32457033.5776,5918490.9276],[32457002.3385,5918384.4703],[32456991.0915,5918278.0127],[32456971.8474,5918158.0606],[32456959.8505,5918036.609],[32456954.6009,5917915.6571],[32456958.3476,5917794.7051],[32456930.357,5917670.2549],[32456896.1189,5917547.8041],[32456855.8832,5917427.8523],[32456810.6495,5917310.3995],[32456737.1775,5917227.4335],[32456631.4688,5917175.9555],[32456511.766,5917148.9679],[32456392.8132,5917139.9731],[32456312.8445,5917107.4871],[32456234.1254,5917075.0011],[32456155.4062,5917042.0154],[32456076.4371,5917009.5294],[32455979.2246,5916924.5645],[32455926.9935,5916794.117],[32455900.0021,5916644.177],[32455878.0087,5916498.7351],[32455843.0201,5916328.3033],[32455816.2783,5916155.8722],[32455796.5336,5915983.9407],[32455783.7862,5915811.5094],[32455740.302,5915705.0523],[32455675.0765,5915606.5924],[32455591.6085,5915525.1259],[32455494.8961,5915465.1512],[32455400.1832,5915430.6662],[32455300.2227,5915414.674],[32455199.2629,5915416.1749],[32455101.0522,5915435.1688],[32455029.5814,5915487.649],[32454977.1034,5915562.6199],[32454940.6191,5915649.0861],[32454919.8787,5915739.0507],[32454903.1368,5915839.0112],[32454893.642,5915940.9708],[32454893.8934,5916042.9303],[32454903.1412,5916145.3895],[32454901.6429,5916221.3593],[32454900.1446,5916297.3291],[32454899.6459,5916373.299],[32454900.1468,5916450.2684],[32454871.4094,5916529.2374],[32454808.1854,5916592.7131],[32454725.719,5916645.1935],[32454643.5023,5916689.677],[32454532.2968,5916704.6726],[32454418.3418,5916686.1816],[32454305.636,5916644.1999],[32454199.9273,5916595.2209],[32454102.2156,5916554.7384],[32454004.5038,5916512.7565],[32453910.7904,5916466.2763],[32453820.0757,5916413.2987],[32453689.1277,5916406.3033],[32453557.6805,5916443.2905],[32453430.2321,5916504.768],[32453309.781,5916573.7423],[32453236.3112,5916648.2138],[32453183.5836,5916741.6774],[32453150.8481,5916846.6362],[32453141.1035,5916952.5942],[32453150.3517,5917084.0419],[32453178.3424,5917213.9899],[32453221.577,5917341.4386],[32453275.8072,5917462.8896],[32453347.2796,5917522.365],[32453441.2427,5917553.3513],[32453545.2014,5917557.848],[32453643.4122,5917542.8526],[32453730.3774,5917532.3555],[32453818.5922,5917518.8596],[32453903.5581,5917499.8659],[32453986.7746,5917470.3764],[32454042.7524,5917477.8726],[32454098.7304,5917495.3649],[32454148.461,5917522.3534],[32454189.1954,5917561.8371],[32454260.918,5917637.3061],[32454325.1436,5917718.7729],[32454384.6212,5917805.7375],[32454440.1004,5917895.2011],[32454527.8162,5917944.6802],[32454630.7756,5917964.6708],[32454740.7318,5917963.1698],[32454846.6895,5917950.1734],[32454916.4124,5917995.6544],[32454980.1379,5918053.1306],[32455033.6176,5918119.6034],[32455073.1029,5918194.0733],[32455087.5984,5918281.0386],[32455083.1015,5918372.0025],[32455062.361,5918462.9667],[32455030.8748,5918548.933],[32454982.3949,5918605.4113],[32454919.9203,5918649.8945],[32454847.6995,5918681.383],[32454774.7288,5918698.8771],[32454668.7708,5918691.3816],[32454564.8117,5918662.3947],[32454464.1011,5918618.4136],[32454369.3881,5918567.935],[32454273.9251,5918501.9626],[32454185.4592,5918428.493],[32454102.9909,5918346.5268],[32454029.5188,5918259.0626],[32453965.7937,5918229.5752],[32453896.8209,5918209.0843],[32453827.8482,5918203.5875],[32453762.6244,5918218.0827],[32453700.6491,5918224.581],[32453639.6735,5918233.0785],[32453579.4476,5918246.574],[32453521.221,5918266.5669],[32453460.2456,5918291.0581],[32453402.0192,5918320.5472],[32453344.7924,5918353.0351],[32453291.3142,5918390.521],[32453278.8183,5918327.5462],[32453263.3236,5918264.5714],[32453235.5838,5918209.0938],[32453191.8507,5918174.1084],[32453147.868,5918159.6148],[32453103.1356,5918148.12],[32453058.1534,5918141.6232],[32453013.9211,5918146.6218],[32452978.9351,5918155.119],[32452943.9491,5918165.1155],[32452908.7133,5918173.6126],[32452873.7273,5918183.6092],[32452822.7478,5918196.1049],[32452771.5183,5918208.6007],[32452720.5387,5918219.5971],[32452669.3093,5918232.0929],[32452595.0892,5918256.5842],[32452519.1196,5918274.0783],[32452440.9009,5918285.5749],[32452363.9316,5918291.5736],[32452273.7174,5918292.0747],[32452184.003,5918281.5802],[32452095.0381,5918262.589],[32452009.0719,5918237.1003],[32451929.3533,5918214.6104],[32451858.6307,5918164.1315],[32451800.1529,5918093.6603],[32451756.6691,5918018.1909],[32451695.6912,5917862.7535],[32451639.7112,5917704.817],[32451599.7248,5917544.3813],[32451585.9779,5917381.4462],[32451590.7241,5917247.4994],[32451595.7202,5917114.0523],[32451599.7167,5916980.1055],[32451603.4634,5916847.1582],[32451606.4602,5916710.2126],[32451607.4578,5916573.7668],[32451608.4555,5916436.8212],[32451609.2032,5916300.8752],[32451623.946,5916209.9111],[32451629.4425,5916116.948],[32451619.1953,5916026.484],[32451587.7066,5915944.5171],[32451538.2254,5915882.0426],[32451480.4975,5915825.5659],[32451416.7722,5915777.086],[32451348.0489,5915738.6023],[32451257.0849,5915724.6092],[32451167.3703,5915704.1186],[32451079.4049,5915677.6304],[32450993.6885,5915645.6443],[32450904.9732,5915605.1617],[32450820.2562,5915556.6822],[32450739.5375,5915500.7056],[32450665.0662,5915439.2311],[32450624.581,5915346.7684],[32450576.099,5915258.3042],[32450515.6219,5915179.8363],[32450440.151,5915119.3614],[32450360.1823,5915083.8766],[32450278.4643,5915052.8901],[32450194.7473,5915029.4006],[32450109.7809,5915013.908],[32450037.8093,5915002.4136],[32449963.8388,5915006.9129],[32449889.6185,5915019.9088],[32449817.3974,5915035.4036],[32449702.9439,5915098.88],[32449583.742,5915151.8607],[32449459.2921,5915192.8462],[32449332.0931,5915221.3367],[32449209.8919,5915237.3321],[32449084.9416,5915239.3331],[32448964.989,5915219.3427],[32448862.2791,5915165.3656],[32448772.8135,5915081.9001],[32448688.5957,5914995.9354],[32448605.1276,5914907.4718],[32448523.6588,5914819.0081],[32448480.4243,5914707.553],[32448426.1943,5914598.0972],[32448353.7218,5914506.1348],[32448260.2582,5914447.6594],[32448161.0477,5914455.6576],[32448062.087,5914454.1596],[32447963.1263,5914445.1646],[32447866.1646,5914430.6717],[32447770.2025,5914411.1808],[32447677.4889,5914376.196],[32447593.7714,5914327.7165],[32447525.2977,5914262.2435],[32447476.8158,5914175.7785],[32447446.5764,5914079.3173],[32447430.0815,5913979.3572],[32447426.8314,5913878.8972],[32447433.8266,5913742.9511],[32447464.5625,5913609.0039],[32447519.5388,5913483.553],[32447597.2563,5913373.0958],[32447729.2019,5913234.6489],[32447867.1451,5913101.6998],[32448007.0876,5912972.749],[32448150.0289,5912844.7978],[32448320.9594,5912737.8379],[32448484.6426,5912619.8824],[32448641.5784,5912490.9314],[32448790.5172,5912354.9833],[32448938.7062,5912211.0384],[32449077.6487,5912054.0988],[32449194.8496,5911884.6644],[32449280.0631,5911699.2369],[32449343.7846,5911482.822],[32449409.2555,5911267.9064],[32449475.726,5911053.4907],[32449543.1961,5910838.5751],[32449582.4276,5910640.1534],[32449635.9035,5910443.2309],[32449709.1217,5910254.8047],[32449805.3309,5910078.3734],[32449918.5336,5909919.9348],[32450040.4829,5909768.993],[32450169.6794,5909623.5489],[32450307.6226,5909486.6014],[32450448.5647,5909358.6502],[32450595.2546,5909236.6966],[32450748.1921,5909122.7397],[32450909.8764,5909022.7771],[32451042.3227,5908954.8022],[32451178.7676,5908891.8252],[32451317.2117,5908834.8459],[32451458.6547,5908786.8629],[32451568.6109,5908779.3643],[32451678.8169,5908767.3675],[32451787.0236,5908746.8741],[32451892.2312,5908714.8853],[32451952.4569,5908685.3961],[32452011.6828,5908650.909],[32452061.9122,5908606.9258],[32452096.3977,5908552.4469],[32452102.6445,5908499.4679],[32452098.1455,5908445.9892],[32452084.4002,5908394.01],[32452060.659,5908348.0286],[32452015.1763,5908296.5498],[32451963.4462,5908252.0682],[32451906.7183,5908213.5843],[32451846.7416,5908181.0981],[32451768.7727,5908183.5982],[32451690.8036,5908174.1031],[32451615.0834,5908154.6119],[32451542.112,5908126.6241],[32451455.3958,5908080.1438],[32451373.9274,5908023.6674],[32451300.2058,5907956.6951],[32451239.7287,5907881.2259],[32451227.4823,5907787.2634],[32451205.9895,5907694.8005],[32451172.5015,5907606.8359],[32451129.2675,5907524.3693],[32451070.7896,5907440.9033],[32451007.3136,5907355.4382],[32450934.5916,5907293.9637],[32450851.8743,5907279.9704],[32450803.6439,5907303.9616],[32450760.4115,5907337.4489],[32450721.1777,5907377.4335],[32450684.6928,5907417.918],[32450629.4657,5907479.3943],[32450586.7337,5907551.3664],[32450554.2478,5907629.3358],[32450529.7586,5907708.8046],[32450551.0018,5907822.2592],[32450559.2502,5907938.213],[32450550.5054,5908054.1671],[32450524.5173,5908166.123],[32450474.7888,5908283.0772],[32450418.063,5908397.5325],[32450350.3414,5908502.9916],[32450265.6265,5908595.4561],[32450183.1602,5908657.9324],[32450096.6954,5908714.4112],[32450008.4812,5908767.8912],[32449920.0172,5908821.3713],[32449780.5733,5908865.3558],[32449646.3774,5908921.3354],[32449516.68,5908988.3107],[32449396.229,5909069.2802],[32449277.5276,5909163.7444],[32449163.8243,5909264.7059],[32449061.1167,5909375.1635],[32448973.1535,5909497.6161],[32448893.1872,5909632.0638],[32448816.2198,5909767.5111],[32448738.2527,5909903.958],[32448662.2849,5910040.9046],[32448604.31,5910183.3489],[32448539.3379,5910322.7944],[32448463.37,5910457.242],[32448376.6563,5910583.693],[32448301.9375,5910686.6532],[32448208.226,5910774.6196],[32448105.768,5910856.0886],[32448004.0596,5910936.5581],[32447772.9038,5911099.4967],[32447544.747,5911267.933],[32447319.589,5911439.3681],[32447095.1807,5911612.8023],[32446865.0244,5911765.245],[32446638.8667,5911928.6833],[32446436.6998,5912112.6131],[32446274.0175,5912328.5296],[32446180.8072,5912505.9604],[32446091.5952,5912685.3904],[32446005.3821,5912866.8195],[32445923.1674,5913049.2482],[32445856.6967,5913245.6711],[32445785.4778,5913440.5946],[32445708.0113,5913632.0197],[32445622.7979,5913821.4456],[32445523.8392,5913958.8924],[32445433.8771,5914102.3367],[32445349.6627,5914250.7789],[32445273.6951,5914402.2198],[32445197.4777,5914563.6567],[32445131.5063,5914729.5917],[32445077.2803,5914900.0247],[32445038.0484,5915073.9562],[32445014.8102,5915249.8866],[32444997.5696,5915427.8162],[32444985.327,5915605.7456],[32444979.082,5915785.1744],[32445017.3187,5915915.6221],[32445044.3099,5916050.5681],[32445053.5582,5916187.0137],[32445037.5665,5916319.9611],[32444998.5838,5916450.4098],[32444956.8523,5916580.3588],[32444912.8716,5916710.3078],[32444866.8918,5916838.7574],[32444816.1633,5916937.7188],[32444769.6833,5917038.1795],[32444725.9521,5917141.1392],[32444684.2202,5917243.5991],[32444649.4855,5917349.5575],[32444625.7465,5917459.5142],[32444601.0079,5917568.4712],[32444566.2732,5917675.4292],[32444508.7971,5917743.9029],[32444421.3325,5917786.3872],[32444320.123,5917806.3808],[32444221.1624,5917810.8804],[32444207.6669,5917749.405],[32444191.9223,5917688.4295],[32444176.4276,5917628.4535],[32444159.6834,5917568.9774],[32444140.1902,5917504.0035],[32444118.6978,5917439.5294],[32444096.2059,5917376.5548],[32444073.464,5917313.5801],[32443994.9922,5917104.6642],[32443914.2714,5916897.7476],[32443833.8004,5916691.3308],[32443752.0799,5916484.4142],[32443719.841,5916357.9649],[32443693.8495,5916230.0161],[32443681.6025,5916100.5677],[32443693.5959,5915974.6176],[32443713.087,5915891.6503],[32443737.826,5915809.6825],[32443770.3119,5915731.2132],[32443811.7944,5915658.2416],[32443842.0316,5915609.2606],[32443874.518,5915561.779],[32443909.7534,5915518.7956],[32443952.9857,5915482.3094],[32444019.209,5915456.8186],[32444094.1792,5915455.3181],[32444170.1491,5915466.8125],[32444245.1196,5915485.304],[32444301.8473,5915502.7963],[32444358.8249,5915525.2865],[32444411.5544,5915553.7744],[32444460.2855,5915589.2596],[32444496.521,5915582.2619],[32444529.5076,5915562.7691],[32444557.746,5915533.7802],[32444575.9882,5915500.7931],[32444577.4867,5915435.8189],[32444563.9911,5915370.8449],[32444541.2493,5915307.3704],[32444514.7589,5915246.395],[32444454.2818,5915159.9303],[32444379.8103,5915082.9619],[32444297.3421,5915014.4903],[32444212.6249,5914951.0168],[32444159.3946,5914851.5571],[32444123.1574,5914743.1007],[32444100.9147,5914630.6457],[32444089.6675,5914517.6907],[32444096.4131,5914395.7391],[32444120.4019,5914275.7864],[32444159.1348,5914159.8319],[32444208.8634,5914048.3755],[32444225.3559,5913984.4007],[32444241.8485,5913920.4259],[32444258.0911,5913857.4506],[32444275.5832,5913794.4754],[32444311.0683,5913733.4991],[32444372.2933,5913690.0155],[32444445.5137,5913657.5274],[32444518.7342,5913632.0364],[32444573.962,5913614.5426],[32444631.9388,5913601.0472],[32444690.1655,5913594.5489],[32444748.1425,5913597.0471],[32444792.3742,5913544.0675],[32444811.8654,5913473.0955],[32444816.6124,5913393.1272],[32444814.1123,5913317.1574],[32444809.6129,5913239.1884],[32444801.1152,5913162.2191],[32444786.6199,5913085.7497],[32444767.1266,5913011.7794],[32444775.6223,5912946.8051],[32444793.8641,5912884.8295],[32444821.3523,5912824.8529],[32444857.8371,5912771.3736],[32444902.0689,5912730.3893],[32444956.2969,5912701.8998],[32445014.5235,5912681.4072],[32445075.4991,5912671.9101],[32445151.4689,5912677.4068],[32445225.4398,5912696.898],[32445298.1613,5912727.3849],[32445366.8845,5912763.8694],[32445412.8662,5912764.3686],[32445461.097,5912760.8693],[32445506.079,5912749.873],[32445545.3131,5912728.381],[32445558.5569,5912667.405],[32445534.0657,5912599.9322],[32445489.5824,5912533.4592],[32445445.8489,5912472.4841],[32445371.3774,5912389.5181],[32445287.9095,5912317.0481],[32445198.4441,5912250.5758],[32445105.7301,5912189.6013],[32444982.5277,5912088.6432],[32444860.0749,5911988.6846],[32444736.8725,5911888.7261],[32444614.4198,5911789.7671],[32444513.9587,5911715.7979],[32444408.2498,5911650.8252],[32444297.7929,5911594.3493],[32444185.087,5911543.3712],[32444137.1056,5911512.884],[32444089.3742,5911481.3972],[32444047.6403,5911446.4117],[32444020.9003,5911401.9298],[32443995.1599,5911357.9476],[32443976.4166,5911310.4668],[32443963.9209,5911260.4868],[32443959.1721,5911210.5067],[32443977.664,5911163.5251],[32444014.8987,5911125.5397],[32444063.1291,5911095.0511],[32444113.1089,5911072.5593],[32444240.3082,5911065.5602],[32444368.0078,5911094.5469],[32444495.7077,5911142.526],[32444620.4088,5911192.5043],[32444768.1009,5911245.4812],[32444914.7933,5911301.4569],[32445059.4867,5911362.9304],[32445202.9306,5911427.9026],[32445295.894,5911455.3904],[32445390.8566,5911478.3799],[32445486.5687,5911492.8728],[32445583.7801,5911494.8706],[32445728.9719,5911463.8809],[32445865.4167,5911397.9051],[32445995.1139,5911311.4377],[32446119.5631,5911221.4716],[32446259.5059,5911114.5122],[32446394.2007,5911001.5551],[32446523.1477,5910881.1012],[32446646.097,5910756.1491],[32446771.7956,5910658.1862],[32446898.244,5910562.7224],[32447026.9414,5910469.7575],[32447158.6378,5910380.791],[32447274.3407,5910304.3197],[32447391.7929,5910231.347],[32447510.2448,5910160.3736],[32447631.6955,5910092.8986],[32447704.166,5910042.4177],[32447776.3865,5909991.9367],[32447846.8577,5909937.4573],[32447913.3305,5909879.9792],[32447943.8172,5909798.0114],[32447918.5758,5909700.0507],[32447863.0964,5909599.5914],[32447802.8691,5909510.1278],[32447764.882,5909359.6881],[32447727.8946,5909210.248],[32447691.9067,5909060.8079],[32447656.9185,5908911.3678],[32447665.6634,5908795.4137],[32447728.3869,5908687.9555],[32447823.0979,5908593.4917],[32447927.5553,5908520.0194],[32448002.0247,5908455.544],[32448079.493,5908394.0673],[32448160.9598,5908338.5882],[32448248.1745,5908294.6044],[32448330.3916,5908279.1094],[32448416.3575,5908286.6052],[32448500.0746,5908311.0943],[32448577.7942,5908349.0781],[32448627.7744,5908355.075],[32448678.7542,5908362.5713],[32448729.7341,5908370.0676],[32448780.7139,5908376.5643],[32448847.9369,5908357.0711],[32448902.4144,5908299.0933],[32448945.896,5908223.6227],[32448986.3788,5908149.6515],[32449006.8696,5908072.6818],[32449009.3674,5907991.7139],[32448998.1207,5907910.7463],[32448977.6277,5907832.2777],[32448950.8875,5907773.3016],[32448917.4,5907716.8245],[32448875.6659,5907667.8445],[32448826.9347,5907627.3613],[32448837.4295,5907557.389],[32448877.9125,5907493.4138],[32448934.1393,5907435.9359],[32448994.6146,5907387.4543],[32449063.0866,5907334.9741],[32449135.3072,5907288.4916],[32449210.5267,5907247.007],[32449288.7451,5907212.5196],[32449317.233,5907159.5402],[32449324.7291,5907095.5655],[32449313.9824,5907030.5915],[32449291.4905,5906971.1155],[32449230.764,5906926.634],[32449158.0426,5906903.1444],[32449078.0743,5906893.6493],[32448999.8554,5906892.151],[32448927.1337,5906853.6673],[32448856.4113,5906814.184],[32448787.688,5906771.2021],[32448721.9635,5906723.7219],[32448679.4796,5906670.7435],[32448652.7393,5906606.2695],[32448638.2441,5906537.2972],[32448635.7441,5906467.8248],[32448673.4778,5906377.3602],[32448742.9491,5906300.8896],[32448829.4137,5906236.414],[32448917.8777,5906178.9356],[32448964.1087,5906136.4518],[32449011.3393,5906093.4682],[32449059.8195,5906052.9836],[32449111.0486,5906016.4974],[32449140.2862,5905966.5168],[32449154.7796,5905908.5396],[32449156.2781,5905847.5638],[32449151.5292,5905787.5878],[32449117.2913,5905688.1278],[32449061.8121,5905596.6649],[32448995.3373,5905511.1998],[32448925.8638,5905429.7332],[32448924.6129,5905335.2708],[32448962.3466,5905243.8066],[32449023.8209,5905158.8395],[32449095.2914,5905087.3669],[32449241.7322,5905021.391],[32449405.9166,5904996.8984],[32449576.0988,5904995.8964],[32449744.0322,5905005.3902],[32449903.2186,5904984.3963],[32450062.405,5904964.9017],[32450221.5913,5904943.9078],[32450380.7777,5904923.9135],[32450477.9886,5904892.9244],[32450565.453,5904832.4472],[32450637.923,5904751.9781],[32450688.6515,5904660.0139],[32450747.3766,5904554.555],[32450797.1052,5904445.5976],[32450838.837,5904332.1421],[32450870.8226,5904217.1874],[32450920.3015,5904117.7262],[32450970.0303,5904018.7648],[32451022.7579,5903921.3028],[32451078.4843,5903825.3401],[32451149.9547,5903742.8719],[32451241.4174,5903678.3962],[32451343.8759,5903627.415],[32451449.0834,5903586.9296],[32451532.5493,5903524.4532],[32451617.0149,5903463.4762],[32451699.4811,5903400.9999],[32451781.9474,5903336.5243],[32451832.6759,5903244.5602],[32451832.4243,5903129.6059],[32451801.185,5903006.1554],[32451761.9489,5902892.2012],[32451752.9507,5902763.7524],[32451745.7017,5902636.803],[32451736.7034,5902509.3538],[32451728.4549,5902382.4044],[32451733.2013,5902262.452],[32451756.1904,5902143.4989],[32451792.9241,5902026.5449],[32451835.6555,5901914.089],[32451888.1335,5901840.1176],[32451963.6027,5901784.6386],[32452050.8174,5901745.153],[32452142.0309,5901726.1593],[32452217.2505,5901694.6707],[32452293.4697,5901664.1817],[32452369.689,5901636.6916],[32452448.9072,5901615.199],[32452510.1323,5901576.7134],[32452567.6087,5901532.2303],[32452618.8376,5901481.2498],[32452666.3179,5901426.7708],[32452719.7953,5901332.8073],[32452758.5284,5901232.3467],[32452787.2655,5901127.388],[32452811.0045,5901021.4298],[32452899.9712,5901165.3713],[32453003.1821,5901302.3154],[32453122.3864,5901420.2668],[32453262.8318,5901509.2294],[32453401.5275,5901565.2051],[32453547.2201,5901606.1867],[32453696.1613,5901632.6741],[32453847.1014,5901642.6679],[32453994.0429,5901640.6666],[32454141.2342,5901632.6676],[32454287.4258,5901615.1725],[32454431.618,5901585.1823],[32454552.8194,5901562.6895],[32454675.0205,5901541.6961],[32454796.222,5901516.7043],[32454916.4237,5901488.7137],[32455008.3871,5901483.2145],[32455102.3498,5901488.711],[32455194.3134,5901504.7033],[32455284.278,5901531.1914],[32455364.7469,5901594.1652],[32455420.2262,5901686.6277],[32455457.4629,5901793.5846],[32455483.7041,5901902.0411],[32455456.7167,5902034.9887],[32455385.9966,5902156.4414],[32455289.0368,5902267.8985],[32455186.3291,5902369.3597],[32455093.8668,5902429.3372],[32454993.6574,5902477.8194],[32454886.4504,5902507.809],[32454778.2436,5902517.3068],[32454663.79,5902578.2842],[32454550.3361,5902641.7606],[32454438.8814,5902707.736],[32454330.4256,5902779.2091],[32454238.7133,5902866.1759],[32454164.9942,5902972.1348],[32454106.2692,5903087.5898],[32454059.2897,5903208.5424],[32454012.8095,5903304.0051],[32453967.0791,5903401.9668],[32453925.3472,5903500.4283],[32453889.6129,5903601.3887],[32453847.1311,5903691.8533],[32453805.399,5903783.8174],[32453763.6669,5903875.7814],[32453721.1852,5903967.2457],[32453566.9966,5903974.2451],[32453412.8081,5903988.2418],[32453260.619,5904008.7359],[32453109.4295,5904037.7265],[32453006.2209,5904057.2202],[32452905.0115,5904086.2102],[32452812.7989,5904131.6934],[32452739.3291,5904199.1677],[32452686.6013,5904285.6341],[32452633.1238,5904371.6007],[32452576.3976,5904455.0683],[32452519.9213,5904539.5355],[32452471.4417,5904616.5056],[32452416.9644,5904689.9772],[32452356.4895,5904757.4513],[32452288.0176,5904816.9286],[32452223.7937,5904856.9136],[32452153.5721,5904888.4021],[32452081.3511,5904912.8934],[32452007.1309,5904928.3883],[32451923.164,5904905.3987],[32451837.4479,5904894.9041],[32451750.2326,5904893.4059],[32451664.2669,5904899.4048],[32451555.0605,5904915.8998],[32451448.8532,5904942.8906],[32451343.6455,5904978.378],[32451243.436,5905021.3624],[32451144.9759,5905069.8445],[32451053.5131,5905131.3214],[32450969.0478,5905202.7942],[32450897.3275,5905285.2624],[32450828.6063,5905389.7219],[32450767.8821,5905499.1793],[32450713.1555,5905612.1351],[32450664.4265,5905727.5899],[32450618.6963,5905833.5485],[32450584.9613,5905945.0047],[32450570.9685,5906059.4594],[32450583.2152,5906171.4148],[32450620.7018,5906272.8739],[32450670.9333,5906373.3333],[32450735.4088,5906457.7988],[32450820.8757,5906517.2739],[32450920.8365,5906555.2574],[32451022.5465,5906590.7418],[32451124.2566,5906625.7265],[32451227.2161,5906661.7107],[32451338.1721,5906668.2065],[32451447.8788,5906693.195],[32451554.587,5906732.178],[32451657.2968,5906780.6572],[32451780.9987,5906853.6265],[32451898.4532,5906938.591],[32452001.6635,5907038.5498],[32452085.8817,5907153.0031],[32452152.1073,5907286.949],[32452214.0846,5907423.3938],[32452270.3142,5907561.838],[32452322.2956,5907702.2815],[32452367.2796,5907835.7278],[32452405.5164,5907972.173],[32452435.5065,5908110.6176],[32452455.5005,5908250.5617],[32452463.4994,5908393.005],[32452468.4995,5908535.9481],[32452469.5012,5908679.8909],[32452462.506,5908823.334],[32452458.2587,5908890.3074],[32452445.7646,5908957.281],[32452420.2756,5909020.7562],[32452383.791,5909075.7348],[32452329.5631,5909116.2195],[32452270.3371,5909148.7075],[32452206.113,5909170.6997],[32452141.1389,5909175.1988],[32452087.4095,5909125.7192],[32452028.6822,5909080.2382],[32451965.9567,5909048.7516],[32451900.9825,5909046.2535],[32451854.7512,5909066.746],[32451811.5188,5909094.7355],[32451774.2841,5909129.2224],[32451747.0456,5909171.2061],[32451722.806,5909225.6848],[32451703.3146,5909282.6624],[32451684.8228,5909340.6396],[32451668.5801,5909398.6168],[32451658.8351,5909481.584],[32451643.3425,5909565.5509],[32451623.8514,5909647.5186],[32451601.1117,5909729.4863],[32451580.621,5909814.4529],[32451549.1347,5909896.9205],[32451505.6531,5909971.8914],[32451446.1776,5910032.3682],[32451362.9612,5910066.8557],[32451282.4938,5910106.3412],[32451203.2759,5910148.8254],[32451125.8074,5910194.3084],[32451045.5899,5910236.7927],[32450972.1199,5910290.2725],[32450904.8975,5910352.7487],[32450844.4225,5910420.2227],[32450782.948,5910487.6968],[32450744.2147,5910576.662],[32450731.4711,5910672.624],[32450751.9642,5910761.5884],[32450827.9361,5910907.5293],[32450902.9084,5911054.9697],[32450976.8811,5911202.9098],[32451051.1038,5911350.3502],[32451134.3224,5911469.8015],[32451209.2944,5911597.7496],[32451263.5248,5911732.1954],[32451286.5177,5911873.6389],[32451278.7725,5911993.5913],[32451261.781,5912113.5439],[32451234.0437,5912230.4978],[32451193.3115,5912342.9537],[32451129.3387,5912465.9058],[32451068.6146,5912588.358],[32451007.6407,5912711.8098],[32450946.9166,5912836.7611],[32450863.9513,5912953.216],[32450797.2297,5913080.6663],[32450746.2519,5913215.1136],[32450712.2674,5913355.0585],[32450696.0261,5913509.9972],[32450693.0296,5913669.4338],[32450714.0234,5913823.3724],[32450769.0036,5913965.815],[32450842.4757,5914054.7786],[32450928.9425,5914135.2454],[32451027.6541,5914195.2201],[32451135.3617,5914223.7073],[32451235.8209,5914167.7281],[32451343.0276,5914122.2446],[32451454.233,5914094.2541],[32451568.4375,5914089.2545],[32451670.3973,5914109.7449],[32451771.1077,5914140.7311],[32451862.8219,5914188.2109],[32451935.2941,5914257.6823],[32451931.7966,5914339.15],[32451943.2932,5914420.1176],[32451964.7858,5914500.0856],[32451996.2744,5914576.5547],[32452042.7571,5914655.0229],[32452108.232,5914722.4951],[32452186.9515,5914774.9731],[32452273.6675,5914807.9588],[32452397.6183,5914816.4536],[32452523.8178,5914794.4606],[32452645.2688,5914748.4771],[32452757.7232,5914686.5001],[32452878.4237,5914583.0395],[32452978.1323,5914456.5883],[32453061.3471,5914314.1437],[32453131.3172,5914168.7004],[32453175.8024,5914370.1198],[32453249.526,5914571.0389],[32453360.4843,5914740.9698],[32453518.673,5914846.9254],[32453718.3444,5914907.3985],[32453925.0129,5914949.3788],[32454133.9301,5914970.8672],[32454343.0969,5914970.3644],[32454501.2839,5914959.3665],[32454660.2205,5914945.8696],[32454816.408,5914919.8776],[32454967.8471,5914874.8933],[32455110.7903,5914876.8905],[32455254.9831,5914885.8848],[32455397.6766,5914902.876],[32455538.621,5914932.3622],[32455699.3079,5914986.3385],[32455853.7475,5915059.8071],[32456002.1898,5915146.7705],[32456145.6341,5915242.7303],[32456297.075,5915320.1974],[32456448.7658,5915398.1643],[32456600.2067,5915476.631],[32456752.6473,5915554.5979],[32456884.3455,5915595.5797],[32457028.5382,5915599.5761],[32457172.7305,5915575.5836],[32457311.9246,5915535.5975],[32457426.1288,5915509.6062],[32457539.3334,5915480.6162],[32457651.5383,5915445.1287],[32457758.9949,5915400.145],[32457856.206,5915382.6506],[32457955.1664,5915367.6552],[32458053.3772,5915357.158],[32458153.3374,5915354.1577],[32458263.2941,5915379.646],[32458365.7542,5915437.6216],[32458459.468,5915515.0895],[32458544.6854,5915599.0549],[32458641.3977,5915652.0325],[32458739.1096,5915704.5102],[32458836.8215,5915757.4878],[32458936.5326,5915806.9667],[32459023.2485,5915838.9528],[32459115.2123,5915860.4429],[32459209.1751,5915870.9374],[32459304.1374,5915874.9345],[32459393.1018,5915859.4394],[32459479.5669,5915825.9515],[32459560.784,5915779.9686],[32459636.2532,5915725.4892],[32459671.9875,5915627.5276],[32459657.7416,5915515.0725],[32459615.5067,5915399.1191],[32459565.0252,5915292.6622],[32459512.7948,5915207.1968],[32459450.3184,5915127.2295],[32459379.5955,5915055.7589],[32459301.1259,5914997.2833],[32459289.8788,5914890.3259],[32459317.6162,5914780.3692],[32459370.3437,5914675.4102],[32459432.0678,5914578.9476],[32459518.0313,5914422.5085],[32459610.2424,5914270.0678],[32459706.2021,5914119.6262],[32459807.1598,5913973.183],[32459873.3812,5913812.7458],[32459922.6092,5913644.8118],[32459956.5932,5913472.8796],[32459979.8315,5913300.9476],[32459970.0829,5913134.0141],[32459929.0968,5912969.58],[32459864.1204,5912811.1439],[32459783.1504,5912663.2038],[32459711.1769,5912515.7634],[32459637.2042,5912368.8228],[32459557.9837,5912226.3806],[32459471.0162,5912088.4366],[32459393.5457,5911992.9756],[32459306.3291,5911905.0118],[32459209.6164,5911828.5436],[32459105.1571,5911766.5697],[32458996.4496,5911720.5895],[32458882.4945,5911691.1028],[32458765.7907,5911675.1108],[32458648.5872,5911673.1133],[32458552.6253,5911664.618],[32458457.6629,5911657.6222],[32458362.7006,5911654.1249],[32458267.7384,5911656.1254],[32458186.0203,5911616.6423],[32458120.2955,5911548.1704],[32458069.0646,5911461.7055],[32458029.579,5911373.2412],[32457988.0944,5911292.7738],[32457950.6081,5911210.8069],[32457918.1198,5911127.3405],[32457892.8786,5911041.8748],[32457849.3948,5910965.9056],[32457803.9118,5910890.4362],[32457755.1801,5910817.9657],[32457704.6992,5910747.4944],[32457677.4585,5910647.0347],[32457679.2063,5910540.0772],[32457696.9477,5910432.1199],[32457722.6859,5910328.1608],[32457726.6824,5910191.2152],[32457731.4285,5910055.2691],[32457735.4249,5909918.3235],[32457740.421,5909782.3774],[32457725.4249,5909641.9334],[32457683.1897,5909504.4886],[32457623.2117,5909373.0417],[32457555.9866,5909245.5933],[32457485.763,5909144.6344],[32457401.2953,5909054.1716],[32457306.8317,5908975.2043],[32457203.122,5908911.731],[32457118.405,5908861.752],[32457031.6888,5908816.2713],[32456941.974,5908779.2873],[32456849.2605,5908754.7983],[32456716.3131,5908739.8061],[32456581.1169,5908744.8061],[32456446.9206,5908762.8008],[32456314.7235,5908787.7927],[32456416.6813,5908676.3356],[32456522.3877,5908569.3766],[32456629.0938,5908462.9174],[32456738.7987,5908359.9568],[32456821.5146,5908275.4892],[32456910.9779,5908197.0191],[32457006.4389,5908127.5453],[32457109.8969,5908071.0663],[32457193.1133,5908036.079],[32457282.3276,5908014.5863],[32457374.2909,5908006.0884],[32457466.5043,5908012.0847],[32457594.2039,5908036.0734],[32457721.1538,5908065.0601],[32457846.8543,5908097.0456],[32457973.8043,5908131.5301],[32458097.2562,5908196.5025],[32458224.9562,5908254.4777],[32458356.6545,5908299.9577],[32458493.6005,5908327.9447],[32458585.5639,5908330.4424],[32458678.5268,5908319.9452],[32458767.741,5908295.9535],[32458849.9577,5908255.4684],[32458919.4293,5908198.9899],[32458975.9058,5908125.0185],[32459016.6384,5908040.5514],[32459043.1265,5907952.586],[32459065.1157,5907806.6437],[32459078.1084,5907659.7019],[32459078.1063,5907512.7603],[32459062.1105,5907367.3183],[32459029.371,5907188.8897],[32458995.6318,5907010.4611],[32458961.8926,5906832.0324],[32458930.1527,5906655.1032],[32458902.1616,5906498.6657],[32458875.17,5906342.2283],[32458848.1785,5906185.7908],[32458822.1866,5906030.8528],[32459038.8515,5906105.3201],[32459259.5147,5906170.791],[32459483.1765,5906219.7683],[32459710.0866,5906243.2558],[32459862.0262,5906240.7546],[32460015.215,5906222.7596],[32460164.6551,5906187.7713],[32460307.8474,5906135.79],[32460467.5328,5906057.8187],[32460622.22,5905968.8518],[32460768.9102,5905868.8894],[32460909.6027,5905759.9307],[32461038.5494,5905618.9849],[32461149.7529,5905461.5459],[32461243.963,5905292.1119],[32461323.1789,5905116.6805],[32461424.6356,5904907.2623],[32461522.0938,5904696.8445],[32461613.5543,5904484.4277],[32461700.0168,5904269.012],[32461797.4749,5904050.5975],[32461895.1829,5903832.1829],[32461992.641,5903613.7683],[32462091.0987,5903396.3533],[32462166.0667,5903245.912],[32462255.0292,5903103.4674],[32462354.9875,5902968.0198],[32462464.942,5902840.5689],[32462542.4102,5902777.093],[32462636.872,5902732.1095],[32462735.8324,5902709.617],[32462834.7931,5902717.1126],[32462946.749,5902743.1007],[32463055.4564,5902786.0821],[32463158.1664,5902844.0575],[32463252.6298,5902912.529],[32463327.1017,5903011.9884],[32463378.333,5903130.4405],[32463408.3229,5903256.8899],[32463425.5679,5903385.3386],[32463468.8019,5903469.8044],[32463512.2859,5903554.77],[32463559.7682,5903637.2365],[32463613.2481,5903716.7041],[32463697.4662,5903827.6588],[32463786.9322,5903935.1148],[32463881.1462,5904039.0722],[32463977.3595,5904141.0302],[32464050.582,5904258.4825],[32464110.8099,5904384.9314],[32464160.0423,5904517.378],[32464201.0279,5904651.824],[32464246.0122,5904799.2647],[32464288.9972,5904948.7047],[32464326.9843,5905099.1444],[32464359.9734,5905250.5837],[32464396.2109,5905380.5315],[32464432.1985,5905511.9788],[32464468.4359,5905642.4264],[32464506.4227,5905773.8736],[32464532.6641,5905898.3238],[32464549.6592,5906025.2731],[32464559.907,5906153.7219],[32464564.9068,5906282.6706],[32464550.1644,5906399.6244],[32464512.4311,5906514.5792],[32464458.704,5906623.0369],[32464394.9808,5906725.4971],[32464387.2351,5906812.4627],[32464388.7358,5906900.9275],[32464401.2321,5906986.8932],[32464429.4721,5907069.36],[32464466.2084,5907134.3336],[32464512.6908,5907193.8093],[32464568.4194,5907245.2881],[32464631.145,5907287.7703],[32464737.8532,5907327.7529],[32464852.8078,5907348.7429],[32464970.761,5907355.2386],[32465087.7145,5907356.2365],[32465144.6919,5907363.7327],[32465201.6694,5907371.2289],[32465258.6468,5907378.7251],[32465316.6239,5907384.2221],[32465400.5907,5907401.7139],[32465483.3082,5907427.2026],[32465564.2764,5907456.6897],[32465645.9944,5907488.6758],[32465718.716,5907525.1603],[32465787.4394,5907571.6408],[32465851.1648,5907625.1187],[32465910.642,5907682.595],[32465884.405,5907862.5238],[32465861.1669,5908043.4523],[32465841.9271,5908224.3807],[32465826.6858,5908406.3086],[32465818.9406,5908520.2634],[32465815.1937,5908634.718],[32465815.4452,5908748.6727],[32465821.6944,5908863.627],[32465825.1941,5908937.5975],[32465837.6902,5909012.0678],[32465857.1835,5909085.0385],[32465882.6744,5909156.5097],[32465929.9072,5909267.9648],[32465976.1405,5909379.4198],[32466022.3737,5909491.8744],[32466068.6069,5909603.8293],[32466109.8423,5909726.28],[32466155.0761,5909847.7311],[32466203.0588,5909968.1826],[32466254.2901,5910088.634],[32466315.7669,5910170.1007],[32466370.2465,5910257.5652],[32466415.7297,5910350.0278],[32466453.9659,5910446.4889],[32466490.2032,5910567.9401],[32466520.1931,5910692.3902],[32466544.4353,5910817.3403],[32466562.6799,5910943.7897],[32466577.676,5911091.7307],[32466587.6742,5911241.1712],[32466593.4241,5911391.1116],[32466594.4259,5911541.052],[32466589.4303,5911712.4839],[32466584.1849,5911884.4157],[32466574.9411,5912055.3479],[32466562.6984,5912227.2798],[32466547.7066,5912379.7194],[32466533.7144,5912532.6589],[32466519.7221,5912684.5987],[32466505.7299,5912837.5381],[32466496.4857,5912986.4791],[32466485.4923,5913135.4201],[32466469.5008,5913284.3611],[32466448.5113,5913433.3023],[32466418.7749,5913559.2526],[32466390.7879,5913686.2026],[32466364.8,5913813.1525],[32466341.0613,5913941.1021],[32466312.075,5914089.0437],[32466286.0875,5914237.9849],[32466264.0984,5914386.926],[32466245.8578,5914537.8663],[32466228.8671,5914708.7987],[32466214.6252,5914879.731],[32466200.3833,5915051.6628],[32466188.1407,5915223.5947],[32466173.149,5915384.531],[32466161.9058,5915546.9666],[32466155.9105,5915708.9024],[32466155.9129,5915870.838],[32466165.6614,5916039.271],[32466173.4108,5916207.2041],[32466180.4105,5916376.6367],[32466187.1602,5916545.5695],[32466193.1603,5916714.0025],[32466195.9116,5916881.9357],[32466194.6644,5917049.8691],[32466192.6676,5917219.3018],[32466187.1726,5917416.2237],[32466178.9287,5917613.1456],[32466165.4369,5917810.0675],[32466146.1973,5918007.4894],[32466121.9596,5918191.4167],[32466096.7222,5918375.344],[32466068.4861,5918559.2713],[32466037.2511,5918743.1987],[32466010.2637,5918872.6477],[32465983.2762,5919002.5965],[32465956.5387,5919132.5453],[32465929.5513,5919262.494],[32465888.8191,5919373.4505],[32465855.0841,5919485.9064],[32465831.0953,5919601.8607],[32465823.35,5919718.8143],[32465830.5988,5919836.2676],[32465836.848,5919954.2206],[32465842.0976,5920072.1737],[32465844.0985,5920190.6266],[32465843.3503,5920297.5841],[32465842.6021,5920405.5413],[32465841.1042,5920513.4984],[32465839.3565,5920621.9554],[32465830.3621,5920763.8991],[32465824.3665,5920906.8424],[32465821.3697,5921049.7857],[32465821.3718,5921194.2283],[32465822.3734,5921337.1715],[32465829.3726,5921480.1147],[32465840.3703,5921623.5575],[32465853.3672,5921766.5006],[32465896.3524,5921930.9346],[32465929.0918,5922099.3672],[32465951.0855,5922269.7992],[32465960.834,5922440.7312],[32465962.3367,5922669.1405],[32465962.5898,5922898.0495],[32465960.0941,5923127.4585],[32465950.6011,5923356.3677],[32465939.3581,5923537.296],[32465928.1152,5923718.7241],[32465916.8722,5923899.6524],[32465905.6293,5924080.5807],[32465890.3879,5924260.5094],[32465878.1453,5924441.4378],[32465867.902,5924622.8659],[32465859.6579,5924804.7937],[32465843.6663,5924953.7348],[32465836.6712,5925103.6753],[32465842.671,5925254.1155],[32465866.6636,5925402.0564],[32465902.6512,5925538.5017],[32465943.6368,5925674.9469],[32465992.8692,5925808.3932],[32466050.8479,5925937.8409],[32466126.0701,5926083.7819],[32466201.0424,5926231.2222],[32466275.0151,5926377.663],[32466349.9873,5926525.6031],[32466430.9575,5926688.0374],[32466511.9276,5926850.9716],[32466591.6482,5927013.9057],[32466673.6179,5927177.3396],[32466767.3333,5927360.2656],[32466864.2973,5927543.1915],[32466962.011,5927725.1179],[32467060.7243,5927906.5445],[32467035.2356,5927984.5138],[32467001.7501,5928063.483],[32466955.2695,5928128.9576],[32466891.7953,5928171.4416],[32466822.823,5928188.9357],[32466752.6012,5928204.4305],[32466682.6291,5928213.9278],[32466612.4072,5928219.4266],[32466529.4401,5928216.9288],[32466446.4731,5928216.4302],[32466363.5061,5928215.9316],[32466281.5387,5928215.9328],[32466176.5803,5928207.4377],[32466071.3721,5928207.4392],[32465966.414,5928213.9382],[32465862.2055,5928223.9357],[32465758.247,5928230.4347],[32465656.038,5928255.4262],[32465560.5766,5928298.9103],[32465479.3597,5928360.3871],[32465405.6404,5928453.8511],[32465346.9153,5928560.3096],[32465311.1811,5928674.2649],[32465309.1836,5928790.2189],[32465343.4219,5928919.667],[32465387.4062,5929048.1153],[32465441.6364,5929170.5659],[32465507.8618,5929288.0183],[32465582.0838,5929394.9748],[32465666.5516,5929494.434],[32465756.0175,5929591.3942],[32465847.2326,5929685.8554],[32465983.4305,5929832.7951],[32466130.3741,5929970.2384],[32466287.5634,5930096.6859],[32466451.7498,5930213.637],[32466681.1602,5930328.588],[32466909.3212,5930450.5363],[32467131.4847,5930578.9822],[32467348.6504,5930718.9235],[32467484.8476,5930815.8831],[32467617.2964,5930918.8403],[32467741.4986,5931030.7941],[32467852.7062,5931155.7429],[32467917.1819,5931247.2057],[32467977.4093,5931343.6665],[32468025.8915,5931445.1255],[32468052.1326,5931552.5825],[32468048.6348,5931608.5603],[32468031.3925,5931665.5379],[32468000.9053,5931715.5185],[32467960.6719,5931755.0034],[32467885.4523,5931792.4896],[32467806.2343,5931823.9782],[32467725.0169,5931844.4712],[32467641.8001,5931852.969],[32467548.837,5931847.9723],[32467456.8735,5931837.4778],[32467365.1597,5931823.4847],[32467274.1957,5931810.9909],[32467131.2524,5931796.9985],[32466991.3077,5931770.0112],[32466851.6127,5931732.5281],[32466715.6661,5931690.5467],[32466576.4701,5931590.5884],[32466427.0283,5931507.6235],[32466269.34,5931437.1538],[32466108.653,5931379.1792],[32465890.239,5931317.207],[32465668.3265,5931266.7302],[32465445.6645,5931228.7485],[32465220.7536,5931204.2615],[32465012.836,5931189.7703],[32464803.6692,5931188.2739],[32464596.5018,5931204.7704],[32464394.3328,5931246.2568],[32464169.673,5931310.7345],[32463947.2624,5931377.7111],[32463723.6024,5931447.1867],[32463502.1914,5931516.6623],[32463260.5386,5931590.1366],[32463020.1353,5931667.1095],[32462781.4813,5931749.5802],[32462544.8267,5931836.5491],[32462252.9444,5931947.5092],[32461961.062,5932059.469],[32461671.1789,5932174.4275],[32461383.2951,5932294.384],[32461168.6318,5932385.8507],[32460954.9681,5932479.3167],[32460741.3044,5932572.7826],[32460527.6407,5932667.2482],[32460394.9447,5932751.2167],[32460258.5001,5932831.1869],[32460115.058,5932893.1643],[32459965.618,5932928.1526],[32459861.6593,5932930.6531],[32459756.701,5932929.655],[32459655.741,5932917.1614],[32459559.7787,5932885.1754],[32459514.0464,5932853.6886],[32459473.3121,5932817.7035],[32459437.5757,5932776.2205],[32459408.8365,5932730.7389],[32459386.0951,5932697.7524],[32459388.3435,5932650.771],[32459403.8366,5932599.791],[32459423.0783,5932553.809],[32459477.805,5932447.3505],[32459541.5282,5932346.8895],[32459614.2479,5932251.4263],[32459693.7151,5932162.9603],[32459782.4284,5932064.4982],[32459888.1352,5931982.0294],[32460002.5886,5931908.0572],[32460117.2919,5931836.5839],[32460341.2008,5931693.1377],[32460572.1071,5931561.6866],[32460809.0112,5931438.732],[32461049.9138,5931325.2736],[32461349.793,5931220.311],[32461647.423,5931107.3516],[32461942.3041,5930988.8944],[32462237.435,5930867.9382],[32462590.2929,5930741.4833],[32462946.1495,5930610.0304],[32463279.5145,5930446.0907],[32463566.1473,5930220.1762],[32463678.1009,5930088.227],[32463788.0552,5929953.7788],[32463890.0127,5929813.3331],[32463978.9752,5929665.8904],[32464010.4616,5929595.9177],[32464035.9505,5929523.4461],[32464053.4424,5929449.4753],[32464057.9396,5929374.505],[32464047.1931,5929323.0256],[32464023.7018,5929275.045],[32463987.9654,5929236.5608],[32463944.9823,5929220.5677],[32463868.0129,5929223.0679],[32463790.7937,5929229.0666],[32463714.8241,5929239.5635],[32463639.6042,5929255.0585],[32463582.627,5929262.5563],[32463527.3992,5929284.5484],[32463474.1708,5929312.0382],[32463422.9416,5929341.5272],[32463312.4865,5929411.0012],[32463202.0314,5929477.9762],[32463088.5775,5929542.4523],[32462975.1235,5929604.4293],[32462812.4394,5929689.3979],[32462649.0056,5929773.3669],[32462486.3215,5929856.8361],[32462323.6374,5929940.8051],[32462126.967,5930043.2672],[32461928.2975,5930143.2304],[32461729.378,5930241.6942],[32461530.7084,5930339.1583],[32461282.8087,5930457.6148],[32461034.1592,5930572.5727],[32460784.2602,5930685.0317],[32460534.3612,5930797.9904],[32460248.4768,5930930.9417],[32459961.3428,5931059.8946],[32459669.4606,5931178.8515],[32459372.83,5931281.8148],[32459113.1842,5931352.7904],[32458855.7876,5931425.7651],[32458598.1412,5931501.2388],[32458340.4947,5931576.2127],[32458087.8464,5931665.1809],[32457834.1985,5931748.6514],[32457577.5516,5931825.6245],[32457320.155,5931895.6003],[32457172.7143,5931942.5838],[32457018.2763,5931984.5693],[32456869.3357,5931995.567],[32456734.6386,5931952.586],[32456654.9193,5931881.1155],[32456574.4503,5931812.144],[32456490.9825,5931746.6712],[32456407.2649,5931682.6978],[32456338.7913,5931624.222],[32456266.0695,5931572.7435],[32456187.3502,5931533.2603],[32456103.3833,5931513.7692],[32456036.4099,5931511.7709],[32455969.1868,5931525.7663],[32455905.9624,5931552.2567],[32455848.7356,5931587.7434],[32455758.2726,5931656.2175],[32455668.8091,5931724.1918],[32455579.3457,5931793.6655],[32455489.8823,5931863.1392],[32455416.4126,5931941.609],[32455336.6953,5932015.081],[32455250.2306,5932077.5574],[32455157.0184,5932127.0391],[32455085.7969,5932143.5336],[32455011.8264,5932145.034],[32454939.8548,5932130.041],[32454877.1293,5932098.5544],[32454809.655,5932026.0841],[32454751.1771,5931941.6185],[32454717.6891,5931852.6543],[32454728.4336,5931766.6883],[32454773.9142,5931672.725],[32454822.6435,5931581.2606],[32454873.372,5931490.296],[32454922.8511,5931399.8313],[32454977.8271,5931255.8876],[32455051.7958,5931119.4408],[32455137.7597,5930989.991],[32455233.4699,5930868.5378],[32455364.6656,5930719.5951],[32455510.6057,5930583.647],[32455668.5411,5930460.6936],[32455836.2229,5930354.7333],[32456032.8932,5930249.2724],[32456237.8103,5930154.807],[32456448.2256,5930079.334],[32456665.6385,5930032.8494],[32456904.0432,5930001.3585],[32457142.1981,5929973.3662],[32457381.3526,5929943.8745],[32457620.757,5929915.8823],[32457863.6605,5929917.3782],[32458107.8131,5929900.3815],[32458349.2166,5929865.3919],[32458587.6211,5929811.9098],[32458886.251,5929721.9413],[32459184.1312,5929626.9747],[32459479.7622,5929525.5108],[32459773.6438,5929417.5495],[32460046.5334,5929286.5976],[32460322.4219,5929162.1431],[32460602.3089,5929044.1859],[32460884.1952,5928933.2259],[32461190.072,5928819.7666],[32461498.9476,5928711.805],[32461809.5726,5928610.3409],[32462122.4468,5928514.3745],[32462423.826,5928446.3971],[32462724.4554,5928374.9212],[32463023.0856,5928296.9478],[32463319.7164,5928209.9781],[32463495.1458,5928154.4976],[32463667.5763,5928089.5209],[32463836.2581,5928013.5486],[32463996.943,5927925.0814],[32464101.4004,5927854.6079],[32464203.8585,5927775.138],[32464283.5755,5927681.674],[32464318.3101,5927572.2169],[32464300.0661,5927478.7543],[32464272.5757,5927387.7908],[32464230.0914,5927305.3242],[32464168.6149,5927239.8511],[32464097.8925,5927202.367],[32464021.9223,5927173.3796],[32463944.203,5927154.8881],[32463865.2343,5927147.3922],[32463770.0221,5927147.8934],[32463676.0596,5927156.8912],[32463583.8466,5927176.3848],[32463495.6321,5927207.8735],[32463383.1775,5927256.8557],[32463271.9724,5927306.3376],[32463160.5174,5927355.3198],[32463049.0625,5927405.3016],[32462887.3781,5927499.2666],[32462721.9452,5927588.2336],[32462550.2644,5927660.2075],[32462372.0859,5927703.6928],[32462211.8998,5927718.6892],[32462052.7134,5927736.1845],[32461893.5269,5927754.1797],[32461735.3401,5927773.1744],[32461560.4097,5927773.6767],[32461386.2291,5927788.1734],[32461214.7977,5927818.164],[32461048.6145,5927868.1465],[32460873.935,5927937.6214],[32460703.5039,5928016.5925],[32460535.8218,5928101.0614],[32460371.1386,5928191.028],[32460159.2248,5928326.4773],[32459946.3114,5928458.9277],[32459730.3991,5928588.3794],[32459514.2369,5928715.8319],[32459309.57,5928836.7867],[32459100.6547,5928950.2447],[32458886.9911,5929054.7062],[32458670.0788,5929151.171],[32458475.6572,5929231.6418],[32458276.9872,5929301.1171],[32458073.5689,5929354.5987],[32457867.4013,5929384.09],[32457647.239,5929394.5889],[32457428.0763,5929403.0887],[32457209.1634,5929408.5896],[32456990.0006,5929413.5907],[32456839.8104,5929417.5912],[32456689.87,5929417.5934],[32456540.9291,5929410.5983],[32456392.9877,5929394.1069],[32456311.0201,5929382.6126],[32456227.0533,5929366.1204],[32456156.331,5929333.6343],[32456113.5971,5929277.1573],[32456106.0993,5929220.18],[32456105.3488,5929162.2031],[32456108.8465,5929104.7259],[32456116.3428,5929047.7484],[32456121.5897,5928982.7741],[32456141.0811,5928920.2986],[32456170.5685,5928861.3217],[32456207.8029,5928807.3426],[32456266.2787,5928738.8689],[32456335.7502,5928680.3912],[32456412.2191,5928628.9105],[32456490.4373,5928581.4283],[32456619.135,5928504.457],[32456755.5799,5928441.4801],[32456897.0228,5928386.4999],[32457039.4654,5928333.5189],[32457277.1196,5928239.0531],[32457520.7715,5928158.5816],[32457768.1722,5928095.6031],[32458020.5713,5928051.617],[32458316.7032,5928031.6207],[32458613.085,5928005.6268],[32458908.2172,5927978.1335],[32459204.599,5927949.1408],[32459509.7273,5927929.6442],[32459814.1058,5927894.6537],[32460116.4848,5927843.1698],[32460414.1155,5927772.1937],[32460697.7514,5927683.225],[32460976.3891,5927578.2627],[32461251.2782,5927461.3052],[32461524.1679,5927339.3497],[32461867.2793,5927188.4047],[32462202.6435,5927016.968],[32462521.0141,5926819.042],[32462815.6437,5926590.1287],[32463068.5396,5926342.7233],[32463314.1883,5926087.821],[32463548.0915,5925822.423],[32463767.0005,5925544.5302],[32463919.6868,5925331.6126],[32464055.1297,5925106.6999],[32464176.828,5924873.2909],[32464285.5314,5924634.884],[32464413.7258,5924310.511],[32464536.9222,5923985.1384],[32464646.1241,5923654.768],[32464730.5857,5923318.4004],[32464767.068,5923096.488],[32464800.5516,5922874.5757],[32464829.0371,5922652.6634],[32464854.5238,5922429.7516],[32464871.5152,5922298.8033],[32464879.5101,5922166.8556],[32464873.2607,5922035.4079],[32464847.2693,5921908.4587],[32464806.7842,5921825.9921],[32464752.3047,5921746.5244],[32464685.5804,5921690.0478],[32464608.6109,5921677.0541],[32464513.3994,5921722.5374],[32464423.9358,5921780.0158],[32464342.4691,5921848.4898],[32464274.9971,5921927.9592],[32464215.2721,5922018.4242],[32464169.5417,5922119.3847],[32464134.8071,5922225.3431],[32464106.07,5922331.8013],[32464061.8402,5922516.7285],[32464023.6081,5922703.6548],[32463993.3728,5922891.5806],[32463970.8844,5923081.5055],[32463971.8865,5923255.4364],[32463968.6403,5923430.8667],[32463960.396,5923604.7978],[32463951.1522,5923779.7284],[32463940.9089,5923961.6563],[32463924.6679,5924145.0837],[32463896.4317,5924326.0123],[32463854.201,5924503.4424],[32463812.4693,5924620.3966],[32463764.49,5924735.8514],[32463704.7653,5924845.8086],[32463633.0453,5924946.2697],[32463575.8188,5924998.7497],[32463508.3463,5925044.2326],[32463437.125,5925071.7227],[32463365.1536,5925070.2244],[32463291.4322,5925025.7431],[32463223.9583,5924969.2665],[32463173.2275,5924902.7936],[32463151.735,5924826.3243],[32463150.4841,5924727.3636],[32463148.2335,5924628.403],[32463145.983,5924530.4419],[32463143.4826,5924431.981],[32463151.2279,5924316.027],[32463153.2255,5924201.0726],[32463144.9771,5924086.1184],[32463122.7344,5923974.663],[32463095.2442,5923897.6939],[32463064.7552,5923820.2251],[32463026.2695,5923749.7537],[32462972.5401,5923693.2769],[32462936.5542,5923678.2833],[32462897.5696,5923669.7873],[32462833.5953,5923691.2797],[32462809.1057,5923733.2633],[32462788.8643,5923777.2462],[32462771.6218,5923823.2282],[32462755.379,5923868.7103],[32462719.894,5923931.6858],[32462698.4035,5924001.6583],[32462687.9087,5924074.6295],[32462688.4095,5924147.6005],[32462699.6567,5924265.0537],[32462714.6525,5924383.0067],[32462730.8977,5924499.96],[32462747.1429,5924618.4127],[32462794.1262,5924759.8559],[32462831.1136,5924906.2972],[32462852.1074,5925055.2377],[32462855.1083,5925204.6783],[32462837.3672,5925337.6258],[32462811.3795,5925470.5733],[32462773.3964,5925600.0225],[32462722.6684,5925724.9736],[32462664.9428,5925831.4321],[32462599.2204,5925935.3918],[32462524.5015,5926030.855],[32462438.7868,5926115.3227],[32462338.3279,5926193.2931],[32462236.8693,5926268.7646],[32462133.1615,5926341.7371],[32462029.7037,5926416.209],[32461861.7723,5926539.1626],[32461690.0922,5926656.1186],[32461515.1634,5926768.5765],[32461338.2353,5926879.535],[32461161.5571,5926989.9936],[32460979.8808,5927091.9558],[32460791.2071,5927180.4233],[32460596.5355,5927251.8977],[32460434.3506,5927291.8842],[32460269.1667,5927319.8754],[32460101.9834,5927337.3709],[32459934.8,5927347.3693],[32459747.1239,5927293.8932],[32459555.4496,5927255.4112],[32459362.5261,5927240.9198],[32459173.1017,5927262.4139],[32458980.9288,5927309.8978],[32458788.506,5927359.8807],[32458597.0829,5927412.3626],[32458408.6586,5927470.8421],[32458261.218,5927519.8247],[32458113.7773,5927568.8074],[32457967.5861,5927617.79],[32457821.1451,5927667.7722],[32457744.6761,5927714.2549],[32457665.4583,5927757.7387],[32457583.2413,5927783.2298],[32457502.2734,5927778.2329],[32457462.5387,5927741.2481],[32457432.7998,5927692.7678],[32457415.3061,5927640.7887],[32457415.5552,5927587.8097],[32457441.044,5927511.8395],[32457476.5289,5927439.8676],[32457521.0102,5927372.3938],[32457571.4892,5927309.4181],[32457644.9589,5927226.9498],[32457726.6753,5927151.4786],[32457813.1399,5927082.5047],[32457904.6027,5927021.0279],[32458022.055,5926952.5534],[32458143.5058,5926889.5767],[32458266.9559,5926829.5987],[32458390.406,5926771.62],[32458522.8521,5926690.1504],[32458664.5448,5926622.1754],[32458811.7356,5926575.192],[32458963.9249,5926561.6952],[32459105.8687,5926577.6868],[32459248.8122,5926599.676],[32459387.5075,5926631.6613],[32459522.2046,5926681.6396],[32459583.9309,5926741.1151],[32459651.4049,5926795.5925],[32459724.1266,5926844.572],[32459799.8472,5926888.0536],[32459869.8198,5926919.5401],[32459944.5404,5926942.0301],[32460020.5103,5926947.5269],[32460091.7317,5926929.0332],[32460152.2069,5926875.5536],[32460205.4348,5926811.0784],[32460241.1695,5926739.1065],[32460247.6659,5926664.1361],[32460228.1723,5926571.1733],[32460206.9294,5926477.7108],[32460184.4371,5926385.2478],[32460162.1946,5926294.2842],[32460119.7104,5926213.8168],[32460088.2217,5926128.3512],[32460065.7294,5926039.3868],[32460051.4837,5925950.4224],[32460036.9881,5925848.9629],[32460044.7335,5925746.0037],[32460071.4715,5925646.043],[32460119.2012,5925556.5778],[32460213.9118,5925431.1263],[32460306.873,5925304.6752],[32460399.8342,5925178.2241],[32460492.5456,5925051.7729],[32460618.7432,5924897.8323],[32460734.9447,5924735.3951],[32460842.1497,5924566.9605],[32460944.3566,5924396.0269],[32461059.8077,5924187.608],[32461164.2631,5923972.1921],[32461252.7248,5923750.7787],[32461322.1939,5923522.8682],[32461371.9208,5923290.4598],[32461410.4022,5923055.5526],[32461439.1374,5922819.6458],[32461458.8762,5922583.2395],[32461472.6167,5922297.3528],[32461478.6102,5922010.9664],[32461474.6078,5921725.08],[32461458.6101,5921439.6936],[32461417.6222,5921150.3091],[32461380.6328,5920860.9246],[32461347.3919,5920571.0402],[32461317.3997,5920281.6555],[32461326.143,5920050.7471],[32461328.6387,5919820.8384],[32461315.1408,5919590.4301],[32461276.6529,5919366.0198],[32461208.4285,5919255.5646],[32461150.2,5919137.6123],[32461102.967,5919016.1612],[32461064.9804,5918893.2106],[32461029.9921,5918741.7712],[32461004.0003,5918589.3321],[32460988.0045,5918434.8937],[32460983.0043,5918281.9545],[32461004.2436,5918123.0173],[32461020.235,5917965.0798],[32461032.2279,5917806.1428],[32461040.4724,5917647.2058],[32461046.2184,5917524.7543],[32461041.9683,5917401.8032],[32461024.9734,5917280.8515],[32460994.7337,5917163.3986],[32460953.4986,5917055.9419],[32460900.2682,5916946.4861],[32460831.7943,5916865.0194],[32460743.8289,5916843.0294],[32460659.6128,5916871.5193],[32460579.3952,5916907.0063],[32460500.1773,5916947.4914],[32460423.7083,5916991.9748],[32460374.229,5917063.4471],[32460319.7517,5917133.4201],[32460255.2781,5917188.899],[32460180.0584,5917218.3884],[32460117.3332,5917203.895],[32460054.3581,5917195.3993],[32459990.3835,5917191.9016],[32459926.159,5917190.4031],[32459845.1912,5917189.9044],[32459765.2231,5917200.4014],[32459686.0049,5917217.3958],[32459607.7862,5917237.8888],[32459507.5764,5917258.382],[32459412.3648,5917300.8665],[32459328.8989,5917360.8439],[32459262.4264,5917437.8143],[32459199.4532,5917560.2665],[32459149.7248,5917687.7166],[32459111.7418,5917820.6643],[32459091.7517,5917956.6106],[32459123.9907,5918088.058],[32459150.9819,5918223.5038],[32459161.9794,5918357.4505],[32459150.236,5918491.3974],[32459096.7582,5918558.3716],[32459053.2766,5918632.8426],[32459018.5415,5918711.8118],[32458994.0524,5918794.2794],[32458973.3123,5918907.2348],[32458957.5702,5919021.1898],[32458946.8261,5919136.6441],[32458938.8309,5919252.5981],[32458960.0742,5919374.5494],[32458970.3219,5919498.9998],[32458969.3241,5919623.9502],[32458958.5801,5919747.9011],[32458929.3441,5919912.836],[32458897.3591,5920078.7706],[32458861.1259,5920242.706],[32458824.8926,5920407.1412],[32458792.9077,5920576.0746],[32458751.6765,5920745.0081],[32458696.4508,5920908.9438],[32458627.4805,5921066.3822],[32458564.7571,5921179.8381],[32458489.7884,5921289.2957],[32458400.3253,5921381.7602],[32458292.8689,5921444.2369],[32458176.6653,5921457.2334],[32458061.4614,5921477.2271],[32457947.2572,5921501.719],[32457834.0526,5921528.7099],[32457721.8474,5921544.7051],[32457611.6417,5921579.193],[32457510.1828,5921630.1742],[32457425.7174,5921701.647],[32457353.9973,5921799.1093],[32457291.2737,5921904.0685],[32457242.5447,5922014.5253],[32457217.8062,5922131.4792],[32457230.0529,5922241.9352],[32457236.302,5922352.8911],[32457238.5527,5922464.8466],[32457238.8042,5922576.8021],[32457243.0541,5922691.2566],[32457238.3076,5922807.2106],[32457216.318,5922919.1665],[32457170.8375,5923020.6268],[32457118.3592,5923079.6041],[32457052.8859,5923125.087],[32456978.6659,5923159.5744],[32456902.4466,5923184.0657],[32456738.2624,5923221.5532],[32456573.0785,5923250.544],[32456406.8949,5923273.0374],[32456239.7116,5923291.0326]],[[32462980.9997,5903731.2075],[32462901.0315,5903735.7068],[32462804.8201,5903756.6999],[32462713.6069,5903794.1863],[32462625.1428,5903841.6687],[32462543.676,5903897.1478],[32462479.4524,5903955.6254],[32462421.9762,5904022.0998],[32462374.4961,5904095.0715],[32462336.7623,5904173.5409],[32462273.7894,5904318.4842],[32462218.8134,5904465.9263],[32462170.8346,5904616.867],[32462127.604,5904769.3071],[32462087.8715,5904886.2611],[32462043.141,5905003.2153],[32461991.4132,5905115.6713],[32461931.4386,5905224.1291],[32461855.7205,5905344.5823],[32461779.7525,5905466.5349],[32461701.0355,5905585.9885],[32461622.3185,5905704.4426],[32461548.3495,5905811.901],[32461474.6303,5905919.3593],[32461399.9116,5906026.8177],[32461325.1929,5906133.2764],[32461278.4628,5906229.239],[32461251.725,5906334.1977],[32461241.9804,5906443.1545],[32461244.2311,5906552.1112],[32461260.7256,5906623.0827],[32461292.4639,5906690.5555],[32461337.9467,5906750.0312],[32461394.6748,5906795.5123],[32461474.6431,5906799.0098],[32461553.8612,5906771.5196],[32461631.3297,5906724.0373],[32461700.5514,5906671.5572],[32461769.7735,5906646.0663],[32461839.9952,5906620.5755],[32461910.2169,5906596.0842],[32461981.4383,5906572.5925],[32462056.4084,5906568.0932],[32462132.3785,5906591.5828],[32462205.1002,5906631.0661],[32462272.8239,5906678.0464],[32462322.3053,5906751.0167],[32462344.5478,5906841.4805],[32462350.047,5906939.4415],[32462345.3003,5907034.4038],[32462331.5571,5907129.3663],[32462310.067,5907223.3292],[32462279.3305,5907314.2935],[32462239.8475,5907402.2591],[32462232.102,5907497.2215],[32462230.3541,5907593.1834],[32462235.8532,5907688.1456],[32462248.0998,5907783.6075],[32462274.5902,5907852.5797],[32462318.3237,5907916.0539],[32462372.8029,5907970.5314],[32462436.5282,5908014.0132],[32462512.498,5908019.51],[32462589.717,5907995.0186],[32462664.1867,5907952.5344],[32462730.4097,5907903.0531],[32462825.3703,5907786.598],[32462899.089,5907654.1496],[32462960.0628,5907513.7045],[32463015.0388,5907371.7601],[32463065.0173,5907253.3065],[32463113.7461,5907133.3535],[32463158.7265,5907012.9007],[32463198.459,5906890.9486],[32463248.1876,5906782.9907],[32463301.9148,5906678.5315],[32463358.6407,5906574.0722],[32463419.3651,5906473.1114],[32463459.0977,5906362.6547],[32463488.8342,5906248.6996],[32463510.8238,5906132.7454],[32463525.5663,5906016.7912],[32463514.319,5905894.34],[32463476.0825,5905776.3875],[32463418.8536,5905663.933],[32463352.6284,5905557.976],[32463317.6403,5905421.5308],[32463285.4012,5905284.5857],[32463255.4111,5905147.1407],[32463231.4186,5905009.6957],[32463222.1704,5904878.7479],[32463228.1661,5904747.7998],[32463245.9072,5904616.8516],[32463273.8942,5904488.9021],[32463276.6418,5904395.939],[32463279.1394,5904303.9755],[32463279.8878,5904211.5123],[32463278.3871,5904120.5484],[32463267.8901,5904041.58],[32463249.3963,5903963.1114],[32463223.9054,5903887.142],[32463192.4168,5903814.6712],[32463138.9374,5903764.1921],[32463063.9668,5903738.7033],[32462980.9997,5903731.2075]]],"crs":{"type":"EPSG","properties":{"code":4647}}},"properties":{"fl_nr":124,"NRKART":5,"NRKARTTXT":"5","KLARTEXT":"Brackmarschen aus brackischen Tonen, i.d.R. kalkhaltig, z.T. Stauwasser; oertlich Organomarschen aus stark humosen, brackischen Tonen und Schluffen oder Torfen","BULAND":null}}]}