{"type": "FeatureCollection","features":[{"type":"Feature","geometry":{"type":"Polygon","coordinates":[[[32466143.4045,5916720.0564],[32455609.19,5916806.3115],[32455505.1862,5905682.9465],[32455401.3185,5894559.7681],[32462787.7624,5894499.4437],[32462792.7661,5894508.0123],[32462821.3398,5894540.9895],[32462858.3286,5894572.7396],[32462889.2608,5894594.0746],[32462926.1686,5894616.4822],[32463072.5824,5894693.2987],[32463190.7843,5894758.177],[32463247.4643,5894793.7656],[32463276.4635,5894817.4915],[32463305.4627,5894847.808],[32463337.0984,5894891.3057],[32463366.0978,5894937.4398],[32463396.4156,5894996.755],[32463412.8932,5895060.0249],[32463424.7571,5895124.613],[32463423.4402,5895205.0187],[32463414.2142,5895268.289],[32463387.8525,5895326.2869],[32463335.1285,5895397.4665],[32463291.6312,5895455.4648],[32463255.3834,5895508.1904],[32463159.1623,5895661.0945],[32463102.4844,5895763.9092],[32463064.6983,5895856.958],[32463044.4888,5895906.2678],[32463036.5806,5895947.1298],[32463032.6271,5896001.1731],[32463037.6162,5896066.2535],[32463037.9007,5896089.4875],[32463045.8101,5896134.3037],[32463062.9466,5896194.9373],[32463082.7193,5896245.0259],[32463160.4906,5896374.2012],[32463252.1024,5896508.6488],[32463353.6004,5896665.5045],[32463405.0085,5896745.9095],[32463420.8263,5896764.3631],[32463503.8694,5896836.8589],[32463557.6712,5896883.921],[32463635.6837,5896946.2615],[32463710.8177,5896998.9855],[32463809.3237,5897056.8486],[32463951.7076,5897157.1573],[32464016.2966,5897216.4721],[32464096.7036,5897299.5129],[32464157.3387,5897379.9178],[32464182.3837,5897423.4156],[32464200.8385,5897490.6398],[32464217.9755,5897585.5447],[32464219.9531,5897619.816],[32464212.0446,5897636.9518],[32464205.454,5897642.2244],[32464189.6365,5897642.2246],[32464161.9556,5897627.7256],[32464067.0495,5897559.1844],[32464019.5978,5897617.1826],[32464055.1878,5897656.7259],[32464059.1423,5897669.9072],[32464074.9601,5897685.7245],[32464172.5026,5897762.1744],[32464193.593,5897781.946],[32464200.1838,5897801.7178],[32464188.3227,5897940.1214],[32464160.642,5897938.8037],[32464156.0297,5898016.5732],[32464148.1222,5898104.8878],[32464173.1666,5898107.5237],[32464177.1214,5898137.8406],[32464191.6217,5898194.5198],[32464208.7578,5898232.7453],[32464261.4861,5898448.9174],[32464323.3122,5898710.9311],[32464324.4864,5898714.162],[32464325.5107,5898716.9805],[32464342.924,5898764.8943],[32464343.9483,5898767.7127],[32464344.9726,5898770.5312],[32464345.9969,5898773.3497],[32464347.0212,5898776.1681],[32464348.0455,5898778.9866],[32464349.0698,5898781.8051],[32464350.0941,5898784.6235],[32464351.1184,5898787.442],[32464352.1427,5898790.2604],[32464353.167,5898793.0789],[32464354.1913,5898795.8974],[32464355.2156,5898798.7158],[32464376.9493,5898858.5169],[32464377.9624,5898860.868],[32464378.8311,5898863.6948],[32464376.9407,5898865.4995],[32464373.8023,5898866.2243],[32464353.145,5898869.469],[32464351.3959,5898871.9725],[32464351.6167,5898875.0096],[32464356.3946,5898898.5161],[32464371.9196,5898943.0427],[32464372.1977,5898943.8073],[32464373.222,5898946.6284],[32464374.2437,5898949.4504],[32464375.2617,5898952.2735],[32464376.2748,5898955.0982],[32464377.2817,5898957.9248],[32464378.2815,5898960.7536],[32464379.2729,5898963.585],[32464380.2548,5898966.4192],[32464381.226,5898969.2567],[32464382.1853,5898972.0977],[32464383.1386,5898974.9414],[32464384.1077,5898977.7842],[32464385.0895,5898980.6264],[32464386.0782,5898983.469],[32464387.0681,5898986.3129],[32464388.0534,5898989.159],[32464389.0283,5898992.0082],[32464389.9872,5898994.8615],[32464390.9242,5898997.7197],[32464391.8336,5899000.5838],[32464392.7096,5899003.4546],[32464393.5466,5899006.3331],[32464394.3387,5899009.2203],[32464395.0802,5899012.1169],[32464395.7653,5899015.0239],[32464396.3883,5899017.9423],[32464396.9445,5899020.8729],[32464397.4376,5899023.8158],[32464397.8734,5899026.7699],[32464398.2576,5899029.7342],[32464398.5958,5899032.7074],[32464398.8937,5899035.6885],[32464399.1569,5899038.6765],[32464399.3911,5899041.6701],[32464399.6019,5899044.6683],[32464399.7949,5899047.67],[32464399.9759,5899050.6741],[32464400.1504,5899053.6795],[32464400.324,5899056.685],[32464400.5026,5899059.6895],[32464400.6915,5899062.692],[32464400.8966,5899065.6913],[32464401.1235,5899068.6864],[32464401.3778,5899071.6761],[32464402.2674,5899076.5003],[32464402.8171,5899079.4485],[32464403.3701,5899082.3961],[32464403.9254,5899085.3433],[32464404.482,5899088.2902],[32464405.0391,5899091.2371],[32464405.5956,5899094.1841],[32464406.1507,5899097.1313],[32464406.7033,5899100.079],[32464407.2525,5899103.0272],[32464407.7973,5899105.9762],[32464408.3369,5899108.9261],[32464408.8702,5899111.877],[32464409.3962,5899114.8291],[32464409.9142,5899117.7827],[32464410.423,5899120.7378],[32464410.9217,5899123.6946],[32464411.4103,5899126.6531],[32464411.8955,5899129.6123],[32464412.3788,5899132.5717],[32464412.8605,5899135.5314],[32464413.3405,5899138.4914],[32464413.8189,5899141.4516],[32464414.2958,5899144.4122],[32464414.7713,5899147.3729],[32464415.2453,5899150.334],[32464415.718,5899153.2952],[32464416.1894,5899156.2567],[32464416.6595,5899159.2183],[32464417.1285,5899162.1802],[32464417.5965,5899165.1422],[32464418.0633,5899168.1045],[32464418.5292,5899171.0668],[32464418.9942,5899174.0294],[32464419.4584,5899176.9921],[32464419.9217,5899179.9549],[32464420.3843,5899182.9179],[32464420.8463,5899185.8809],[32464421.3076,5899188.8441],[32464421.7684,5899191.8074],[32464422.2288,5899194.7707],[32464422.6886,5899197.7341],[32464423.1482,5899200.6976],[32464423.6074,5899203.6611],[32464424.0664,5899206.6247],[32464424.5252,5899209.5883],[32464424.9839,5899212.5519],[32464425.4426,5899215.5155],[32464425.9013,5899218.4791],[32464426.36,5899221.4428],[32464426.8189,5899224.4063],[32464427.2779,5899227.3699],[32464427.7372,5899230.3334],[32464428.1969,5899233.2969],[32464428.6569,5899236.2603],[32464429.1173,5899239.2236],[32464429.5783,5899242.1868],[32464430.0398,5899245.15],[32464430.5019,5899248.113],[32464430.9647,5899251.0759],[32464431.4283,5899254.0387],[32464431.8926,5899257.0014],[32464432.3579,5899259.9639],[32464433.1587,5899264.2648],[32464433.7119,5899267.2124],[32464434.2684,5899270.1596],[32464434.8279,5899273.1063],[32464435.3901,5899276.0526],[32464435.9549,5899278.9985],[32464436.5219,5899281.9441],[32464437.0911,5899284.8894],[32464437.662,5899287.8344],[32464438.2346,5899290.7792],[32464438.8086,5899293.7237],[32464439.3836,5899296.6682],[32464439.9596,5899299.6124],[32464440.5363,5899302.5566],[32464441.1134,5899305.5007],[32464441.6907,5899308.4448],[32464442.2679,5899311.3889],[32464442.845,5899314.3331],[32464443.4215,5899317.2773],[32464443.9973,5899320.2216],[32464444.5721,5899323.166],[32464445.1458,5899326.1106],[32464445.718,5899329.0555],[32464446.2886,5899332.0005],[32464446.8573,5899334.9459],[32464447.4238,5899337.8916],[32464447.9881,5899340.8376],[32464448.5497,5899343.7839],[32464449.1085,5899346.7307],[32464449.6643,5899349.678],[32464450.2167,5899352.6257],[32464450.7657,5899355.5739],[32464451.3109,5899358.5227],[32464451.8521,5899361.4721],[32464452.3892,5899364.4221],[32464452.9217,5899367.3727],[32464453.4496,5899370.3241],[32464453.9726,5899373.2761],[32464454.4905,5899376.2289],[32464455.0029,5899379.1825],[32464455.5098,5899382.1369],[32464456.0108,5899385.0922],[32464456.5057,5899388.0483],[32464456.9943,5899391.0054],[32464457.4764,5899393.9634],[32464457.9517,5899396.9225],[32464458.4201,5899399.8825],[32464458.8811,5899402.8436],[32464459.3333,5899405.8061],[32464459.7655,5899408.772],[32464460.1763,5899411.7416],[32464460.567,5899414.7146],[32464460.9391,5899417.6907],[32464461.2939,5899420.6698],[32464461.6327,5899423.6516],[32464461.9569,5899426.6357],[32464462.2679,5899429.6221],[32464462.567,5899432.6103],[32464462.8556,5899435.6002],[32464463.1351,5899438.5916],[32464463.4067,5899441.584],[32464463.6719,5899444.5774],[32464463.9321,5899447.5714],[32464464.1885,5899450.5659],[32464464.4425,5899453.5604],[32464464.4793,5899453.9956],[32464470.1608,5899507.2001],[32464478.3736,5899532.862],[32464478.4472,5899537.1834],[32464451.804,5899520.5986],[32464433.1452,5899511.0942],[32464421.1485,5899510.1168],[32464415.7848,5899512.7862],[32464414.3407,5899515.2883],[32464412.4988,5899530.3703],[32464413.1985,5899545.3729],[32464417.9003,5899570.7733],[32464429.5748,5899633.8416],[32464431.7573,5899645.6322],[32464443.9622,5899695.1209],[32464448.9887,5899715.5024],[32464452.2287,5899731.7054],[32464458.3993,5899762.5639],[32464471.3684,5899799.3069],[32464478.8879,5899831.2628],[32464481.4051,5899866.6844],[32464487.7845,5899956.4538],[32464497.3098,5900033.7774],[32464528.7432,5900220.14],[32464536.4468,5900252.2105],[32464544.4149,5900274.9117],[32464554.5122,5900293.1819],[32464574.2337,5900319.7438],[32464638.3905,5900395.1065],[32464680.5676,5900437.2829],[32464697.2701,5900453.9851],[32464750.2495,5900506.9636],[32464790.2341,5900541.4493],[32464797.8788,5900548.3055],[32464844.9981,5900590.565],[32464867.7294,5900615.8212],[32464892.9864,5900647.3915],[32464909.7069,5900690.511],[32464916.981,5900709.2696],[32464919.4059,5900680.3349],[32464925.1815,5900611.4196],[32464933.3695,5900620.2483],[32464967.5349,5900685.471],[32465003.7714,5900780.717],[32465031.6277,5900848.0353],[32465073.138,5900939.6327],[32465091.774,5900999.6791],[32465092.9715,5901004.3488],[32465095.9075,5901006.5625],[32465114.7119,5901037.6835],[32465116.1407,5901039.914],[32465117.7783,5901042.443],[32465119.4226,5901044.9689],[32465121.0667,5901047.495],[32465122.7035,5901050.0246],[32465124.3261,5901052.5606],[32465125.9275,5901055.1065],[32465127.5008,5901057.6653],[32465129.039,5901060.2404],[32465130.5351,5901062.8347],[32465131.9823,5901065.4517],[32465133.3734,5901068.0944],[32465134.7016,5901070.7661],[32465135.9598,5901073.4699],[32465137.1506,5901076.2047],[32465138.297,5901078.9598],[32465139.4035,5901081.733],[32465140.4734,5901084.523],[32465141.5097,5901087.3283],[32465142.5157,5901090.1475],[32465143.4947,5901092.979],[32465144.4498,5901095.8216],[32465145.3843,5901098.6736],[32465146.3013,5901101.5337],[32465147.2041,5901104.4004],[32465148.0958,5901107.2723],[32465148.9798,5901110.1478],[32465149.81,5901112.865],[32465164.1888,5901152.9309],[32465166.1872,5901154.3093],[32465172.3593,5901152.5669],[32465181.4146,5901144.53],[32465203.6807,5901079.7295],[32465203.8161,5901079.3116],[32465204.7468,5901076.4489],[32465205.6809,5901073.5881],[32465206.6194,5901070.7299],[32465207.5631,5901067.8747],[32465208.5129,5901065.023],[32465209.4695,5901062.1753],[32465210.4338,5901059.3322],[32465211.4067,5901056.4941],[32465212.3889,5901053.6616],[32465213.3813,5901050.835],[32465214.3848,5901048.0151],[32465215.4002,5901045.2022],[32465216.4282,5901042.3968],[32465217.4698,5901039.5995],[32465218.6132,5901036.8612],[32465220.4352,5901034.5148],[32465222.6596,5901032.4007],[32465224.8184,5901030.2487],[32465229.4604,5901033.4931],[32465230.2966,5901034.0538],[32465232.8345,5901035.7412],[32465235.3285,5901037.4651],[32465237.7253,5901039.2697],[32465239.9717,5901041.1995],[32465242.0144,5901043.2988],[32465243.8313,5901045.6525],[32465245.4291,5901048.249],[32465246.8048,5901051.0085],[32465247.9553,5901053.8515],[32465248.8776,5901056.6981],[32465249.4188,5901059.5563],[32465249.2147,5901062.5846],[32465248.5156,5901065.6131],[32465247.6177,5901068.4921],[32465246.7024,5901071.3423],[32465245.781,5901074.1913],[32465244.8536,5901077.0391],[32465243.9206,5901079.8858],[32465242.9822,5901082.7314],[32465242.0386,5901085.576],[32465241.0902,5901088.4195],[32465240.137,5901091.262],[32465239.1795,5901094.1037],[32465238.2178,5901096.9443],[32465237.2523,5901099.7841],[32465236.2831,5901102.6231],[32465235.3105,5901105.4612],[32465234.3348,5901108.2986],[32465233.3561,5901111.1352],[32465232.3749,5901113.9711],[32465231.3913,5901116.8063],[32465230.4055,5901119.6409],[32465229.4179,5901122.4749],[32465228.4287,5901125.3083],[32465227.438,5901128.1411],[32465226.4463,5901130.9735],[32465225.4537,5901133.8053],[32465224.4605,5901136.6368],[32465223.4669,5901139.4678],[32465222.4732,5901142.2984],[32465221.4796,5901145.1287],[32465220.4865,5901147.9587],[32465219.494,5901150.7884],[32465218.4413,5901153.6126],[32465217.167,5901156.4142],[32465215.8093,5901159.1978],[32465215.6469,5901159.5508],[32465212.8911,5901167.5114],[32465258.4594,5901245.0402],[32465263.7098,5901255.3157],[32465263.9763,5901255.8269],[32465265.3729,5901258.4874],[32465266.7733,5901261.1464],[32465268.1734,5901263.8056],[32465269.5692,5901266.4664],[32465270.9568,5901269.1307],[32465272.3321,5901271.7999],[32465273.6911,5901274.4759],[32465275.0298,5901277.1601],[32465276.3443,5901279.8542],[32465277.6304,5901282.5599],[32465278.8843,5901285.2788],[32465280.1019,5901288.0125],[32465281.2791,5901290.7627],[32465282.4123,5901293.531],[32465283.5173,5901296.3126],[32465284.6053,5901299.1039],[32465285.6764,5901301.9044],[32465286.7304,5901304.7136],[32465287.7672,5901307.5312],[32465288.787,5901310.3566],[32465289.7895,5901313.1895],[32465290.7747,5901316.0294],[32465291.7427,5901318.8758],[32465292.6932,5901321.7285],[32465293.6262,5901324.5868],[32465294.5418,5901327.4504],[32465295.4398,5901330.3188],[32465296.3202,5901333.1916],[32465297.1829,5901336.0684],[32465298.0279,5901338.9487],[32465298.855,5901341.8321],[32465299.6644,5901344.7182],[32465300.4558,5901347.6065],[32465301.2292,5901350.4966],[32465301.9845,5901353.388],[32465302.6796,5901356.2946],[32465303.2864,5901359.2253],[32465303.8131,5901362.1765],[32465304.2679,5901365.1449],[32465304.6591,5901368.1269],[32465304.995,5901371.1191],[32465305.2837,5901374.118],[32465305.5335,5901377.1202],[32465305.7527,5901380.1222],[32465305.9495,5901383.1206],[32465306.1315,5901386.1122],[32465306.2924,5901389.1029],[32465306.4299,5901392.0954],[32465306.546,5901395.0894],[32465306.6429,5901398.085],[32465306.7226,5901401.0818],[32465306.7872,5901404.0798],[32465306.8387,5901407.0787],[32465306.8792,5901410.0784],[32465306.9108,5901413.0788],[32465306.9356,5901416.0796],[32465306.9556,5901419.0807],[32465306.9729,5901422.082],[32465306.9895,5901425.0832],[32465307.0076,5901428.0842],[32465307.0292,5901431.0849],[32465307.0564,5901434.085],[32465307.0912,5901437.0845],[32465307.1346,5901440.0832],[32465307.1724,5901443.0825],[32465307.2003,5901446.0827],[32465307.2197,5901449.0838],[32465307.2317,5901452.0855],[32465307.2375,5901455.0878],[32465307.2384,5901458.0905],[32465307.2357,5901461.0936],[32465307.2305,5901464.0969],[32465307.224,5901467.1003],[32465307.2175,5901470.1036],[32465307.2122,5901473.1067],[32465307.2094,5901476.1096],[32465307.21,5901478.288],[32465307.3602,5901497.1109],[32465309.1087,5901526.9681],[32465330.1453,5901602.2397],[32465330.9618,5901604.9662],[32465331.8201,5901607.8404],[32465332.6757,5901610.7154],[32465333.528,5901613.5913],[32465334.3764,5901616.4682],[32465335.2203,5901619.3463],[32465336.0593,5901622.2258],[32465336.8928,5901625.1067],[32465337.7201,5901627.9892],[32465338.5408,5901630.8734],[32465339.3543,5901633.7596],[32465340.1594,5901636.6481],[32465340.9561,5901639.5389],[32465341.7451,5901642.4318],[32465342.5273,5901645.3267],[32465343.3032,5901648.2233],[32465344.0738,5901651.1214],[32465344.8396,5901654.0208],[32465345.6016,5901656.9213],[32465346.3603,5901659.8226],[32465347.1166,5901662.7247],[32465347.8712,5901665.6272],[32465348.0101,5901666.1622],[32465364.2182,5901724.1569],[32465364.8712,5901726.2885],[32465365.7392,5901729.1618],[32465366.5914,5901732.0385],[32465367.4235,5901734.9195],[32465368.2312,5901737.8059],[32465369.0101,5901740.6985],[32465369.756,5901743.5985],[32465370.4644,5901746.5067],[32465371.131,5901749.4241],[32465371.7548,5901752.3511],[32465372.3438,5901755.2859],[32465372.9011,5901758.2277],[32465373.4293,5901761.176],[32465373.9311,5901764.1301],[32465374.4092,5901767.0895],[32465374.8663,5901770.0534],[32465375.3051,5901773.0213],[32465375.7281,5901775.9926],[32465376.1381,5901778.9665],[32465376.5378,5901781.9426],[32465376.9298,5901784.9202],[32465377.3169,5901787.8986],[32465377.7016,5901790.8772],[32465378.0867,5901793.8555],[32465378.4748,5901796.8327],[32465378.8686,5901799.8084],[32465379.2707,5901802.7817],[32465379.6835,5901805.7523],[32465380.0963,5901808.7224],[32465380.5038,5901811.6933],[32465380.9065,5901814.6648],[32465381.3048,5901817.637],[32465381.6992,5901820.6097],[32465382.0902,5901823.5829],[32465382.4782,5901826.5565],[32465382.8638,5901829.5304],[32465383.2474,5901832.5047],[32465383.6295,5901835.4791],[32465384.0105,5901838.4537],[32465384.391,5901841.4284],[32465384.7714,5901844.4031],[32465385.1521,5901847.3777],[32465385.5337,5901850.3523],[32465385.9166,5901853.3266],[32465386.3013,5901856.3007],[32465386.6883,5901859.2745],[32465387.078,5901862.2479],[32465387.4709,5901865.2208],[32465387.8675,5901868.1933],[32465388.2253,5901871.1762],[32465388.5249,5901874.1746],[32465388.6519,5901875.5104],[32465390.0271,5901886.0995],[32465399.0506,5901912.6545],[32465399.7445,5901914.4195],[32465400.848,5901917.2184],[32465401.9483,5901920.0185],[32465403.0394,5901922.8215],[32465404.115,5901925.6289],[32465405.169,5901928.4424],[32465406.1951,5901931.2638],[32465407.1873,5901934.0946],[32465408.1392,5901936.9364],[32465409.0449,5901939.791],[32465409.898,5901942.6601],[32465410.6926,5901945.5451],[32465411.4511,5901948.4403],[32465412.1961,5901951.3397],[32465412.928,5901954.2431],[32465413.6474,5901957.1503],[32465414.3545,5901960.0613],[32465415.0499,5901962.9758],[32465415.7341,5901965.8937],[32465416.4074,5901968.8147],[32465417.0703,5901971.7388],[32465417.7234,5901974.6658],[32465418.3669,5901977.5954],[32465419.0014,5901980.5276],[32465419.6274,5901983.4621],[32465420.2452,5901986.3988],[32465420.8553,5901989.3376],[32465421.4582,5901992.2781],[32465422.0544,5901995.2204],[32465422.6442,5901998.1642],[32465423.2281,5902001.1094],[32465423.8066,5902004.0557],[32465424.3801,5902007.003],[32465424.949,5902009.9512],[32465425.5139,5902012.9001],[32465426.0752,5902015.8495],[32465426.6332,5902018.7992],[32465427.1885,5902021.7491],[32465427.7416,5902024.699],[32465428.2928,5902027.6488],[32465428.8426,5902030.5982],[32465429.3915,5902033.5472],[32465429.9398,5902036.4954],[32465430.488,5902039.443],[32465431.0336,5902042.3911],[32465431.5754,5902045.3403],[32465432.1133,5902048.2905],[32465432.647,5902051.2418],[32465433.1764,5902054.1941],[32465433.7011,5902057.1475],[32465434.2211,5902060.1019],[32465434.736,5902063.0574],[32465435.2457,5902066.0138],[32465435.75,5902068.9713],[32465436.2486,5902071.9298],[32465436.7414,5902074.8893],[32465437.2281,5902077.8498],[32465437.7084,5902080.8113],[32465438.1823,5902083.7738],[32465438.6495,5902086.7373],[32465439.1097,5902089.7017],[32465439.5628,5902092.6671],[32465440.0085,5902095.6335],[32465440.4466,5902098.6008],[32465440.877,5902101.569],[32465441.2993,5902104.5382],[32465441.7135,5902107.5084],[32465442.1192,5902110.4794],[32465442.5163,5902113.4514],[32465442.9045,5902116.4243],[32465443.2837,5902119.3981],[32465443.6535,5902122.3728],[32465444.0137,5902125.3485],[32465444.3636,5902128.3255],[32465444.7036,5902131.3037],[32465445.0343,5902134.283],[32465445.356,5902137.2634],[32465445.6695,5902140.2449],[32465445.9751,5902143.2273],[32465446.2734,5902146.2107],[32465446.5649,5902149.1949],[32465446.8502,5902152.1799],[32465447.1296,5902155.1656],[32465447.4038,5902158.1519],[32465447.6733,5902161.1389],[32465447.9385,5902164.1264],[32465448.2,5902167.1143],[32465448.3864,5902169.2706],[32465457.5577,5902262.6192],[32465463.8605,5902309.0526],[32465464.0176,5902310.1633],[32465464.4384,5902313.1328],[32465464.86,5902316.1023],[32465465.2822,5902319.0717],[32465465.7046,5902322.0411],[32465466.1271,5902325.0104],[32465466.5494,5902327.9798],[32465466.9715,5902330.9492],[32465467.3929,5902333.9187],[32465467.8136,5902336.8883],[32465468.2333,5902339.858],[32465468.6517,5902342.8278],[32465469.0688,5902345.7978],[32465469.4842,5902348.768],[32465469.8978,5902351.7384],[32465470.3093,5902354.709],[32465470.7185,5902357.68],[32465471.1252,5902360.6512],[32465471.5292,5902363.6227],[32465471.9305,5902366.5945],[32465472.3308,5902369.5665],[32465472.7305,5902372.5386],[32465473.1295,5902375.5107],[32465473.5278,5902378.483],[32465473.9257,5902381.4553],[32465474.323,5902384.4277],[32465474.7197,5902387.4002],[32465475.116,5902390.3727],[32465475.5119,5902393.3453],[32465475.9074,5902396.318],[32465476.3025,5902399.2907],[32465476.6972,5902402.2635],[32465477.0916,5902405.2363],[32465477.4858,5902408.2091],[32465477.8797,5902411.182],[32465478.2734,5902414.1549],[32465478.6669,5902417.1278],[32465479.0603,5902420.1008],[32465479.4535,5902423.0738],[32465479.8467,5902426.0468],[32465480.2398,5902429.0198],[32465480.6329,5902431.9928],[32465481.026,5902434.9657],[32465481.4191,5902437.9387],[32465481.8124,5902440.9117],[32465482.2057,5902443.8847],[32465482.5992,5902446.8576],[32465482.9929,5902449.8305],[32465483.3867,5902452.8034],[32465483.7809,5902455.7762],[32465483.9656,5902457.1689],[32465495.8772,5902544.9226],[32465507.2977,5902621.4562],[32465507.3873,5902622.0361],[32465507.8457,5902624.9997],[32465508.3042,5902627.9634],[32465508.7626,5902630.9271],[32465509.2209,5902633.8907],[32465509.6789,5902636.8545],[32465510.1366,5902639.8182],[32465510.5938,5902642.7821],[32465511.0503,5902645.746],[32465511.5062,5902648.71],[32465511.9612,5902651.6742],[32465512.4153,5902654.6385],[32465512.8683,5902657.6029],[32465513.3201,5902660.5676],[32465513.7706,5902663.5324],[32465514.2198,5902666.4974],[32465514.6674,5902669.4626],[32465515.1133,5902672.4281],[32465515.5576,5902675.3938],[32465516.0007,5902678.3597],[32465516.4425,5902681.3258],[32465516.8832,5902684.2921],[32465517.3227,5902687.2586],[32465517.7613,5902690.2252],[32465518.1989,5902693.192],[32465518.6357,5902696.1589],[32465519.0716,5902699.126],[32465519.5068,5902702.0931],[32465519.9414,5902705.0604],[32465520.3753,5902708.0278],[32465520.8087,5902710.9952],[32465521.2416,5902713.9627],[32465521.6741,5902716.9303],[32465522.1063,5902719.898],[32465522.5382,5902722.8657],[32465522.9699,5902725.8334],[32465523.4015,5902728.8011],[32465523.8331,5902731.7688],[32465524.2646,5902734.7366],[32465524.6962,5902737.7043],[32465525.128,5902740.672],[32465525.56,5902743.6397],[32465525.9922,5902746.6073],[32465526.4248,5902749.5749],[32465526.8585,5902752.5423],[32465535.7102,5902811.8612],[32465550.6257,5902898.2529],[32465551.0365,5902900.5108],[32465551.5704,5902903.462],[32465552.1006,5902906.4138],[32465552.6268,5902909.3662],[32465553.1484,5902912.3193],[32465553.6649,5902915.2732],[32465554.1758,5902918.228],[32465554.6805,5902921.1837],[32465555.1786,5902924.1405],[32465555.6695,5902927.0984],[32465556.1528,5902930.0574],[32465556.6279,5902933.0178],[32465557.0943,5902935.9795],[32465557.5514,5902938.9427],[32465558.001,5902941.9071],[32465558.4484,5902944.872],[32465558.8941,5902947.8374],[32465559.3381,5902950.8032],[32465559.7802,5902953.7694],[32465560.2206,5902956.736],[32465560.6591,5902959.7031],[32465561.0958,5902962.6706],[32465561.5306,5902965.6384],[32465561.9636,5902968.6067],[32465562.3947,5902971.5753],[32465562.8239,5902974.5442],[32465563.2511,5902977.5136],[32465563.6764,5902980.4832],[32465564.0998,5902983.4532],[32465564.5212,5902986.4236],[32465564.9406,5902989.3942],[32465565.3581,5902992.3652],[32465565.7735,5902995.3364],[32465566.1868,5902998.3079],[32465566.5981,5903001.2798],[32465567.0074,5903004.2518],[32465567.4145,5903007.2242],[32465567.8196,5903010.1967],[32465568.2225,5903013.1696],[32465568.6233,5903016.1426],[32465569.022,5903019.1159],[32465569.4184,5903022.0894],[32465569.8127,5903025.0631],[32465570.2048,5903028.0369],[32465570.5947,5903031.011],[32465570.9823,5903033.9852],[32465571.3677,5903036.9596],[32465571.7508,5903039.9341],[32465572.1317,5903042.9088],[32465572.5102,5903045.8836],[32465572.8864,5903048.8586],[32465573.2603,5903051.8336],[32465573.6318,5903054.8088],[32465574.0009,5903057.784],[32465574.3677,5903060.7594],[32465574.7321,5903063.7348],[32465575.094,5903066.7103],[32465575.4535,5903069.6858],[32465575.8106,5903072.6614],[32465576.1652,5903075.637],[32465576.5173,5903078.6127],[32465576.8669,5903081.5883],[32465577.214,5903084.564],[32465577.5429,5903087.5427],[32465577.7883,5903090.5352],[32465577.9448,5903093.5383],[32465578.0144,5903096.5476],[32465577.999,5903099.5583],[32465577.9006,5903102.5658],[32465577.7214,5903105.5655],[32465577.4633,5903108.5528],[32465577.1375,5903111.5267],[32465576.7779,5903114.4972],[32465576.3899,5903117.4655],[32465575.9764,5903120.4318],[32465575.5401,5903123.3962],[32465575.0839,5903126.3591],[32465574.6105,5903129.3207],[32465574.1228,5903132.2811],[32465573.6236,5903135.2406],[32465573.1156,5903138.1994],[32465572.6017,5903141.1578],[32465572.0846,5903144.1159],[32465571.5673,5903147.074],[32465571.0524,5903150.0323],[32465570.5428,5903152.991],[32465570.0413,5903155.9503],[32465569.5506,5903158.9105],[32465569.0737,5903161.8718],[32465567.7238,5903185.8244],[32465573.1246,5903213.6894],[32465573.5366,5903215.235],[32465574.2831,5903218.1516],[32465574.9776,5903221.0656],[32465575.5997,5903223.9775],[32465576.129,5903226.8878],[32465576.2712,5903229.924],[32465574.9047,5903232.7899],[32465572.4439,5903234.2856],[32465569.781,5903235.5154],[32465567.0017,5903236.6227],[32465564.6185,5903237.4842],[32465550.1196,5903243.4106],[32465546.2528,5903247.9817],[32465546.227,5903256.2112],[32465546.2879,5903256.9033],[32465546.4402,5903259.9864],[32465546.2058,5903262.986],[32465545.7865,5903265.9476],[32465545.0932,5903270.3786],[32465544.3315,5903274.827],[32465543.7822,5903277.7808],[32465543.2015,5903280.7296],[32465542.5897,5903283.672],[32465541.9474,5903286.6068],[32465541.2749,5903289.5329],[32465540.5726,5903292.4489],[32465539.8382,5903295.3532],[32465539.0387,5903298.242],[32465538.1757,5903301.1165],[32465537.2631,5903303.9797],[32465536.315,5903306.8346],[32465535.3453,5903309.6842],[32465534.3682,5903312.5314],[32465533.3976,5903315.3791],[32465532.4476,5903318.2304],[32465531.5321,5903321.0881],[32465531.3393,5903321.726],[32465529.861,5903326.8349],[32465527.2873,5903341.5412],[32465527.0446,5903371.6321],[32465533.5469,5903388.3273],[32465534.143,5903391.2066],[32465534.4179,5903394.168],[32465534.4653,5903397.1804],[32465534.3483,5903400.2165],[32465534.1298,5903403.2493],[32465533.873,5903406.2514],[32465533.5522,5903409.2248],[32465533.1275,5903412.1896],[32465532.6321,5903415.1488],[32465532.0997,5903418.1053],[32465531.5637,5903421.0622],[32465531.0575,5903424.0222],[32465530.605,5903426.9878],[32465530.1365,5903429.9549],[32465529.6489,5903432.9225],[32465529.2449,5903435.4002],[32465527.9599,5903444.8082],[32465527.8738,5903459.7941],[32465533.8279,5903489.2136],[32465534.5144,5903492.0816],[32465535.2172,5903495.0],[32465535.9214,5903497.9183],[32465536.6241,5903500.8372],[32465537.3228,5903503.7569],[32465538.0145,5903506.678],[32465538.6965,5903509.6008],[32465539.3662,5903512.5259],[32465540.0207,5903515.4537],[32465540.6573,5903518.3846],[32465541.2732,5903521.3191],[32465541.8657,5903524.2577],[32465542.4338,5903527.2006],[32465542.9866,5903530.1471],[32465543.5258,5903533.0968],[32465544.0512,5903536.0498],[32465544.5627,5903539.0057],[32465545.06,5903541.9644],[32465545.543,5903544.9258],[32465546.0115,5903547.8897],[32465546.4653,5903550.856],[32465546.9042,5903553.8245],[32465547.3282,5903556.7949],[32465547.7369,5903559.7673],[32465548.1302,5903562.7414],[32465548.5079,5903565.717],[32465548.8699,5903568.694],[32465549.2159,5903571.6723],[32465549.5465,5903574.6516],[32465549.8666,5903577.6321],[32465550.1779,5903580.6135],[32465550.4809,5903583.596],[32465550.7761,5903586.5793],[32465551.0642,5903589.5636],[32465551.3455,5903592.5486],[32465551.6207,5903595.5343],[32465551.8903,5903598.5207],[32465552.1548,5903601.5077],[32465552.4147,5903604.4953],[32465552.6706,5903607.4833],[32465552.923,5903610.4718],[32465553.1724,5903613.4606],[32465553.4193,5903616.4497],[32465553.6644,5903619.4391],[32465553.908,5903622.4286],[32465554.1509,5903625.4183],[32465554.3934,5903628.4081],[32465554.6361,5903631.3978],[32465554.8795,5903634.3874],[32465555.1243,5903637.377],[32465555.3708,5903640.3663],[32465555.6197,5903643.3554],[32465555.8714,5903646.3442],[32465555.9443,5903647.1974],[32465560.7755,5903697.0983],[32465574.5226,5903786.0782],[32465584.2102,5903826.8468],[32465603.2362,5903884.7184],[32465603.9319,5903886.7381],[32465604.9074,5903889.5804],[32465605.8788,5903892.4235],[32465606.8451,5903895.2676],[32465607.8052,5903898.113],[32465608.7582,5903900.9599],[32465609.703,5903903.8085],[32465610.6388,5903906.6591],[32465611.5646,5903909.5119],[32465612.4793,5903912.367],[32465613.382,5903915.2248],[32465614.2717,5903918.0854],[32465615.1475,5903920.9491],[32465616.0083,5903923.8161],[32465616.8531,5903926.6866],[32465617.6811,5903929.5608],[32465618.4912,5903932.439],[32465619.2825,5903935.3214],[32465620.0491,5903938.2093],[32465620.7252,5903941.1183],[32465621.2982,5903944.051],[32465621.7792,5903947.0044],[32465622.1795,5903949.9754],[32465622.51,5903952.961],[32465622.782,5903955.9582],[32465623.0064,5903958.964],[32465623.1945,5903961.9752],[32465623.3573,5903964.989],[32465623.506,5903968.0023],[32465623.6516,5903971.012],[32465623.8054,5903974.0151],[32465623.9782,5903977.0088],[32465624.1648,5903980.0054],[32465624.3458,5903983.0112],[32465624.5052,5903986.0227],[32465624.6268,5903989.0364],[32465624.6945,5903992.0487],[32465624.6922,5903995.0561],[32465624.6038,5903998.0551],[32465624.4132,5904001.0422],[32465624.1043,5904004.0139],[32465623.6899,5904006.9731],[32465623.2678,5904009.9412],[32465622.8449,5904012.9186],[32465622.4186,5904015.9034],[32465621.9862,5904018.8936],[32465621.5449,5904021.8874],[32465621.0921,5904024.883],[32465620.625,5904027.8783],[32465620.141,5904030.8715],[32465619.6373,5904033.8607],[32465619.1113,5904036.8441],[32465618.5602,5904039.8196],[32465617.9813,5904042.7855],[32465617.3719,5904045.7399],[32465616.7293,5904048.6807],[32465616.0508,5904051.6062],[32465615.3336,5904054.5145],[32465614.5752,5904057.4036],[32465613.7728,5904060.2717],[32465612.9236,5904063.1169],[32465612.0249,5904065.9372],[32465611.0742,5904068.7309],[32465610.0512,5904071.489],[32465608.82,5904074.1573],[32465607.3801,5904076.7365],[32465605.7661,5904079.2411],[32465604.0124,5904081.6856],[32465602.1536,5904084.0848],[32465600.2241,5904086.4532],[32465598.2586,5904088.8054],[32465596.2914,5904091.1559],[32465594.3571,5904093.5195],[32465593.8201,5904094.2074],[32465590.7253,5904098.3441],[32465587.1738,5904106.7975],[32465593.2363,5904116.7226],[32465602.2791,5904128.2402],[32465602.5189,5904128.5348],[32465604.4413,5904130.8838],[32465606.3656,5904133.2355],[32465608.2829,5904135.5932],[32465610.1846,5904137.9597],[32465612.062,5904140.3384],[32465613.9064,5904142.7322],[32465615.7092,5904145.1443],[32465617.4617,5904147.5778],[32465619.1563,5904150.0712],[32465620.7461,5904152.679],[32465622.1514,5904155.3811],[32465623.292,5904158.156],[32465624.0871,5904160.9845],[32465624.4752,5904163.9159],[32465624.5292,5904166.9354],[32465624.3535,5904169.9868],[32465624.0527,5904173.0136],[32465623.7191,5904175.991],[32465623.3652,5904178.9738],[32465622.9781,5904181.9594],[32465622.5451,5904184.941],[32465622.0534,5904187.9114],[32465621.4903,5904190.8638],[32465620.8431,5904193.7912],[32465620.0992,5904196.6866],[32465619.2312,5904199.5425],[32465618.203,5904202.3573],[32465617.0524,5904205.1405],[32465615.8229,5904207.9023],[32465608.8269,5904227.5673],[32465610.8968,5904242.4406],[32465615.5209,5904258.122],[32465616.0341,5904259.7317],[32465616.9381,5904262.5936],[32465617.7624,5904265.5253],[32465618.3897,5904267.8506],[32465619.4441,5904271.4264],[32465627.4664,5904283.6802],[32465656.4891,5904310.1924],[32465658.5991,5904312.3231],[32465660.4665,5904314.5823],[32465661.929,5904317.0631],[32465662.7032,5904319.9387],[32465663.0518,5904323.0227],[32465663.3051,5904326.0838],[32465663.6046,5904329.065],[32465663.8696,5904332.0559],[32465664.0887,5904335.0531],[32465664.2504,5904338.0535],[32465664.3434,5904341.0539],[32465664.3562,5904344.051],[32465664.2707,5904347.0444],[32465664.0693,5904350.0413],[32465663.9104,5904351.7079],[32465662.8847,5904376.9433],[32465667.9415,5904387.7753],[32465679.1438,5904403.381],[32465680.2215,5904404.8685],[32465680.6035,5904405.4145],[32465683.951,5904410.0779],[32465685.5894,5904412.1945],[32465687.4582,5904414.616],[32465689.2256,5904417.0761],[32465690.7929,5904419.6092],[32465692.0613,5904422.25],[32465692.9743,5904425.0289],[32465693.6057,5904427.9334],[32465694.0089,5904430.9267],[32465694.2351,5904433.9717],[32465694.3355,5904437.0311],[32465694.3612,5904440.0677],[32465694.3543,5904443.0617],[32465694.2868,5904446.0744],[32465694.1279,5904449.0986],[32465693.8515,5904452.1136],[32465693.4314,5904455.0991],[32465692.8413,5904458.0344],[32465692.058,5904460.9012],[32465691.1239,5904463.7251],[32465690.0752,5904466.522],[32465688.9312,5904469.2947],[32465687.7108,5904472.0463],[32465686.4332,5904474.7796],[32465685.1174,5904477.4976],[32465683.7826,5904480.2033],[32465682.4478,5904482.8995],[32465681.1128,5904485.5846],[32465679.7198,5904488.2446],[32465678.2765,5904490.8834],[32465676.798,5904493.5071],[32465675.2995,5904496.1215],[32465673.796,5904498.7325],[32465672.3026,5904501.3461],[32465670.8345,5904503.968],[32465669.8136,5904505.8532],[32465666.7328,5904511.9436],[32465663.0407,5904523.304],[32465661.8824,5904547.2752],[32465662.888,5904581.9863],[32465662.994,5904583.2942],[32465663.2086,5904586.2916],[32465663.3536,5904589.2858],[32465663.388,5904592.2756],[32465663.2726,5904595.2599],[32465663.0538,5904598.2411],[32465662.773,5904601.2207],[32465662.4385,5904604.1986],[32465662.0586,5904607.1745],[32465661.6416,5904610.1486],[32465661.1957,5904613.1206],[32465660.7293,5904616.0905],[32465660.2506,5904619.0581],[32465659.7679,5904622.0234],[32465659.2895,5904624.9862],[32465658.8036,5904627.9458],[32465658.2696,5904630.9006],[32465657.6974,5904633.8516],[32465657.0997,5904636.7997],[32465656.4888,5904639.7459],[32465655.8776,5904642.6912],[32465655.2784,5904645.6364],[32465654.7039,5904648.5826],[32465654.5052,5904649.6731],[32465653.2543,5904657.4365],[32465652.9071,5904669.5359],[32465665.0996,5904696.7239],[32465726.0839,5904810.6467],[32465727.1715,5904813.4245],[32465727.5808,5904816.3265],[32465727.7356,5904819.2786],[32465727.7997,5904822.2519],[32465727.7859,5904825.2425],[32465727.7069,5904828.2465],[32465727.5757,5904831.2599],[32465727.4051,5904834.2787],[32465727.2078,5904837.299],[32465726.9967,5904840.3167],[32465726.7846,5904843.328],[32465726.5843,5904846.3289],[32465726.3413,5904849.378],[32465724.8611,5904851.7174],[32465721.8596,5904850.9636],[32465719.2026,5904849.5992],[32465716.5515,5904848.215],[32465713.9054,5904846.8137],[32465711.2635,5904845.3981],[32465708.6249,5904843.9709],[32465705.9886,5904842.5347],[32465703.3538,5904841.0924],[32465700.7196,5904839.6467],[32465698.085,5904838.2003],[32465695.4491,5904836.7558],[32465694.7265,5904836.3614],[32465671.2367,5904824.3915],[32465665.5999,5904824.6529],[32465657.9512,5904829.7323],[32465651.2183,5904843.8975],[32465651.5545,5904849.9699],[32465654.6177,5904858.5124],[32465661.2807,5904864.4173],[32465665.1799,5904866.2993],[32465666.6825,5904866.9622],[32465669.4917,5904868.1009],[32465672.3246,5904869.2103],[32465675.1448,5904870.3354],[32465677.916,5904871.5211],[32465701.6159,5904882.7781],[32465705.7571,5904885.8839],[32465705.7571,5904890.025],[32465703.6868,5904903.4838],[32465702.6515,5904909.6956],[32465727.4991,5904952.6597],[32465774.0884,5905044.7996],[32465786.5124,5905081.0345],[32465789.6186,5905112.0932],[32465789.6192,5905151.4341],[32465793.7609,5905183.528],[32465810.3264,5905246.1627],[32465831.033,5905304.1385],[32465870.3749,5905378.6787],[32465882.7992,5905428.3723],[32465901.437,5905610.5828],[32465907.6511,5905773.123],[32465899.373,5906066.3685],[32465901.4437,5906075.6861],[32465904.5496,5906077.7566],[32465963.561,5906077.7557],[32465968.7375,5906080.8615],[32465960.4579,5906269.8018],[32465959.8034,5906280.6041],[32465958.388,5906312.2486],[32465909.7297,5906333.9904],[32465906.6239,5906338.1316],[32465903.5197,5906454.0839],[32465904.5551,5906459.2603],[32465928.3668,5906466.507],[32465929.4023,5906473.754],[32465920.0855,5906533.2832],[32465897.6044,5906657.9338],[32465872.4654,5906747.071],[32465849.6904,5906843.3531],[32465841.4089,5906894.0823],[32465833.6466,5907003.8469],[32465833.2084,5907010.0439],[32465814.4956,5907182.9282],[32465806.2151,5907307.6805],[32465806.0808,5907312.1118],[32465805.9915,5907315.1092],[32465805.9012,5907318.1067],[32465805.8108,5907321.1041],[32465805.7203,5907324.1016],[32465805.6298,5907327.099],[32465805.5392,5907330.0965],[32465805.4486,5907333.0939],[32465805.358,5907336.0914],[32465805.2673,5907339.0888],[32465805.1766,5907342.0862],[32465805.0858,5907345.0837],[32465804.9951,5907348.0811],[32465804.9043,5907351.0786],[32465804.8135,5907354.076],[32465804.7228,5907357.0735],[32465804.632,5907360.0709],[32465804.5413,5907363.0684],[32465804.4505,5907366.0658],[32465804.3598,5907369.0632],[32465804.2691,5907372.0607],[32465804.1785,5907375.0581],[32465804.0879,5907378.0556],[32465803.9973,5907381.053],[32465803.9068,5907384.0505],[32465803.8164,5907387.0479],[32465803.726,5907390.0454],[32465803.6357,5907393.0428],[32465803.5455,5907396.0403],[32465803.4553,5907399.0377],[32465803.3652,5907402.0352],[32465803.2752,5907405.0327],[32465803.1854,5907408.0301],[32465803.0956,5907411.0276],[32465803.0059,5907414.025],[32465802.9163,5907417.0225],[32465802.8269,5907420.02],[32465802.7376,5907423.0174],[32465802.6484,5907426.0149],[32465802.5593,5907429.0124],[32465802.4704,5907432.0098],[32465802.3817,5907435.0073],[32465802.2931,5907438.0048],[32465802.2046,5907441.0023],[32465802.0694,5907444.4215],[32465803.356,5907448.7],[32465806.2841,5907448.6842],[32465809.4742,5907448.4351],[32465812.607,5907448.3909],[32465815.7148,5907449.2825],[32465816.5631,5907451.8865],[32465816.5024,5907454.7933],[32465816.3855,5907457.7295],[32465816.2191,5907460.6909],[32465816.0105,5907463.6734],[32465815.7664,5907466.6731],[32465815.4941,5907469.6858],[32465815.3683,5907470.9803],[32465802.0755,5907614.8083],[32465801.9717,5907616.3777],[32465801.7381,5907619.3861],[32465801.454,5907622.3736],[32465801.1028,5907625.3329],[32465800.6677,5907628.2572],[32465800.1321,5907631.1392],[32465799.0667,5907633.8713],[32465796.9904,5907636.2113],[32465794.5886,5907638.0899],[32465788.6802,5907639.7845],[32465784.6138,5907669.1038],[32465783.3772,5907696.4995],[32465794.0401,5907920.2592],[32465794.0878,5907921.1444],[32465794.2484,5907924.1403],[32465794.408,5907927.1362],[32465794.5666,5907930.1322],[32465794.724,5907933.1282],[32465794.8803,5907936.1241],[32465795.0354,5907939.1202],[32465795.1892,5907942.1162],[32465795.3417,5907945.1122],[32465795.4928,5907948.1083],[32465795.6424,5907951.1044],[32465795.7906,5907954.1005],[32465795.9372,5907957.0966],[32465796.0822,5907960.0928],[32465796.2255,5907963.0889],[32465796.367,5907966.0851],[32465796.5068,5907969.0813],[32465796.6448,5907972.0775],[32465796.7809,5907975.0737],[32465796.915,5907978.07],[32465797.0471,5907981.0662],[32465797.1771,5907984.0625],[32465797.305,5907987.0588],[32465797.4308,5907990.0551],[32465797.5543,5907993.0514],[32465797.6755,5907996.0478],[32465797.7944,5907999.0441],[32465797.9108,5908002.0405],[32465798.0239,5908005.037],[32465798.1313,5908008.0337],[32465798.233,5908011.0306],[32465798.3293,5908014.0278],[32465798.4204,5908017.0252],[32465798.5065,5908020.0228],[32465798.5879,5908023.0207],[32465798.6647,5908026.0187],[32465798.7371,5908029.0169],[32465798.8054,5908032.0153],[32465798.8698,5908035.0138],[32465798.9305,5908038.0125],[32465798.9878,5908041.0114],[32465799.0418,5908044.0103],[32465799.0927,5908047.0094],[32465799.1409,5908050.0087],[32465799.1864,5908053.008],[32465799.2296,5908056.0074],[32465799.2706,5908059.0069],[32465799.3097,5908062.0064],[32465799.347,5908065.0061],[32465799.3828,5908068.0058],[32465799.4173,5908071.0055],[32465799.4508,5908074.0053],[32465799.4834,5908077.005],[32465799.5153,5908080.0048],[32465799.5468,5908083.0046],[32465799.5781,5908086.0044],[32465799.6094,5908089.0042],[32465799.641,5908092.0039],[32465799.673,5908095.0036],[32465799.7056,5908098.0033],[32465799.7392,5908101.0029],[32465799.7738,5908104.0024],[32465799.803,5908106.4349],[32465800.6548,5908151.9772],[32465804.1312,5908220.829],[32465808.9096,5908278.7321],[32465809.0786,5908280.5995],[32465809.3503,5908283.5868],[32465809.6233,5908286.574],[32465809.8974,5908289.5611],[32465810.1725,5908292.5482],[32465810.4484,5908295.5352],[32465810.7249,5908298.5223],[32465811.002,5908301.5092],[32465811.2794,5908304.4962],[32465811.5571,5908307.4832],[32465811.8348,5908310.4702],[32465812.1125,5908313.4572],[32465812.39,5908316.4442],[32465812.6671,5908319.4312],[32465812.9437,5908322.4182],[32465813.2196,5908325.4053],[32465813.4947,5908328.3925],[32465813.7689,5908331.3797],[32465814.042,5908334.367],[32465814.3139,5908337.3543],[32465814.5844,5908340.3417],[32465814.8533,5908343.3292],[32465815.1206,5908346.3168],[32465815.386,5908349.3045],[32465815.6495,5908352.2924],[32465815.9109,5908355.2803],[32465816.17,5908358.2684],[32465816.4266,5908361.2566],[32465816.6808,5908364.2449],[32465816.9322,5908367.2334],[32465817.1808,5908370.2221],[32465817.4264,5908373.2109],[32465817.6688,5908376.2],[32465817.9095,5908379.1892],[32465818.1489,5908382.1786],[32465818.3872,5908385.1682],[32465818.6245,5908388.1581],[32465818.8607,5908391.1481],[32465819.0959,5908394.1383],[32465819.3302,5908397.1287],[32465819.5636,5908400.1192],[32465819.7962,5908403.1098],[32465820.028,5908406.1006],[32465820.2591,5908409.0915],[32465820.4895,5908412.0826],[32465820.7192,5908415.0737],[32465820.9484,5908418.0649],[32465821.1771,5908421.0562],[32465821.4053,5908424.0476],[32465821.633,5908427.039],[32465821.8604,5908430.0305],[32465822.0875,5908433.022],[32465822.3143,5908436.0136],[32465822.5409,5908439.0052],[32465822.7673,5908441.9968],[32465822.9936,5908444.9883],[32465823.2198,5908447.9799],[32465823.446,5908450.9715],[32465823.6722,5908453.963],[32465823.8985,5908456.9545],[32465824.1249,5908459.9459],[32465824.3515,5908462.9373],[32465824.5784,5908465.9286],[32465824.8055,5908468.9198],[32465825.033,5908471.9109],[32465825.2609,5908474.9019],[32465825.4891,5908477.8928],[32465825.7179,5908480.8836],[32465825.9472,5908483.8742],[32465826.1771,5908486.8647],[32465826.4077,5908489.8551],[32465826.6389,5908492.8453],[32465826.8709,5908495.8353],[32465827.1036,5908498.8251],[32465827.3372,5908501.8147],[32465827.5717,5908504.8041],[32465827.694,5908506.3568],[32465832.0025,5908558.5665],[32465833.6206,5908564.4108],[32465839.9545,5908568.1902],[32465841.3941,5908568.8519],[32465843.8414,5908570.5095],[32465845.7601,5908572.9231],[32465846.6599,5908575.801],[32465846.9965,5908578.7514],[32465847.2964,5908581.7135],[32465847.5636,5908584.6858],[32465847.8022,5908587.667],[32465848.0164,5908590.656],[32465848.2102,5908593.6514],[32465848.3877,5908596.6518],[32465848.5531,5908599.6561],[32465848.7105,5908602.6629],[32465848.864,5908605.671],[32465849.0176,5908608.6789],[32465849.1756,5908611.6856],[32465849.342,5908614.6895],[32465849.5208,5908617.6896],[32465849.7164,5908620.6844],[32465849.8154,5908624.3167],[32465849.8981,5908627.3144],[32465849.9815,5908630.3121],[32465850.0651,5908633.3098],[32465850.1488,5908636.3074],[32465850.2322,5908639.3051],[32465850.315,5908642.3028],[32465850.3969,5908645.3005],[32465850.4777,5908648.2982],[32465850.5571,5908651.296],[32465850.6347,5908654.2937],[32465850.7104,5908657.2915],[32465850.9309,5908660.3545],[32465850.6599,5908663.2519],[32465848.787,5908665.5018],[32465846.7417,5908667.6755],[32465844.5839,5908669.8015],[32465842.3735,5908671.9084],[32465841.2886,5908672.9503],[32465836.0235,5908678.3992],[32465832.2412,5908686.3974],[32465833.5794,5908758.8046],[32465833.6477,5908761.3847],[32465833.7279,5908764.3838],[32465833.8088,5908767.383],[32465833.8905,5908770.3822],[32465833.9728,5908773.3815],[32465834.0557,5908776.3809],[32465834.139,5908779.3804],[32465834.2228,5908782.3799],[32465834.307,5908785.3794],[32465834.3915,5908788.379],[32465834.4763,5908791.3786],[32465834.5612,5908794.3782],[32465834.6462,5908797.3778],[32465834.7313,5908800.3774],[32465834.8164,5908803.3771],[32465834.9013,5908806.3767],[32465834.9862,5908809.3763],[32465835.0708,5908812.3759],[32465835.1551,5908815.3754],[32465835.2391,5908818.3749],[32465835.3226,5908821.3744],[32465835.4057,5908824.3738],[32465835.4883,5908827.3732],[32465835.5702,5908830.3725],[32465835.6515,5908833.3717],[32465835.7321,5908836.3708],[32465835.8118,5908839.3698],[32465835.8906,5908842.3688],[32465835.9686,5908845.3676],[32465836.0455,5908848.3663],[32465836.1214,5908851.365],[32465836.1961,5908854.3634],[32465836.2696,5908857.3618],[32465836.3419,5908860.36],[32465836.4128,5908863.3581],[32465836.4824,5908866.356],[32465836.5505,5908869.3537],[32465836.617,5908872.3513],[32465836.682,5908875.3487],[32465836.7453,5908878.3459],[32465836.8069,5908881.3429],[32465836.8668,5908884.3397],[32465836.9247,5908887.3364],[32465836.9808,5908890.3328],[32465837.0348,5908893.329],[32465837.0869,5908896.3249],[32465837.1368,5908899.3206],[32465837.1845,5908902.3161],[32465837.23,5908905.3113],[32465837.2731,5908908.3063],[32465837.2609,5908911.3052],[32465836.7711,5908914.2988],[32465835.782,5908917.1703],[32465834.4354,5908919.8417],[32465833.0398,5908922.484],[32465831.6292,5908925.123],[32465830.2032,5908927.7577],[32465828.7615,5908930.3873],[32465827.3039,5908933.0108],[32465825.8299,5908935.6272],[32465824.3392,5908938.2356],[32465822.8315,5908940.8352],[32465821.3064,5908943.425],[32465819.7637,5908946.0041],[32465818.2029,5908948.5715],[32465816.6238,5908951.1264],[32465815.0261,5908953.6677],[32465813.4093,5908956.1946],[32465811.7745,5908958.7074],[32465810.1336,5908961.2161],[32465808.4895,5908963.7231],[32465806.8421,5908966.2285],[32465805.1917,5908968.7321],[32465803.5382,5908971.2342],[32465801.8818,5908973.7347],[32465800.2225,5908976.2336],[32465798.5605,5908978.7309],[32465796.8957,5908981.2267],[32465795.2284,5908983.7211],[32465793.5585,5908986.2139],[32465791.8861,5908988.7052],[32465790.2114,5908991.1952],[32465788.5343,5908993.6837],[32465786.8551,5908996.1708],[32465785.1737,5908998.6566],[32465783.4903,5909001.141],[32465781.8049,5909003.624],[32465780.1176,5909006.1058],[32465778.4285,5909008.5863],[32465776.7376,5909011.0656],[32465775.0452,5909013.5436],[32465773.3511,5909016.0204],[32465771.6556,5909018.496],[32465769.9587,5909020.9704],[32465768.9577,5909022.4282],[32465768.2604,5909023.4437],[32465766.5609,5909025.9159],[32465764.8603,5909028.387],[32465763.1585,5909030.857],[32465761.4558,5909033.3259],[32465759.7521,5909035.7938],[32465758.0477,5909038.2608],[32465756.3424,5909040.7267],[32465754.6365,5909043.1917],[32465752.93,5909045.6557],[32465751.2229,5909048.1188],[32465749.5155,5909050.5811],[32465747.8077,5909053.0424],[32465746.0996,5909055.5029],[32465744.3913,5909057.9626],[32465742.683,5909060.4215],[32465740.9746,5909062.8796],[32465739.1024,5909065.3064],[32465736.389,5909066.3677],[32465733.3392,5909065.8516],[32465730.6834,5909064.3266],[32465728.6225,5909062.1757],[32465726.5678,5909060.016],[32465724.5189,5909057.848],[32465722.4754,5909055.6719],[32465720.4371,5909053.4884],[32465718.4036,5909051.2977],[32465716.3747,5909049.1004],[32465714.3499,5909046.8968],[32465712.3291,5909044.6875],[32465710.3119,5909042.4727],[32465708.298,5909040.253],[32465706.287,5909038.0288],[32465704.2787,5909035.8005],[32465702.2728,5909033.5685],[32465700.2688,5909031.3334],[32465698.2666,5909029.0954],[32465696.2659,5909026.855],[32465694.2662,5909024.6127],[32465692.2673,5909022.3689],[32465690.2689,5909020.124],[32465688.2706,5909017.8784],[32465686.8448,5909016.2761],[32465663.2199,5908989.9751],[32465662.1661,5908988.8222],[32465660.1374,5908986.6126],[32465658.1088,5908984.4027],[32465656.1,5908982.1667],[32465654.1062,5908979.9102],[32465652.1193,5908977.6432],[32465651.1668,5908976.5567],[32465644.0796,5908968.6667],[32465628.5019,5908954.7246],[32465589.4108,5908926.9264],[32465546.4269,5908899.4483],[32465540.7917,5908897.4314],[32465530.3404,5908903.484],[32465526.6713,5908908.1518],[32465525.858,5908913.991],[32465526.9886,5908916.8806],[32465540.9877,5908942.1278],[32465541.5595,5908943.1316],[32465543.0452,5908945.7384],[32465544.5302,5908948.3457],[32465546.0129,5908950.9544],[32465547.4918,5908953.5653],[32465548.9654,5908956.1789],[32465550.4322,5908958.7963],[32465551.8906,5908961.418],[32465553.3391,5908964.0448],[32465554.7761,5908966.6775],[32465556.2002,5908969.3169],[32465557.6097,5908971.9637],[32465559.0034,5908974.6186],[32465560.3884,5908977.278],[32465561.7699,5908979.9395],[32465563.1478,5908982.603],[32465564.5224,5908985.2683],[32465565.8938,5908987.9355],[32465567.2623,5908990.6043],[32465568.6278,5908993.2748],[32465569.9907,5908995.9467],[32465571.3511,5908998.6201],[32465572.709,5909001.2949],[32465574.0648,5909003.9708],[32465575.4185,5909006.6479],[32465576.7704,5909009.326],[32465578.1204,5909012.0051],[32465579.469,5909014.6851],[32465580.816,5909017.3658],[32465582.1619,5909020.0472],[32465583.5066,5909022.7291],[32465584.8504,5909025.4116],[32465586.1935,5909028.0944],[32465586.4566,5909028.6202],[32465626.9556,5909108.2836],[32465634.8588,5909117.2265],[32465654.0401,5909126.2236],[32465656.6492,5909127.6548],[32465659.0402,5909129.3696],[32465661.2608,5909131.324],[32465663.4466,5909133.3573],[32465665.5924,5909135.4633],[32465667.6916,5909137.637],[32465669.7381,5909139.8735],[32465671.7254,5909142.1678],[32465673.6472,5909144.5149],[32465675.4972,5909146.9097],[32465677.2689,5909149.3473],[32465678.956,5909151.8227],[32465680.5564,5909154.3321],[32465682.1046,5909156.8821],[32465683.609,5909159.4722],[32465685.0683,5909162.0995],[32465686.4811,5909164.7608],[32465687.8461,5909167.4529],[32465689.162,5909170.1729],[32465690.4275,5909172.9175],[32465691.6412,5909175.6837],[32465692.8018,5909178.4684],[32465693.9081,5909181.2685],[32465694.9587,5909184.0809],[32465695.9523,5909186.9024],[32465696.884,5909189.7326],[32465697.728,5909192.5894],[32465698.4879,5909195.474],[32465699.1751,5909198.3828],[32465699.8006,5909201.312],[32465700.3756,5909204.2579],[32465700.9112,5909207.2168],[32465701.4187,5909210.1851],[32465701.9091,5909213.159],[32465702.3937,5909216.1349],[32465702.8835,5909219.109],[32465703.3898,5909222.0777],[32465702.7342,5909226.7842],[32465705.0638,5909233.0082],[32465705.3979,5909235.9887],[32465705.701,5909238.9718],[32465705.9079,5909241.9804],[32465705.8842,5909245.0801],[32465705.8493,5909246.4193],[32465706.3007,5909254.1256],[32465711.0897,5909261.5818],[32465718.8123,5909266.2025],[32465730.8509,5909267.0226],[32465741.716,5909261.695],[32465755.3333,5909255.018],[32465765.086,5909248.431],[32465771.2199,5909237.979],[32465772.8158,5909218.2264],[32465771.2756,5909199.6068],[32465771.0503,5909197.3247],[32465770.7478,5909194.3376],[32465770.4399,5909191.3503],[32465770.1292,5909188.3627],[32465769.818,5909185.375],[32465769.5088,5909182.387],[32465769.2039,5909179.3989],[32465768.906,5909176.4107],[32465768.6172,5909173.4223],[32465768.3402,5909170.4338],[32465768.0772,5909167.4451],[32465767.8287,5909164.4564],[32465767.5791,5909161.4672],[32465767.3256,5909158.4775],[32465767.0689,5909155.4874],[32465766.8097,5909152.497],[32465766.5486,5909149.5061],[32465766.2863,5909146.5151],[32465766.0234,5909143.5237],[32465765.7606,5909140.5323],[32465765.4985,5909137.5406],[32465765.2379,5909134.549],[32465764.9794,5909131.5573],[32465764.7236,5909128.5656],[32465764.4713,5909125.574],[32465764.223,5909122.5825],[32465763.9794,5909119.5913],[32465763.7413,5909116.6002],[32465763.5092,5909113.6095],[32465763.2838,5909110.619],[32465763.0658,5909107.629],[32465762.8558,5909104.6394],[32465762.6546,5909101.6503],[32465762.4627,5909098.6618],[32465762.2809,5909095.6738],[32465762.1098,5909092.6865],[32465761.95,5909089.6998],[32465761.8022,5909086.7139],[32465761.6895,5909083.7178],[32465761.8201,5909080.6633],[32465762.3098,5909077.6439],[32465763.2393,5909074.7786],[32465764.6005,5909072.1317],[32465766.0323,5909069.5204],[32465767.4854,5909066.9165],[32465768.9584,5909064.3196],[32465770.45,5909061.7294],[32465771.9587,5909059.1454],[32465773.4833,5909056.5672],[32465775.0223,5909053.9944],[32465776.5745,5909051.4266],[32465777.0998,5909050.5656],[32465778.1383,5909048.8634],[32465779.7126,5909046.3043],[32465781.2959,5909043.7489],[32465782.8869,5909041.1968],[32465784.4841,5909038.6477],[32465786.0863,5909036.101],[32465787.692,5909033.5564],[32465789.3,5909031.0135],[32465790.9088,5909028.4718],[32465792.5171,5909025.9309],[32465794.1236,5909023.3905],[32465795.7268,5909020.8501],[32465797.3254,5909018.3092],[32465798.9181,5909015.7675],[32465800.4661,5909013.1644],[32465801.9651,5909010.4789],[32465803.4788,5909007.7919],[32465805.0713,5909005.1842],[32465806.8067,5909002.7369],[32465808.749,5909000.5309],[32465810.9566,5908998.6396],[32465813.3463,5908996.95],[32465815.8554,5908995.3855],[32465818.4642,5908993.9294],[32465821.1533,5908992.5652],[32465823.9034,5908991.276],[32465826.6948,5908990.0453],[32465829.5082,5908988.8563],[32465832.3241,5908987.6924],[32465835.1231,5908986.5369],[32465837.8891,5908985.3792],[32465840.702,5908984.3692],[32465843.5813,5908983.5273],[32465846.4987,5908982.7864],[32465848.2815,5908982.3556],[32465855.5105,5908980.2523],[32465857.8088,5908981.1666],[32465859.4919,5908983.6549],[32465860.7612,5908986.6497],[32465861.6856,5908989.5315],[32465862.5645,5908992.3923],[32465863.4261,5908995.2596],[32465864.2723,5908998.133],[32465865.1049,5909001.0117],[32465865.9255,5909003.8951],[32465866.7362,5909006.7824],[32465867.5386,5909009.6731],[32465868.1909,5909012.0446],[32465880.728,5909055.8344],[32465894.7618,5909095.4884],[32465907.9004,5909125.6607],[32465917.3411,5909138.2093],[32465918.8596,5909140.0823],[32465920.6948,5909142.4798],[32465922.4061,5909144.9418],[32465923.9461,5909147.4931],[32465925.2675,5909150.1586],[32465926.4489,5909152.8973],[32465927.6144,5909155.6442],[32465928.7646,5909158.3991],[32465929.9002,5909161.1615],[32465931.022,5909163.9311],[32465932.1306,5909166.7076],[32465933.2266,5909169.4906],[32465934.3108,5909172.2797],[32465935.3837,5909175.0747],[32465936.4462,5909177.8752],[32465937.4988,5909180.6807],[32465938.5422,5909183.4911],[32465939.5771,5909186.3058],[32465940.6041,5909189.1247],[32465941.624,5909191.9472],[32465942.6374,5909194.7731],[32465943.645,5909197.6021],[32465944.6474,5909200.4337],[32465945.6454,5909203.2677],[32465946.6395,5909206.1036],[32465947.6305,5909208.9412],[32465948.619,5909211.78],[32465949.6058,5909214.6198],[32465950.5914,5909217.4602],[32465951.5765,5909220.3008],[32465952.5619,5909223.1413],[32465953.5482,5909225.9813],[32465954.536,5909228.8205],[32465955.526,5909231.6586],[32465956.519,5909234.4951],[32465957.5155,5909237.3298],[32465958.5163,5909240.1623],[32465959.522,5909242.9922],[32465960.533,5909245.8194],[32465963.6073,5909254.2794],[32465965.0949,5909257.9918],[32465966.2089,5909260.776],[32465967.3219,5909263.5607],[32465968.4339,5909266.3459],[32465969.5448,5909269.1314],[32465970.6549,5909271.9173],[32465971.764,5909274.7036],[32465972.8723,5909277.4903],[32465973.9798,5909280.2773],[32465975.0865,5909283.0646],[32465976.1926,5909285.8522],[32465977.298,5909288.6401],[32465978.4028,5909291.4282],[32465979.5071,5909294.2166],[32465980.6109,5909297.0052],[32465981.7142,5909299.7939],[32465982.8171,5909302.5829],[32465983.9196,5909305.372],[32465985.0219,5909308.1612],[32465986.1239,5909310.9505],[32465987.2256,5909313.7399],[32465988.3272,5909316.5294],[32465989.4287,5909319.319],[32465990.5301,5909322.1085],[32465991.6315,5909324.8981],[32465992.7329,5909327.6877],[32465993.8344,5909330.4772],[32465994.9361,5909333.2667],[32465996.0379,5909336.0561],[32465997.1399,5909338.8454],[32465998.2422,5909341.6346],[32465999.3448,5909344.4237],[32466000.4478,5909347.2126],[32466001.5499,5909350.0018],[32466002.655,5909352.7898],[32466002.886,5909357.2568],[32466005.9699,5909361.1541],[32466052.4333,5909474.9759],[32466099.5773,5909581.1204],[32466099.9103,5909581.8611],[32466101.1393,5909584.5969],[32466102.3674,5909587.333],[32466103.5946,5909590.0696],[32466104.8208,5909592.8066],[32466106.0458,5909595.5441],[32466107.2696,5909598.2822],[32466108.492,5909601.0208],[32466109.7129,5909603.7601],[32466110.9323,5909606.5],[32466112.1499,5909609.2406],[32466113.3658,5909611.982],[32466114.5799,5909614.7243],[32466115.7919,5909617.4673],[32466117.0019,5909620.2113],[32466118.2096,5909622.9561],[32466119.4151,5909625.702],[32466120.6181,5909628.4489],[32466121.8187,5909631.1968],[32466123.0154,5909633.9465],[32466124.2061,5909636.6988],[32466125.3913,5909639.4537],[32466126.5712,5909642.2109],[32466127.7464,5909644.9703],[32466128.917,5909647.7317],[32466130.0837,5909650.4949],[32466131.2466,5909653.2598],[32466132.4062,5909656.0261],[32466133.563,5909658.7938],[32466134.7171,5909661.5626],[32466135.8692,5909664.3324],[32466136.7732,5909666.5099],[32466165.0904,5909733.3772],[32466210.5763,5909825.1793],[32466211.7119,5909827.4069],[32466213.0712,5909830.0809],[32466214.4271,5909832.7566],[32466215.779,5909835.4341],[32466217.1267,5909838.1136],[32466218.4696,5909840.7953],[32466219.8073,5909843.4794],[32466221.1396,5909846.166],[32466222.4659,5909848.8554],[32466223.7858,5909851.5478],[32466225.099,5909854.2433],[32466226.405,5909856.9422],[32466227.7034,5909859.6446],[32466228.9938,5909862.3506],[32466230.2758,5909865.0606],[32466231.549,5909867.7747],[32466232.813,5909870.4931],[32466234.0689,5909873.2152],[32466235.3222,5909875.9386],[32466236.5737,5909878.663],[32466237.8233,5909881.3884],[32466239.071,5909884.1147],[32466240.3169,5909886.842],[32466241.5608,5909889.5702],[32466242.8029,5909892.2994],[32466244.0432,5909895.0295],[32466245.2816,5909897.7606],[32466246.5181,5909900.4925],[32466247.7527,5909903.2254],[32466248.9855,5909905.9592],[32466250.2165,5909908.694],[32466251.4456,5909911.4296],[32466252.6729,5909914.1661],[32466253.8983,5909916.9035],[32466255.1218,5909919.6417],[32466256.3436,5909922.3809],[32466257.5635,5909925.1209],[32466258.7816,5909927.8618],[32466259.9978,5909930.6035],[32466261.2122,5909933.3461],[32466262.4248,5909936.0895],[32466263.6356,5909938.8338],[32466264.8445,5909941.5789],[32466266.0516,5909944.3248],[32466267.2569,5909947.0716],[32466268.4604,5909949.8191],[32466269.6621,5909952.5675],[32466270.862,5909955.3166],[32466272.0601,5909958.0666],[32466273.2564,5909960.8173],[32466274.4509,5909963.5688],[32466275.6436,5909966.3211],[32466276.8345,5909969.0742],[32466278.0236,5909971.828],[32466279.2109,5909974.5826],[32466280.3964,5909977.3379],[32466281.5802,5909980.094],[32466282.7622,5909982.8508],[32466283.9424,5909985.6083],[32466285.1208,5909988.3666],[32466286.2974,5909991.1256],[32466287.4723,5909993.8853],[32466288.6454,5909996.6457],[32466289.8168,5909999.4068],[32466290.9864,5910002.1686],[32466292.1542,5910004.931],[32466293.3203,5910007.6942],[32466294.4847,5910010.458],[32466295.6472,5910013.2225],[32466296.8081,5910015.9877],[32466297.9672,5910018.7535],[32466299.1245,5910021.5199],[32466300.2801,5910024.287],[32466301.434,5910027.0548],[32466302.5861,5910029.8232],[32466303.7366,5910032.5921],[32466304.8852,5910035.3618],[32466306.0322,5910038.132],[32466307.1774,5910040.9028],[32466308.321,5910043.6742],[32466309.4628,5910046.4462],[32466310.6035,5910049.2188],[32466311.7456,5910051.9916],[32466312.8889,5910054.7647],[32466314.0331,5910057.5382],[32466315.1777,5910060.3122],[32466316.3223,5910063.0869],[32466317.4664,5910065.8624],[32466318.6097,5910068.6387],[32466319.7516,5910071.4159],[32466320.8918,5910074.1943],[32466322.0299,5910076.9738],[32466323.1653,5910079.7545],[32466324.2978,5910082.5367],[32466325.4268,5910085.3203],[32466326.552,5910088.1056],[32466327.6728,5910090.8925],[32466328.789,5910093.6813],[32466329.9,5910096.472],[32466331.0054,5910099.2647],[32466332.1048,5910102.0595],[32466333.1978,5910104.8566],[32466334.2839,5910107.656],[32466335.3628,5910110.4579],[32466336.434,5910113.2623],[32466337.497,5910116.0694],[32466338.5514,5910118.8792],[32466339.5969,5910121.6919],[32466340.633,5910124.5076],[32466341.6592,5910127.3264],[32466342.6751,5910130.1484],[32466343.6804,5910132.9737],[32466344.6745,5910135.8024],[32466345.6571,5910138.6346],[32466346.6277,5910141.4704],[32466347.5859,5910144.31],[32466348.5312,5910147.1534],[32466349.4633,5910150.0007],[32466350.3818,5910152.8521],[32466351.2861,5910155.7076],[32466352.1759,5910158.5674],[32466353.0507,5910161.4315],[32466353.9101,5910164.3002],[32466354.7545,5910167.1731],[32466355.592,5910170.0482],[32466356.425,5910172.9248],[32466357.2536,5910175.8029],[32466358.0777,5910178.6824],[32466358.8975,5910181.5634],[32466359.713,5910184.4457],[32466360.5243,5910187.3294],[32466361.3315,5910190.2144],[32466362.1346,5910193.1008],[32466362.9338,5910195.9884],[32466363.729,5910198.8773],[32466364.5204,5910201.7675],[32466365.308,5910204.6589],[32466366.0919,5910207.5515],[32466366.8722,5910210.4452],[32466367.6489,5910213.3401],[32466368.4221,5910216.2361],[32466369.1919,5910219.1332],[32466369.9584,5910222.0314],[32466370.7215,5910224.9306],[32466371.4815,5910227.8309],[32466372.2383,5910230.7321],[32466372.992,5910233.6344],[32466373.7428,5910236.5375],[32466374.4906,5910239.4416],[32466375.2355,5910242.3466],[32466375.9776,5910245.2525],[32466376.7171,5910248.1592],[32466377.4538,5910251.0667],[32466378.188,5910253.9751],[32466378.9197,5910256.8842],[32466379.649,5910259.794],[32466380.3758,5910262.7046],[32466381.1004,5910265.6159],[32466381.8227,5910268.5279],[32466382.5429,5910271.4405],[32466383.261,5910274.3537],[32466383.9771,5910277.2675],[32466384.6912,5910280.1819],[32466385.4034,5910283.0969],[32466386.1139,5910286.0124],[32466386.8226,5910288.9284],[32466387.5296,5910291.8449],[32466388.235,5910294.7618],[32466388.9389,5910297.6791],[32466389.6414,5910300.5969],[32466390.3424,5910303.515],[32466391.0422,5910306.4335],[32466391.7407,5910309.3523],[32466392.438,5910312.2714],[32466393.1342,5910315.1908],[32466393.8294,5910318.1104],[32466394.5236,5910321.0303],[32466395.2169,5910323.9504],[32466395.9094,5910326.8706],[32466396.6011,5910329.7911],[32466397.2921,5910332.7116],[32466397.9826,5910335.6322],[32466398.6724,5910338.553],[32466399.3619,5910341.4738],[32466400.0509,5910344.3946],[32466400.7395,5910347.3154],[32466401.4279,5910350.2362],[32466402.1161,5910353.157],[32466402.8042,5910356.0776],[32466403.4923,5910358.9982],[32466404.1799,5910361.9188],[32466415.2672,5910408.6163],[32466415.9795,5910411.5366],[32466416.6913,5910414.4587],[32466417.4008,5910417.3827],[32466418.1056,5910420.3086],[32466418.8031,5910423.2366],[32466419.4909,5910426.1669],[32466420.1665,5910429.0996],[32466420.8274,5910432.0349],[32466421.4712,5910434.9729],[32466422.0954,5910437.9137],[32466422.6974,5910440.8575],[32466423.2749,5910443.8044],[32466423.8252,5910446.7547],[32466424.3461,5910449.7084],[32466424.8349,5910452.6657],[32466425.2892,5910455.6267],[32466425.7065,5910458.5916],[32466426.0844,5910461.5605],[32466426.4203,5910464.5337],[32466426.7118,5910467.5111],[32466426.9571,5910470.493],[32466427.1814,5910473.4769],[32466427.3989,5910476.4616],[32466427.6095,5910479.447],[32466427.8136,5910482.4331],[32466428.0113,5910485.4199],[32466428.2027,5910488.4075],[32466428.388,5910491.3956],[32466428.5674,5910494.3845],[32466428.7411,5910497.374],[32466428.9091,5910500.3641],[32466429.0718,5910503.3548],[32466429.2291,5910506.3461],[32466429.3814,5910509.338],[32466429.5288,5910512.3304],[32466429.6713,5910515.3233],[32466429.8093,5910518.3168],[32466429.9429,5910521.3108],[32466430.0721,5910524.3052],[32466430.1973,5910527.3001],[32466430.3186,5910530.2955],[32466430.436,5910533.2913],[32466430.5499,5910536.2875],[32466430.6603,5910539.2841],[32466430.7674,5910542.2811],[32466430.8714,5910545.2784],[32466430.9725,5910548.2761],[32466431.0708,5910551.2741],[32466431.1665,5910554.2725],[32466431.2597,5910557.2711],[32466431.3507,5910560.27],[32466431.4395,5910563.2692],[32466431.5264,5910566.2686],[32466431.6115,5910569.2682],[32466431.6949,5910572.2681],[32466431.777,5910575.2681],[32466431.8577,5910578.2683],[32466431.8941,5910579.6395],[32466435.2979,5910686.2473],[32466437.7841,5910728.1544],[32466437.9862,5910731.1465],[32466438.1895,5910734.1385],[32466438.3945,5910737.1305],[32466438.6009,5910740.1223],[32466438.8086,5910743.1141],[32466439.0172,5910746.1059],[32466439.2266,5910749.0976],[32466439.4365,5910752.0893],[32466439.6466,5910755.081],[32466439.8568,5910758.0727],[32466440.0667,5910761.0644],[32466440.2762,5910764.0562],[32466440.4851,5910767.048],[32466440.693,5910770.0398],[32466440.8998,5910773.0317],[32466441.1053,5910776.0237],[32466441.3091,5910779.0157],[32466441.511,5910782.0079],[32466441.7109,5910785.0002],[32466441.9084,5910787.9926],[32466442.1034,5910790.9852],[32466442.2956,5910793.9779],[32466442.4848,5910796.9707],[32466442.6707,5910799.9638],[32466442.8531,5910802.957],[32466443.032,5910805.9505],[32466443.2097,5910808.944],[32466443.3868,5910811.9377],[32466443.5633,5910814.9315],[32466443.7392,5910817.9254],[32466443.9144,5910820.9194],[32466444.0889,5910823.9135],[32466444.2626,5910826.9077],[32466444.4356,5910829.902],[32466444.6077,5910832.8963],[32466444.779,5910835.8907],[32466444.9493,5910838.8852],[32466445.1188,5910841.8797],[32466445.2873,5910844.8743],[32466445.4547,5910847.869],[32466445.6212,5910850.8636],[32466445.7866,5910853.8583],[32466445.9508,5910856.8531],[32466446.1139,5910859.8478],[32466446.2759,5910862.8426],[32466446.4366,5910865.8374],[32466446.596,5910868.8322],[32466446.7542,5910871.827],[32466446.9111,5910874.8218],[32466447.0665,5910877.8166],[32466447.2206,5910880.8113],[32466447.3733,5910883.8061],[32466447.5245,5910886.8008],[32466447.6741,5910889.7954],[32466447.8223,5910892.7901],[32466447.9688,5910895.7847],[32466448.1138,5910898.7792],[32466448.257,5910901.7737],[32466448.3986,5910904.7681],[32466448.5385,5910907.7625],[32466448.6774,5910910.7577],[32466448.7994,5910913.8263],[32466448.46,5910916.8093],[32466447.3247,5910919.5217],[32466445.946,5910922.1528],[32466444.4326,5910924.7417],[32466443.2671,5910926.6214],[32466433.8681,5910943.0671],[32466432.4818,5910972.8849],[32466432.918,5911036.0633],[32466435.9044,5911062.7786],[32466439.5576,5911076.9169],[32466439.6658,5911077.2936],[32466440.5177,5911080.182],[32466441.3814,5911083.0687],[32466442.248,5911085.9552],[32466443.1082,5911088.843],[32466443.9531,5911091.7334],[32466444.7734,5911094.6279],[32466445.5601,5911097.5278],[32466446.304,5911100.4346],[32466446.996,5911103.3497],[32466447.6271,5911106.2745],[32466448.188,5911109.2104],[32466448.6639,5911112.1599],[32466449.0562,5911115.1229],[32466449.3766,5911118.0974],[32466449.6371,5911121.0818],[32466449.8494,5911124.0741],[32466450.0254,5911127.0725],[32466450.0586,5911127.7315],[32466455.8893,5911192.8287],[32466480.6459,5911310.1941],[32466494.976,5911362.2277],[32466498.9143,5911366.7986],[32466509.1039,5911371.8661],[32466509.6477,5911372.1082],[32466512.3798,5911373.3955],[32466515.0276,5911374.8121],[32466517.6077,5911376.3456],[32466520.2076,5911377.8845],[32466522.8049,5911379.446],[32466525.3747,5911381.0499],[32466527.8922,5911382.7165],[32466530.3324,5911384.4656],[32466532.6706,5911386.3173],[32466534.8819,5911388.2917],[32466536.956,5911390.4055],[32466538.9151,5911392.6483],[32466540.776,5911394.9974],[32466542.5554,5911397.43],[32466544.2701,5911399.923],[32466545.9368,5911402.4538],[32466547.5723,5911404.9995],[32466549.1932,5911407.5372],[32466550.7991,5911410.0651],[32466552.3587,5911412.622],[32466553.8785,5911415.2049],[32466555.3668,5911417.8083],[32466556.8321,5911420.4266],[32466558.2827,5911423.0546],[32466559.727,5911425.6866],[32466561.1733,5911428.3173],[32466562.6301,5911430.9412],[32466564.1057,5911433.5529],[32466567.1836,5911445.3138],[32466567.3535,5911445.9308],[32466568.1617,5911448.8314],[32466568.9714,5911451.7318],[32466569.7749,5911454.6331],[32466570.5646,5911457.5364],[32466571.3328,5911460.4428],[32466572.0719,5911463.3534],[32466572.7743,5911466.2692],[32466573.4324,5911469.1915],[32466574.0385,5911472.1212],[32466574.5851,5911475.0595],[32466575.0645,5911478.0075],[32466575.469,5911480.9662],[32466575.8198,5911483.9336],[32466576.1518,5911486.9057],[32466576.4656,5911489.8821],[32466576.7616,5911492.8625],[32466577.0402,5911495.8467],[32466577.3019,5911498.8342],[32466577.5471,5911501.825],[32466577.7761,5911504.8185],[32466577.9895,5911507.8145],[32466578.1877,5911510.8128],[32466578.371,5911513.8129],[32466578.54,5911516.8147],[32466578.695,5911519.8177],[32466578.8364,5911522.8218],[32466578.9648,5911525.8265],[32466579.0804,5911528.8316],[32466579.1838,5911531.8368],[32466579.2754,5911534.8417],[32466579.3555,5911537.8462],[32466579.4247,5911540.8498],[32466579.4833,5911543.8522],[32466579.5318,5911546.8532],[32466579.5705,5911549.8524],[32466579.6,5911552.8496],[32466579.6206,5911555.8445],[32466579.6328,5911558.8367],[32466579.6369,5911561.8259],[32466579.5787,5911564.82],[32466579.4026,5911567.8239],[32466579.12,5911570.8312],[32466578.7422,5911573.8351],[32466578.2804,5911576.8291],[32466577.7459,5911579.8066],[32466577.1501,5911582.761],[32466576.5041,5911585.6857],[32466575.8193,5911588.5741],[32466574.8881,5911591.4115],[32466572.9304,5911593.8989],[32466570.4721,5911595.4006],[32466567.2949,5911595.4132],[32466564.5635,5911594.1524],[32466562.3696,5911591.8706],[32466561.7589,5911589.0497],[32466561.4718,5911586.1351],[32466561.3185,5911583.1659],[32466561.2595,5911580.1562],[32466561.2554,5911577.1199],[32466561.2667,5911574.071],[32466561.2567,5911571.6923],[32466560.7216,5911561.99],[32466556.7978,5911547.373],[32466541.6646,5911538.2379],[32466500.8616,5911518.8922],[32466497.9049,5911518.3536],[32466496.6681,5911520.9936],[32466483.099,5911554.4037],[32466482.0737,5911560.4845],[32466489.2636,5911564.2813],[32466489.8671,5911564.5407],[32466492.6335,5911565.8533],[32466495.1985,5911567.4154],[32466497.6684,5911569.1171],[32466500.1251,5911570.8673],[32466502.5466,5911572.6765],[32466504.911,5911574.5551],[32466507.1964,5911576.5137],[32466509.3809,5911578.5626],[32466511.4427,5911580.7123],[32466513.4093,5911582.9529],[32466515.3139,5911585.2653],[32466517.1586,5911587.6404],[32466518.9451,5911590.0695],[32466520.6756,5911592.5435],[32466522.3519,5911595.0535],[32466523.976,5911597.5906],[32466525.5498,5911600.1458],[32466527.0701,5911602.7136],[32466528.3093,5911605.4319],[32466529.2837,5911608.2967],[32466529.6113,5911609.352],[32466530.9349,5911613.1507],[32466533.5185,5911615.7343],[32466577.8708,5911618.9632],[32466576.7254,5911735.103],[32466576.3803,5911770.092],[32466566.1859,5912083.7138],[32466562.0476,5912281.4539],[32466549.6259,5912400.5123],[32466437.8156,5912461.5959],[32466437.3146,5912463.6625],[32466425.3928,5912512.843],[32466468.875,5912516.9835],[32466465.7696,5912549.0775],[32466397.6827,5912542.1711],[32466394.3346,5912541.8315],[32466391.9895,5912605.2313],[32466391.9832,5912605.9106],[32466391.9523,5912608.9099],[32466391.9169,5912611.9089],[32466391.8755,5912614.9078],[32466391.8268,5912617.9063],[32466391.7695,5912620.9045],[32466391.7022,5912623.9022],[32466391.6235,5912626.8995],[32466391.5323,5912629.8963],[32466391.427,5912632.8926],[32466391.3063,5912635.8882],[32466391.1706,5912638.8833],[32466391.0319,5912641.8794],[32466390.8926,5912644.8767],[32466390.7526,5912647.875],[32466390.6115,5912650.8743],[32466390.4692,5912653.8743],[32466390.3252,5912656.8749],[32466390.1794,5912659.876],[32466390.0314,5912662.8775],[32466389.8811,5912665.8792],[32466389.7281,5912668.881],[32466389.5721,5912671.8827],[32466389.413,5912674.8843],[32466389.2504,5912677.8855],[32466389.0841,5912680.8863],[32466388.9137,5912683.8864],[32466388.7391,5912686.8859],[32466388.5599,5912689.8844],[32466388.3759,5912692.8819],[32466388.1868,5912695.8783],[32466387.9924,5912698.8734],[32466387.7924,5912701.8671],[32466387.5864,5912704.8592],[32466387.3743,5912707.8497],[32466387.1558,5912710.8383],[32466386.9305,5912713.8249],[32466386.6983,5912716.8094],[32466386.4588,5912719.7917],[32466386.2119,5912722.7716],[32466385.9571,5912725.749],[32466385.6943,5912728.7237],[32466385.4232,5912731.6957],[32466385.1435,5912734.6647],[32466384.723,5912737.6706],[32466383.6216,5912740.6893],[32466381.9324,5912743.2493],[32466379.7203,5912744.8996],[32466376.6797,5912745.6685],[32466373.4765,5912745.5116],[32466370.672,5912744.5706],[32466367.921,5912743.4985],[32466365.1835,5912742.351],[32466362.4568,5912741.1402],[32466359.7385,5912739.8783],[32466357.026,5912738.5774],[32466354.3167,5912737.2497],[32466351.6081,5912735.9074],[32466348.8976,5912734.5627],[32466347.6474,5912733.9479],[32466326.8878,5912724.6538],[32466309.8621,5912719.112],[32466300.9205,5912720.5224],[32466295.3343,5912727.5656],[32466295.3358,5912730.8258],[32466299.525,5912734.6029],[32466310.9028,5912741.8564],[32466312.1963,5912742.6154],[32466314.848,5912744.1624],[32466317.4929,5912745.7207],[32466320.1113,5912747.3032],[32466322.6834,5912748.9225],[32466325.19,5912750.5912],[32466327.6845,5912752.2715],[32466330.2057,5912753.937],[32466332.7424,5912755.596],[32466335.2834,5912757.2571],[32466337.8175,5912758.9285],[32466340.3334,5912760.6188],[32466342.82,5912762.3364],[32466345.2659,5912764.0896],[32466347.6601,5912765.8871],[32466349.9912,5912767.7371],[32466352.248,5912769.6482],[32466355.4555,5912772.7275],[32466383.4821,5912776.1626],[32466503.0435,5912790.8168],[32466480.2696,5912958.5338],[32466390.2013,5913079.6638],[32466374.6721,5913088.9817],[32466352.5973,5913094.5253],[32466326.5629,5913101.0633],[32466307.3984,5913120.2284],[32466301.3007,5913135.9088],[32466296.9454,5913159.4294],[32466288.2344,5913175.981],[32466265.5854,5913204.7285],[32466257.9491,5913212.8423],[32466240.2111,5913231.4577],[32466226.7896,5913244.6481],[32466218.4591,5913250.4334],[32466213.239,5913252.6707],[32466206.28,5913260.0165],[32466200.6792,5913270.3569],[32466199.8179,5913298.3617],[32466207.1425,5913312.5794],[32466223.5146,5913321.196],[32466267.3171,5913329.525],[32466269.1841,5913329.8122],[32466286.6688,5913333.2047],[32466290.8739,5913334.0205],[32466464.7424,5913094.6752],[32466379.8603,5913895.9896],[32466313.6103,5914478.8578],[32466208.6218,5914479.3901],[32466208.239,5914483.048],[32466207.9261,5914486.0305],[32466207.6124,5914489.0129],[32466207.298,5914491.9952],[32466206.9828,5914494.9775],[32466206.667,5914497.9597],[32466206.3506,5914500.9419],[32466206.0336,5914503.924],[32466205.7159,5914506.906],[32466205.3978,5914509.888],[32466205.079,5914512.87],[32466204.7598,5914515.8519],[32466204.4401,5914518.8338],[32466204.12,5914521.8157],[32466203.7994,5914524.7975],[32466203.4785,5914527.7793],[32466203.1572,5914530.761],[32466202.8355,5914533.7427],[32466202.5136,5914536.7244],[32466202.1913,5914539.7061],[32466201.8688,5914542.6877],[32466201.5461,5914545.6693],[32466201.2232,5914548.6509],[32466200.9001,5914551.6325],[32466200.5768,5914554.6141],[32466200.2535,5914557.5957],[32466199.93,5914560.5773],[32466199.6065,5914563.5588],[32466199.283,5914566.5404],[32466198.9595,5914569.5219],[32466198.6359,5914572.5035],[32466198.3125,5914575.485],[32466197.9891,5914578.4666],[32466197.6658,5914581.4482],[32466197.3426,5914584.4298],[32466197.0196,5914587.4114],[32466196.6971,5914590.393],[32466192.2125,5914632.1386],[32466180.5979,5914748.5053],[32466178.4639,5914779.8092],[32466178.3737,5914781.4232],[32466178.2106,5914784.4193],[32466178.0511,5914787.4157],[32466177.8946,5914790.4123],[32466177.7405,5914793.4092],[32466177.5879,5914796.4061],[32466177.4364,5914799.4031],[32466177.2852,5914802.4001],[32466177.1337,5914805.397],[32466176.9811,5914808.3938],[32466176.8269,5914811.3903],[32466176.6704,5914814.3866],[32466176.5108,5914817.3825],[32466176.3477,5914820.3781],[32466176.1802,5914823.3731],[32466176.0077,5914826.3676],[32466175.8296,5914829.3615],[32466175.6452,5914832.3548],[32466175.4538,5914835.3473],[32466175.2548,5914838.339],[32466175.0475,5914841.3298],[32466174.8313,5914844.3197],[32466174.6054,5914847.3086],[32466174.3692,5914850.2965],[32466174.1221,5914853.2832],[32466173.8634,5914856.2687],[32466173.5924,5914859.253],[32466173.3085,5914862.236],[32466173.011,5914865.2175],[32466172.6992,5914868.1976],[32466172.3729,5914871.1762],[32466172.0324,5914874.1531],[32466171.6786,5914877.1286],[32466171.312,5914880.1027],[32466170.9333,5914883.0754],[32466170.5432,5914886.0469],[32466170.1423,5914889.0172],[32466169.7314,5914891.9864],[32466169.311,5914894.9546],[32466168.8818,5914897.9218],[32466168.4445,5914900.8882],[32466167.9997,5914903.8537],[32466167.5482,5914906.8185],[32466167.0904,5914909.7827],[32466166.6272,5914912.7463],[32466166.1592,5914915.7093],[32466165.687,5914918.672],[32466165.2114,5914921.6342],[32466164.7328,5914924.5963],[32466164.3704,5914926.829],[32466149.1541,5915031.4408],[32466115.2011,5915302.2163],[32466111.8645,5915377.1009],[32466111.7703,5915380.1001],[32466111.6699,5915383.0987],[32466111.5609,5915386.0967],[32466111.4423,5915389.094],[32466111.3128,5915392.0906],[32466111.1712,5915395.0862],[32466111.0165,5915398.081],[32466110.8474,5915401.0746],[32466110.663,5915404.0672],[32466110.4672,5915407.059],[32466110.2626,5915410.0502],[32466110.0497,5915413.0409],[32466109.829,5915416.0311],[32466109.601,5915419.0208],[32466109.3663,5915422.01],[32466109.1254,5915424.9989],[32466108.8789,5915427.9874],[32466108.627,5915430.9756],[32466098.8985,5915559.5513],[32466097.865,5915595.6407],[32466099.4538,5915616.4159],[32466128.1994,5915616.2325],[32466152.5912,5915628.428],[32466173.4986,5915649.3348],[32466180.468,5915673.7263],[32466182.2109,5915724.2517],[32466160.4392,5916165.9143],[32466143.4045,5916720.0564]]],"crs":{"type":"EPSG","properties":{"code":4647}}},"properties":{"FL_NR":343,"BR":1,"BR_NAME":"KÜSTENHOLOZÄN","TKNR":2716,"TKNAME":"Brake (Unterweser)","UP_DATE":"2018-09-06T14:12:10.0000000"}}]}