{
"type": "FeatureCollection",
"name": "guek200_units",
"crs": { "type": "name", "properties": { "name": "urn:ogc:def:crs:OGC:1.3:CRS84" } },
"features": [
{ "type": "Feature", "properties": { "OBJECTID": 55877, "Kuerzel": "D,,Lg", "T1_MatBez": "Drenthe-Stadium", "T1_GenTxt": "Grundmoräne (Geschiebemergel, Geschiebelehm)", "T1_PethTxt": "Schluff, tonig, sandig, kiesig; Steine", "T1_System": "Quartär", "T1_Serie": "Pleistozän", "T1_Stufe": "Saale-Kaltzeit", "T1_UStufe": "Drenthe-Stadium", "T2_Kuerzel": null, "T2_GenTxt": null, "T2_PethTxt": null, "T1_Blattnu": "CC 3926", "T1_Blattna": "Braunschweig" }, "geometry": { "type": "Polygon", "coordinates": [ [ [ 11.073882350252259, 52.315197140962873 ], [ 11.074145759591968, 52.31549811964846 ], [ 11.075523023924475, 52.31844457899637 ], [ 11.076323696760895, 52.31972483004261 ], [ 11.07760521784143, 52.320466305370608 ], [ 11.079356357873792, 52.320664693783762 ], [ 11.081576746498364, 52.320625584116669 ], [ 11.082961585093569, 52.320753972617794 ], [ 11.084715844973667, 52.32132973828196 ], [ 11.086203660628627, 52.321307962822949 ], [ 11.08866256532716, 52.320882501869413 ], [ 11.090011176512068, 52.320553041304045 ], [ 11.09148107521186, 52.319996708423858 ], [ 11.092313451394137, 52.319141553576756 ], [ 11.09299603008888, 52.317987935860671 ], [ 11.092974733739235, 52.317381598104461 ], [ 11.093789149929332, 52.314864 ], [ 11.074441098845831, 52.314864 ], [ 11.073882350252259, 52.315197140962873 ] ] ] } },
{ "type": "Feature", "properties": { "OBJECTID": 55248, "Kuerzel": ",,f", "T1_MatBez": "Holozän", "T1_GenTxt": "fluviatile Ablagerungen", "T1_PethTxt": "Ton, Schluff, Sand; Kies", "T1_System": "Quartär", "T1_Serie": "Holozän", "T1_Stufe": null, "T1_UStufe": null, "T2_Kuerzel": null, "T2_GenTxt": null, "T2_PethTxt": null, "T1_Blattnu": "CC 3926", "T1_Blattna": "Braunschweig" }, "geometry": { "type": "MultiPolygon", "coordinates": [ [ [ [ 11.035812542053215, 52.390379 ], [ 11.053834356922863, 52.390379 ], [ 11.054127121353217, 52.390181106245954 ], [ 11.054882860023563, 52.39032076826701 ], [ 11.056565631910194, 52.389149989504446 ], [ 11.05798491591019, 52.387448973883807 ], [ 11.05930387615772, 52.386513689523355 ], [ 11.062087643328306, 52.385018038271156 ], [ 11.066489975867938, 52.383192919237281 ], [ 11.068325595756763, 52.380041876359989 ], [ 11.069408695451436, 52.379254416871795 ], [ 11.071112205408191, 52.378465062560892 ], [ 11.072958069089413, 52.378050693318023 ], [ 11.074822013425539, 52.378022474415019 ], [ 11.074946453279212, 52.378092195337921 ], [ 11.078809334455332, 52.37832990282007 ], [ 11.081282528847829, 52.378061660496762 ], [ 11.084478929092072, 52.377245807371224 ], [ 11.08895097240964, 52.377243233353205 ], [ 11.090444177552373, 52.377140426202182 ], [ 11.094068472750825, 52.377534656020266 ], [ 11.096302694637922, 52.377495040304275 ], [ 11.100386302137245, 52.377121415308864 ], [ 11.101013551570727, 52.37726306507485 ], [ 11.103379820774983, 52.377220967968611 ], [ 11.105136843689452, 52.377724483015371 ], [ 11.107062162563535, 52.378908083765545 ], [ 11.10822106790698, 52.379957022339894 ], [ 11.110285933442283, 52.381290882077991 ], [ 11.113041180005798, 52.381700048880845 ], [ 11.11465187919349, 52.381594835055047 ], [ 11.116024054371533, 52.381646672032637 ], [ 11.120268945614329, 52.382334589394652 ], [ 11.121886985830791, 52.382229144300219 ], [ 11.122145, 52.382175087999727 ], [ 11.122145, 52.380800235534885 ], [ 11.119575958954389, 52.380594298249456 ], [ 11.114817609003715, 52.379915546937127 ], [ 11.113552030347204, 52.379326985385312 ], [ 11.111355139951829, 52.377842739137051 ], [ 11.10894544657576, 52.376820656446874 ], [ 11.107526239314444, 52.375547165215849 ], [ 11.105476296400479, 52.3744421942137 ], [ 11.104731685033821, 52.374302658211832 ], [ 11.102739750660229, 52.374338122695882 ], [ 11.102251773369815, 52.374499607267843 ], [ 11.100267118158417, 52.374611301175669 ], [ 11.09928729973954, 52.374853420523216 ], [ 11.096191026312448, 52.37506119118553 ], [ 11.091558332630241, 52.374379278533524 ], [ 11.089819560899173, 52.374333643211344 ], [ 11.088707899348499, 52.374506099988885 ], [ 11.085600514686325, 52.374556493053767 ], [ 11.082831711187195, 52.373922221242026 ], [ 11.08078957331942, 52.372812192823744 ], [ 11.077561040178251, 52.370280375378428 ], [ 11.076117905659947, 52.368629424896135 ], [ 11.075056159311835, 52.367124560770527 ], [ 11.071793007623521, 52.363523588856864 ], [ 11.070432072364454, 52.361188017298886 ], [ 11.070115349916129, 52.359517249506041 ], [ 11.070645563109714, 52.357984441833018 ], [ 11.071482893866934, 52.356976556804277 ], [ 11.072797403119573, 52.355892882732583 ], [ 11.074691889746545, 52.35403050866686 ], [ 11.074420983192214, 52.350911827335551 ], [ 11.07488066495684, 52.349915040499475 ], [ 11.077127205995586, 52.347664437433103 ], [ 11.077693536087013, 52.346283760007744 ], [ 11.078729247925789, 52.344742018777524 ], [ 11.081268261728431, 52.343025485251239 ], [ 11.08466816399428, 52.341442014853214 ], [ 11.086359104734596, 52.340499846497806 ], [ 11.087067325494157, 52.339646926003141 ], [ 11.086870974796197, 52.338126871082309 ], [ 11.086464880204364, 52.337527330335973 ], [ 11.086275893574223, 52.336007144067572 ], [ 11.084616477618674, 52.335043227218037 ], [ 11.084078571713214, 52.334369604824019 ], [ 11.083448004484421, 52.331257276713401 ], [ 11.082511025037896, 52.330051383761607 ], [ 11.082454274397254, 52.328609754182082 ], [ 11.082382524491917, 52.327082998467588 ], [ 11.083304332332249, 52.325471310821314 ], [ 11.086581701776927, 52.324119137905214 ], [ 11.088553414917735, 52.323702285104105 ], [ 11.091962399356111, 52.322347632506506 ], [ 11.093894521438596, 52.321095472058488 ], [ 11.095655201696783, 52.318934000193345 ], [ 11.097056252536824, 52.317079997712767 ], [ 11.097130471450335, 52.316013555774411 ], [ 11.09668398205338, 52.314864 ], [ 11.093789149929332, 52.314864 ], [ 11.092974733739235, 52.317381598104461 ], [ 11.09299603008888, 52.317987935860671 ], [ 11.092313451394137, 52.319141553576756 ], [ 11.09148107521186, 52.319996708423858 ], [ 11.090011176512068, 52.320553041304045 ], [ 11.088214882409073, 52.321654428556762 ], [ 11.084695256778122, 52.323464837526451 ], [ 11.083716531808218, 52.323864112251037 ], [ 11.082983602946531, 52.32395344086941 ], [ 11.079623329167541, 52.323931755237254 ], [ 11.076882828341146, 52.323831665653422 ], [ 11.075754674752213, 52.323469492490325 ], [ 11.074473278030974, 52.322575191905834 ], [ 11.073302347479981, 52.321454230310806 ], [ 11.07176507473069, 52.320339684193854 ], [ 11.069227421629341, 52.319238152653881 ], [ 11.06856924140614, 52.318413765662804 ], [ 11.068654522054411, 52.317648261849953 ], [ 11.068992909041619, 52.316806418357857 ], [ 11.068932449137778, 52.315589555659088 ], [ 11.068299226215718, 52.314864 ], [ 11.063773190920847, 52.314864 ], [ 11.063811798433701, 52.314915131292629 ], [ 11.064184693929167, 52.317726462072471 ], [ 11.064722091210752, 52.318400183911677 ], [ 11.066529623552153, 52.319968498586206 ], [ 11.067298437436316, 52.320413451181125 ], [ 11.070903584744402, 52.323249039350401 ], [ 11.072345098217518, 52.324823682990768 ], [ 11.073540705932675, 52.326627335107567 ], [ 11.074562361634896, 52.329962048075267 ], [ 11.076616770108984, 52.334119010596275 ], [ 11.078347439405002, 52.336371611751176 ], [ 11.078390042193028, 52.337435979482883 ], [ 11.077364966520317, 52.339435937687448 ], [ 11.074677396640247, 52.342835814608549 ], [ 11.071775104860858, 52.344634977112207 ], [ 11.07031494846618, 52.345343687439829 ], [ 11.068758826309747, 52.346512463259749 ], [ 11.067535122245621, 52.348201216662133 ], [ 11.066415031206878, 52.349753320035411 ], [ 11.06562810278376, 52.351290599751849 ], [ 11.064331450115915, 52.352836779816307 ], [ 11.062930091551184, 52.353634251492025 ], [ 11.062258223670575, 52.353785299830086 ], [ 11.060940491444404, 52.354725099981401 ], [ 11.060711917600553, 52.355412196876109 ], [ 11.061780222273256, 52.356917074491705 ], [ 11.062149970661023, 52.359575648922089 ], [ 11.063221769370312, 52.361309653926028 ], [ 11.063649243433641, 52.362290899600175 ], [ 11.063709759198998, 52.363588649584671 ], [ 11.063478375819264, 52.363821892608399 ], [ 11.063163929943945, 52.365422803688624 ], [ 11.063067689300087, 52.368318710066795 ], [ 11.062016337464282, 52.369784174303845 ], [ 11.058256824237386, 52.371908036359727 ], [ 11.057557987178944, 52.372985316403117 ], [ 11.056912390765293, 52.37505037444096 ], [ 11.056113699053054, 52.376587785162592 ], [ 11.055061805766716, 52.378129593134055 ], [ 11.053393582199025, 52.379605702650714 ], [ 11.051339658332994, 52.381160389437326 ], [ 11.050398685760047, 52.382169920999381 ], [ 11.04882661722988, 52.383033094280194 ], [ 11.045767862965699, 52.384227593504065 ], [ 11.043831935110472, 52.385326196873358 ], [ 11.042249255892617, 52.385964759360121 ], [ 11.040555356268923, 52.387059125177409 ], [ 11.038646977135723, 52.388840271692665 ], [ 11.037195752574616, 52.389705696113282 ], [ 11.035812542053215, 52.390379 ] ] ], [ [ [ 11.026656876852826, 52.390379 ], [ 11.028491552746592, 52.390379 ], [ 11.028148399256622, 52.390315215706046 ], [ 11.026779529990149, 52.390338699542205 ], [ 11.026656876852826, 52.390379 ] ] ], [ [ [ 11.024947, 52.378731278380421 ], [ 11.024947, 52.382613243646247 ], [ 11.026442257313549, 52.38169782312174 ], [ 11.029666171653057, 52.378653909684722 ], [ 11.030653961302955, 52.377135904832343 ], [ 11.030702058242049, 52.376344114006727 ], [ 11.030395450009683, 52.37582357162384 ], [ 11.029663940277896, 52.375804679615989 ], [ 11.028224262006498, 52.376436104367379 ], [ 11.026439642930084, 52.377473403278955 ], [ 11.025002316632657, 52.378639547787557 ], [ 11.024947, 52.378731278380421 ] ] ] ] } },
{ "type": "Feature", "properties": { "OBJECTID": 55870, "Kuerzel": "sm", "T1_MatBez": "Mittlerer Buntsandstein", "T1_GenTxt": "limnisch-fluviatil, brackisch", "T1_PethTxt": "Wechsel Sandstein / Schluffstein / Tonstein", "T1_System": "Trias", "T1_Serie": "Buntsandstein", "T1_Stufe": "Mittlerer Buntsandstein", "T1_UStufe": null, "T2_Kuerzel": null, "T2_GenTxt": null, "T2_PethTxt": null, "T1_Blattnu": "CC 3926", "T1_Blattna": "Braunschweig" }, "geometry": { "type": "Polygon", "coordinates": [ [ [ 11.110882425550642, 52.317979724924882 ], [ 11.111292483180099, 52.318736409031736 ], [ 11.113123729048764, 52.320690096913147 ], [ 11.113537039308246, 52.321590529759874 ], [ 11.114434520900749, 52.322262079409505 ], [ 11.116003010424887, 52.321164370957739 ], [ 11.117627080023894, 52.318852210144968 ], [ 11.118866383166498, 52.316164920860054 ], [ 11.119766794227628, 52.314864 ], [ 11.113113003273376, 52.314864 ], [ 11.113093065114548, 52.314893127138781 ], [ 11.111660028655644, 52.316060284098462 ], [ 11.110952620498468, 52.316989746413206 ], [ 11.110882425550642, 52.317979724924882 ] ] ] } },
{ "type": "Feature", "properties": { "OBJECTID": 55681, "Kuerzel": "su", "T1_MatBez": "Unterer Buntsandstein", "T1_GenTxt": "limnisch-fluviatil, brackisch-marin", "T1_PethTxt": "Wechsel Sandstein / Schluffstein / Tonstein; Kalkstein, oolithisch (Rogenstein)", "T1_System": "Trias", "T1_Serie": "Buntsandstein", "T1_Stufe": "Unterer Buntsandstein", "T1_UStufe": null, "T2_Kuerzel": null, "T2_GenTxt": null, "T2_PethTxt": null, "T1_Blattnu": "CC 3926", "T1_Blattna": "Braunschweig" }, "geometry": { "type": "Polygon", "coordinates": [ [ [ 11.10207256582642, 52.336567511422537 ], [ 11.102625435434559, 52.337627286564931 ], [ 11.104449388370513, 52.339495846732682 ], [ 11.10497684467032, 52.340250460058087 ], [ 11.106009925772117, 52.341067964218233 ], [ 11.107930195929658, 52.342256131884525 ], [ 11.10849030318478, 52.343540460403482 ], [ 11.108295354974116, 52.344609060950042 ], [ 11.107825857311985, 52.345228647109913 ], [ 11.105651104387047, 52.346561753201321 ], [ 11.104576307835238, 52.347416822279719 ], [ 11.103982077703604, 52.34803861559427 ], [ 11.103765242218151, 52.348649190465053 ], [ 11.103385873275869, 52.351168188668964 ], [ 11.103821518822906, 52.352459247912094 ], [ 11.105631838828533, 52.354026921529922 ], [ 11.113094697703579, 52.351534232713462 ], [ 11.114660743603528, 52.350593893034343 ], [ 11.11953388308995, 52.348677431493151 ], [ 11.122145, 52.347995898990277 ], [ 11.122145, 52.314864 ], [ 11.119766794227628, 52.314864 ], [ 11.118866383166498, 52.316164920860054 ], [ 11.117627080023894, 52.318852210144968 ], [ 11.116003010424887, 52.321164370957739 ], [ 11.114434520900749, 52.322262079409505 ], [ 11.116731339865513, 52.323591671607097 ], [ 11.117526030442939, 52.324566150711057 ], [ 11.117562505411312, 52.325329510878575 ], [ 11.117214060198235, 52.325866072135582 ], [ 11.115762779549877, 52.326656090998959 ], [ 11.114531253970709, 52.326902853475239 ], [ 11.113332717298526, 52.327764717398814 ], [ 11.112753450551544, 52.32861549411885 ], [ 11.112683210056751, 52.329834677171149 ], [ 11.112103690863909, 52.330680960475163 ], [ 11.110648282008711, 52.331466493728136 ], [ 11.10942050402137, 52.33164122741865 ], [ 11.107851270646529, 52.332734362833534 ], [ 11.107510196397374, 52.33327525712599 ], [ 11.106190120061537, 52.334287522629751 ], [ 11.103858600269113, 52.334935785924763 ], [ 11.102535023078449, 52.33579976439372 ], [ 11.10207256582642, 52.336567511422537 ] ] ] } },
{ "type": "Feature", "properties": { "OBJECTID": 55842, "Kuerzel": "ol", "T1_MatBez": "Oligozän", "T1_GenTxt": "marin", "T1_PethTxt": "Ton; glaukonitisch", "T1_System": "Tertiär", "T1_Serie": "Oligozän", "T1_Stufe": null, "T1_UStufe": null, "T2_Kuerzel": null, "T2_GenTxt": null, "T2_PethTxt": null, "T1_Blattnu": "CC 3926", "T1_Blattna": "Braunschweig" }, "geometry": { "type": "Polygon", "coordinates": [ [ [ 11.107371571719579, 52.319795155440701 ], [ 11.108492586917189, 52.320080754663465 ], [ 11.10964622342013, 52.32074327275707 ], [ 11.109902579256557, 52.321044298469189 ], [ 11.110469756995226, 52.322404895212259 ], [ 11.112795605194533, 52.324268853708276 ], [ 11.113586534725609, 52.325319828351596 ], [ 11.113619325479737, 52.325930452204908 ], [ 11.113157373561069, 52.326702730163369 ], [ 11.110877049152537, 52.32841534387439 ], [ 11.109876679227574, 52.328280414297922 ], [ 11.109242833290979, 52.327986129565886 ], [ 11.107832628480267, 52.327022580271425 ], [ 11.107176965633482, 52.326423069463878 ], [ 11.107133656743882, 52.325435119503013 ], [ 11.107295961494705, 52.323526686414546 ], [ 11.107017941770701, 52.323001330811955 ], [ 11.105571681307424, 52.321274386407083 ], [ 11.1054108061044, 52.320589642145372 ], [ 11.10625405360323, 52.319891490438224 ], [ 11.107371571719579, 52.319795155440701 ] ] ] } },
{ "type": "Feature", "properties": { "OBJECTID": 55789, "Kuerzel": ",,Hm/w,,f", "T1_MatBez": "Holozän", "T1_GenTxt": "Anmoor (Moorerde)", "T1_PethTxt": "Gemischtkörnige Sedimente mit 10-30 % organischer Substanz", "T1_System": "Quartär", "T1_Serie": "Holozän", "T1_Stufe": null, "T1_UStufe": null, "T2_Kuerzel": "w,,f", "T2_GenTxt": "fluviatile Ablagerungen", "T2_PethTxt": "Sand und Kies; Schluff", "T1_Blattnu": "CC 3926", "T1_Blattna": "Braunschweig" }, "geometry": { "type": "Polygon", "coordinates": [ [ [ 11.086275893574223, 52.336007144067572 ], [ 11.084616477618674, 52.335043227218037 ], [ 11.084078571713214, 52.334369604824019 ], [ 11.083448004484421, 52.331257276713401 ], [ 11.082511025037896, 52.330051383761607 ], [ 11.082454274397254, 52.328609754182082 ], [ 11.08382075612095, 52.328810363908389 ], [ 11.088477476561694, 52.329950538731453 ], [ 11.089972631997359, 52.330000494969461 ], [ 11.093175798834084, 52.329714574236057 ], [ 11.096034439446791, 52.329744777835714 ], [ 11.096895752369033, 52.329576688963023 ], [ 11.098343855003389, 52.328710560772791 ], [ 11.098938174959345, 52.328016885923127 ], [ 11.099151203820275, 52.327249087873334 ], [ 11.100057791059793, 52.325561136157447 ], [ 11.100783655633256, 52.32501341934217 ], [ 11.101256665808807, 52.324470197330413 ], [ 11.102818447686321, 52.32337728001626 ], [ 11.103558612491904, 52.323364101223589 ], [ 11.10381868826796, 52.32351227176806 ], [ 11.103833183120502, 52.323817618060332 ], [ 11.10254589233579, 52.325516872557586 ], [ 11.102119792207718, 52.326971585207424 ], [ 11.101931908161484, 52.328345656655067 ], [ 11.101249277649316, 52.329728528603297 ], [ 11.09959523764147, 52.331434271341095 ], [ 11.098396025713196, 52.33236789995189 ], [ 11.097047122553228, 52.332697458810394 ], [ 11.096302870020995, 52.332782576051834 ], [ 11.09505831984427, 52.332759714115234 ], [ 11.09166046635125, 52.331723349512018 ], [ 11.089560350432475, 52.331913320946249 ], [ 11.088463864250336, 52.332463024978829 ], [ 11.087275244023269, 52.333549153369304 ], [ 11.086592079739797, 52.33493194597645 ], [ 11.086450834020807, 52.335437788295792 ], [ 11.086275893574223, 52.336007144067572 ] ] ] } },
{ "type": "Feature", "properties": { "OBJECTID": 55629, "Kuerzel": "D,,Lg", "T1_MatBez": "Drenthe-Stadium", "T1_GenTxt": "Grundmoräne (Geschiebemergel, Geschiebelehm)", "T1_PethTxt": "Schluff, tonig, sandig, kiesig; Steine", "T1_System": "Quartär", "T1_Serie": "Pleistozän", "T1_Stufe": "Saale-Kaltzeit", "T1_UStufe": "Drenthe-Stadium", "T2_Kuerzel": null, "T2_GenTxt": null, "T2_PethTxt": null, "T1_Blattnu": "CC 3926", "T1_Blattna": "Braunschweig" }, "geometry": { "type": "Polygon", "coordinates": [ [ [ 11.074420983192214, 52.350911827335551 ], [ 11.074691889746545, 52.35403050866686 ], [ 11.075080480126827, 52.354100085453034 ], [ 11.075714011226655, 52.354619265996462 ], [ 11.07612374158829, 52.355452473617845 ], [ 11.07621679472836, 52.357279959495017 ], [ 11.076494419702884, 52.358034591845538 ], [ 11.077677174478142, 52.359384516169342 ], [ 11.079967982388164, 52.360490218425909 ], [ 11.080726955769471, 52.360629655688363 ], [ 11.083117009688808, 52.361423453589367 ], [ 11.08349100670865, 52.36149325960875 ], [ 11.087149895145288, 52.36272749261714 ], [ 11.088653425901846, 52.362853724168176 ], [ 11.090765888367386, 52.362816361447003 ], [ 11.092226219994252, 52.362183799461214 ], [ 11.093415252368704, 52.361093127173369 ], [ 11.094971216151636, 52.359924030701976 ], [ 11.096948096557739, 52.359506957280658 ], [ 11.098444209187058, 52.359633195306522 ], [ 11.099719931300523, 52.360374538269433 ], [ 11.09948163428585, 52.360612469590528 ], [ 11.10315856679607, 52.36268180270892 ], [ 11.107328841096438, 52.364157983116407 ], [ 11.108668683981913, 52.364390245440916 ], [ 11.116402150759734, 52.365604716687677 ], [ 11.121001242995881, 52.366515458147617 ], [ 11.122145, 52.366786814124112 ], [ 11.122145, 52.364171384045022 ], [ 11.118388811020937, 52.363780432910126 ], [ 11.116132122436944, 52.363335502773388 ], [ 11.115105779353607, 52.36290446359417 ], [ 11.113806739995697, 52.361067123985173 ], [ 11.112699076363027, 52.360161137263411 ], [ 11.109917592047005, 52.359096287735284 ], [ 11.107770595504705, 52.358635757991884 ], [ 11.106538446105159, 52.358194834038954 ], [ 11.105834334865413, 52.357820887209073 ], [ 11.105424486602194, 52.357383268453304 ], [ 11.105949888703403, 52.355621178212537 ], [ 11.105631838828533, 52.354026921529922 ], [ 11.103821518822906, 52.352459247912094 ], [ 11.103385873275869, 52.351168188668964 ], [ 11.103765242218151, 52.348649190465053 ], [ 11.103982077703604, 52.34803861559427 ], [ 11.104576307835238, 52.347416822279719 ], [ 11.105651104387047, 52.346561753201321 ], [ 11.107825857311985, 52.345228647109913 ], [ 11.108295354974116, 52.344609060950042 ], [ 11.10849030318478, 52.343540460403482 ], [ 11.107930195929658, 52.342256131884525 ], [ 11.106009925772117, 52.341067964218233 ], [ 11.10497684467032, 52.340250460058087 ], [ 11.104449388370513, 52.339495846732682 ], [ 11.102625435434559, 52.337627286564931 ], [ 11.10207256582642, 52.336567511422537 ], [ 11.102535023078449, 52.33579976439372 ], [ 11.103858600269113, 52.334935785924763 ], [ 11.106190120061537, 52.334287522629751 ], [ 11.107510196397374, 52.33327525712599 ], [ 11.107851270646529, 52.332734362833534 ], [ 11.10942050402137, 52.33164122741865 ], [ 11.110648282008711, 52.331466493728136 ], [ 11.112103690863909, 52.330680960475163 ], [ 11.112683210056751, 52.329834677171149 ], [ 11.112753450551544, 52.32861549411885 ], [ 11.113332717298526, 52.327764717398814 ], [ 11.114531253970709, 52.326902853475239 ], [ 11.115762779549877, 52.326656090998959 ], [ 11.117214060198235, 52.325866072135582 ], [ 11.117562505411312, 52.325329510878575 ], [ 11.117526030442939, 52.324566150711057 ], [ 11.116731339865513, 52.323591671607097 ], [ 11.114434520900749, 52.322262079409505 ], [ 11.113537039308246, 52.321590529759874 ], [ 11.113123729048764, 52.320690096913147 ], [ 11.111292483180099, 52.318736409031736 ], [ 11.110882425550642, 52.317979724924882 ], [ 11.110952620498468, 52.316989746413206 ], [ 11.111660028655644, 52.316060284098462 ], [ 11.113093065114548, 52.314893127138781 ], [ 11.113113003273376, 52.314864 ], [ 11.09668398205338, 52.314864 ], [ 11.097130471450335, 52.316013555774411 ], [ 11.097056252536824, 52.317079997712767 ], [ 11.095655201696783, 52.318934000193345 ], [ 11.093894521438596, 52.321095472058488 ], [ 11.091962399356111, 52.322347632506506 ], [ 11.088553414917735, 52.323702285104105 ], [ 11.086581701776927, 52.324119137905214 ], [ 11.083304332332249, 52.325471310821314 ], [ 11.082382524491917, 52.327082998467588 ], [ 11.082454274397254, 52.328609754182082 ], [ 11.08382075612095, 52.328810363908389 ], [ 11.088477476561694, 52.329950538731453 ], [ 11.089972631997359, 52.330000494969461 ], [ 11.093175798834084, 52.329714574236057 ], [ 11.096034439446791, 52.329744777835714 ], [ 11.096895752369033, 52.329576688963023 ], [ 11.098343855003389, 52.328710560772791 ], [ 11.098938174959345, 52.328016885923127 ], [ 11.099151203820275, 52.327249087873334 ], [ 11.100057791059793, 52.325561136157447 ], [ 11.100783655633256, 52.32501341934217 ], [ 11.101256665808807, 52.324470197330413 ], [ 11.102818447686321, 52.32337728001626 ], [ 11.103558612491904, 52.323364101223589 ], [ 11.10381868826796, 52.32351227176806 ], [ 11.103833183120502, 52.323817618060332 ], [ 11.10254589233579, 52.325516872557586 ], [ 11.102119792207718, 52.326971585207424 ], [ 11.101931908161484, 52.328345656655067 ], [ 11.101249277649316, 52.329728528603297 ], [ 11.09959523764147, 52.331434271341095 ], [ 11.098396025713196, 52.33236789995189 ], [ 11.097047122553228, 52.332697458810394 ], [ 11.096302870020995, 52.332782576051834 ], [ 11.09505831984427, 52.332759714115234 ], [ 11.092950714868017, 52.33395657364531 ], [ 11.091361972019632, 52.33456895523458 ], [ 11.089687745255681, 52.335003060447221 ], [ 11.086450834020807, 52.335437788295792 ], [ 11.086275893574223, 52.336007144067572 ], [ 11.086464880204364, 52.337527330335973 ], [ 11.086870974796197, 52.338126871082309 ], [ 11.087067325494157, 52.339646926003141 ], [ 11.086359104734596, 52.340499846497806 ], [ 11.08466816399428, 52.341442014853214 ], [ 11.081268261728431, 52.343025485251239 ], [ 11.078729247925789, 52.344742018777524 ], [ 11.077693536087013, 52.346283760007744 ], [ 11.077127205995586, 52.347664437433103 ], [ 11.07488066495684, 52.349915040499475 ], [ 11.074420983192214, 52.350911827335551 ] ], [ [ 11.107371571719579, 52.319795155440701 ], [ 11.10625405360323, 52.319891490438224 ], [ 11.1054108061044, 52.320589642145372 ], [ 11.105571681307424, 52.321274386407083 ], [ 11.107017941770701, 52.323001330811955 ], [ 11.107295961494705, 52.323526686414546 ], [ 11.107133656743882, 52.325435119503013 ], [ 11.107176965633482, 52.326423069463878 ], [ 11.107832628480267, 52.327022580271425 ], [ 11.109242833290979, 52.327986129565886 ], [ 11.109876679227574, 52.328280414297922 ], [ 11.110877049152537, 52.32841534387439 ], [ 11.113157373561069, 52.326702730163369 ], [ 11.113619325479737, 52.325930452204908 ], [ 11.113586534725609, 52.325319828351596 ], [ 11.112795605194533, 52.324268853708276 ], [ 11.110469756995226, 52.322404895212259 ], [ 11.109902579256557, 52.321044298469189 ], [ 11.10964622342013, 52.32074327275707 ], [ 11.108492586917189, 52.320080754663465 ], [ 11.107371571719579, 52.319795155440701 ] ] ] } },
{ "type": "Feature", "properties": { "OBJECTID": 55581, "Kuerzel": "r,R", "T1_MatBez": "Rotliegend", "T1_GenTxt": "vulkanogen", "T1_PethTxt": "Quarz- und Breccien-Porphyr", "T1_System": "Perm", "T1_Serie": "Rotliegend", "T1_Stufe": null, "T1_UStufe": null, "T2_Kuerzel": null, "T2_GenTxt": null, "T2_PethTxt": null, "T1_Blattnu": "CC 3926", "T1_Blattna": "Braunschweig" }, "geometry": { "type": "Polygon", "coordinates": [ [ [ 11.111944946778205, 52.356125370013828 ], [ 11.112216148424112, 52.356578927476555 ], [ 11.113649297283187, 52.357924019923331 ], [ 11.114301602217214, 52.358671863201899 ], [ 11.115581186926693, 52.359565768762145 ], [ 11.116714052080605, 52.35984658767655 ], [ 11.119064938210139, 52.359656138624082 ], [ 11.121785996699733, 52.359148896261459 ], [ 11.122145, 52.359057302918302 ], [ 11.122145, 52.347995898990277 ], [ 11.11953388308995, 52.348677431493151 ], [ 11.114660743603528, 52.350593893034343 ], [ 11.113094697703579, 52.351534232713462 ], [ 11.112628577644799, 52.352378486119008 ], [ 11.111978808984787, 52.35414283279588 ], [ 11.111944946778205, 52.356125370013828 ] ] ] } },
{ "type": "Feature", "properties": { "OBJECTID": 55624, "Kuerzel": "r", "T1_MatBez": "Rotliegend", "T1_GenTxt": null, "T1_PethTxt": null, "T1_System": "Perm", "T1_Serie": "Rotliegend", "T1_Stufe": null, "T1_UStufe": null, "T2_Kuerzel": null, "T2_GenTxt": null, "T2_PethTxt": null, "T1_Blattnu": "CC 3926", "T1_Blattna": "Braunschweig" }, "geometry": { "type": "Polygon", "coordinates": [ [ [ 11.105424486602194, 52.357383268453304 ], [ 11.105834334865413, 52.357820887209073 ], [ 11.106538446105159, 52.358194834038954 ], [ 11.107770595504705, 52.358635757991884 ], [ 11.109917592047005, 52.359096287735284 ], [ 11.112699076363027, 52.360161137263411 ], [ 11.113806739995697, 52.361067123985173 ], [ 11.115105779353607, 52.36290446359417 ], [ 11.116132122436944, 52.363335502773388 ], [ 11.118388811020937, 52.363780432910126 ], [ 11.122145, 52.364171384045022 ], [ 11.122145, 52.359057302918302 ], [ 11.121785996699733, 52.359148896261459 ], [ 11.119064938210139, 52.359656138624082 ], [ 11.116714052080605, 52.35984658767655 ], [ 11.115581186926693, 52.359565768762145 ], [ 11.114301602217214, 52.358671863201899 ], [ 11.113649297283187, 52.357924019923331 ], [ 11.112216148424112, 52.356578927476555 ], [ 11.111944946778205, 52.356125370013828 ], [ 11.111978808984787, 52.35414283279588 ], [ 11.112628577644799, 52.352378486119008 ], [ 11.113094697703579, 52.351534232713462 ], [ 11.105631838828533, 52.354026921529922 ], [ 11.105949888703403, 52.355621178212537 ], [ 11.105424486602194, 52.357383268453304 ] ] ] } },
{ "type": "Feature", "properties": { "OBJECTID": 55155, "Kuerzel": "D,,gf", "T1_MatBez": "Drenthe-Stadium", "T1_GenTxt": "glazifluviatile Ablagerungen", "T1_PethTxt": "Sand und Kies", "T1_System": "Quartär", "T1_Serie": "Pleistozän", "T1_Stufe": "Saale-Kaltzeit", "T1_UStufe": "Drenthe-Stadium", "T2_Kuerzel": null, "T2_GenTxt": null, "T2_PethTxt": null, "T1_Blattnu": "CC 3926", "T1_Blattna": "Braunschweig" }, "geometry": { "type": "Polygon", "coordinates": [ [ [ 11.053834356922863, 52.390379 ], [ 11.08890015912896, 52.390379 ], [ 11.090367140828718, 52.388795105791502 ], [ 11.091229678613626, 52.388550644173677 ], [ 11.092345447149793, 52.388535387964602 ], [ 11.094373926538658, 52.389335365399766 ], [ 11.09516740811887, 52.390379 ], [ 11.122145, 52.390379 ], [ 11.122145, 52.382175087999727 ], [ 11.121886985830791, 52.382229144300219 ], [ 11.120268945614329, 52.382334589394652 ], [ 11.121046489632693, 52.383003747776122 ], [ 11.121079440814128, 52.383690762547666 ], [ 11.120595090953623, 52.383928658207218 ], [ 11.119098089946359, 52.383879112607822 ], [ 11.116834361615856, 52.383232080233562 ], [ 11.115557689660188, 52.382490935749182 ], [ 11.11465187919349, 52.381594835055047 ], [ 11.113041180005798, 52.381700048880845 ], [ 11.110285933442283, 52.381290882077991 ], [ 11.10822106790698, 52.379957022339894 ], [ 11.107062162563535, 52.378908083765545 ], [ 11.105136843689452, 52.377724483015371 ], [ 11.103379820774983, 52.377220967968611 ], [ 11.101013551570727, 52.37726306507485 ], [ 11.100386302137245, 52.377121415308864 ], [ 11.096302694637922, 52.377495040304275 ], [ 11.094068472750825, 52.377534656020266 ], [ 11.090444177552373, 52.377140426202182 ], [ 11.08895097240964, 52.377243233353205 ], [ 11.084478929092072, 52.377245807371224 ], [ 11.081282528847829, 52.378061660496762 ], [ 11.078809334455332, 52.37832990282007 ], [ 11.074946453279212, 52.378092195337921 ], [ 11.074822013425539, 52.378022474415019 ], [ 11.072958069089413, 52.378050693318023 ], [ 11.071112205408191, 52.378465062560892 ], [ 11.069408695451436, 52.379254416871795 ], [ 11.068325595756763, 52.380041876359989 ], [ 11.066489975867938, 52.383192919237281 ], [ 11.066660280720166, 52.384479756056315 ], [ 11.065245823564808, 52.385803287699133 ], [ 11.063912333491123, 52.386738893351193 ], [ 11.063213519823476, 52.387739803270328 ], [ 11.063152553260689, 52.389187976002162 ], [ 11.062315204944863, 52.389660992914386 ], [ 11.061320589222515, 52.389754745950846 ], [ 11.059577790838626, 52.389555932382471 ], [ 11.058201423382073, 52.389575417267373 ], [ 11.056857580362944, 52.390057214270968 ], [ 11.054882860023563, 52.39032076826701 ], [ 11.054127121353217, 52.390181106245954 ], [ 11.053834356922863, 52.390379 ] ] ] } },
{ "type": "Feature", "properties": { "OBJECTID": 55914, "Kuerzel": "ol", "T1_MatBez": "Oligozän", "T1_GenTxt": "marin", "T1_PethTxt": "Ton; glaukonitisch", "T1_System": "Tertiär", "T1_Serie": "Oligozän", "T1_Stufe": null, "T1_UStufe": null, "T2_Kuerzel": null, "T2_GenTxt": null, "T2_PethTxt": null, "T1_Blattnu": "CC 3926", "T1_Blattna": "Braunschweig" }, "geometry": { "type": "Polygon", "coordinates": [ [ [ 11.072408002130924, 52.314864 ], [ 11.073882350252259, 52.315197140962873 ], [ 11.074441098845831, 52.314864 ], [ 11.072408002130924, 52.314864 ] ] ] } },
{ "type": "Feature", "properties": { "OBJECTID": 54882, "Kuerzel": "D,,Lg", "T1_MatBez": "Drenthe-Stadium", "T1_GenTxt": "Grundmoräne (Geschiebemergel, Geschiebelehm)", "T1_PethTxt": "Schluff, tonig, sandig, kiesig; Steine", "T1_System": "Quartär", "T1_Serie": "Pleistozän", "T1_Stufe": "Saale-Kaltzeit", "T1_UStufe": "Drenthe-Stadium", "T2_Kuerzel": null, "T2_GenTxt": null, "T2_PethTxt": null, "T1_Blattnu": "CC 3926", "T1_Blattna": "Braunschweig" }, "geometry": { "type": "Polygon", "coordinates": [ [ [ 11.024947, 52.314864 ], [ 11.024947, 52.316092834044746 ], [ 11.027292292630003, 52.314864 ], [ 11.024947, 52.314864 ] ] ] } },
{ "type": "Feature", "properties": { "OBJECTID": 55867, "Kuerzel": "w,,f", "T1_MatBez": "Weichsel-Kaltzeit", "T1_GenTxt": "fluviatile Ablagerungen", "T1_PethTxt": "Sand und Kies; Schluff", "T1_System": "Quartär", "T1_Serie": "Pleistozän", "T1_Stufe": "Weichsel-Kaltzeit", "T1_UStufe": null, "T2_Kuerzel": null, "T2_GenTxt": null, "T2_PethTxt": null, "T1_Blattnu": "CC 3926", "T1_Blattna": "Braunschweig" }, "geometry": { "type": "Polygon", "coordinates": [ [ [ 11.068299226215718, 52.314864 ], [ 11.068932449137778, 52.315589555659088 ], [ 11.068992909041619, 52.316806418357857 ], [ 11.068654522054411, 52.317648261849953 ], [ 11.06856924140614, 52.318413765662804 ], [ 11.069227421629341, 52.319238152653881 ], [ 11.07176507473069, 52.320339684193854 ], [ 11.073302347479981, 52.321454230310806 ], [ 11.074473278030974, 52.322575191905834 ], [ 11.075754674752213, 52.323469492490325 ], [ 11.076882828341146, 52.323831665653422 ], [ 11.079623329167541, 52.323931755237254 ], [ 11.082983602946531, 52.32395344086941 ], [ 11.083716531808218, 52.323864112251037 ], [ 11.084695256778122, 52.323464837526451 ], [ 11.088214882409073, 52.321654428556762 ], [ 11.090011176512068, 52.320553041304045 ], [ 11.08866256532716, 52.320882501869413 ], [ 11.086203660628627, 52.321307962822949 ], [ 11.084715844973667, 52.32132973828196 ], [ 11.082961585093569, 52.320753972617794 ], [ 11.081576746498364, 52.320625584116669 ], [ 11.079356357873792, 52.320664693783762 ], [ 11.07760521784143, 52.320466305370608 ], [ 11.076323696760895, 52.31972483004261 ], [ 11.075523023924475, 52.31844457899637 ], [ 11.074145759591968, 52.31549811964846 ], [ 11.073882350252259, 52.315197140962873 ], [ 11.072408002130924, 52.314864 ], [ 11.068299226215718, 52.314864 ] ] ] } },
{ "type": "Feature", "properties": { "OBJECTID": 55881, "Kuerzel": "so", "T1_MatBez": "Oberer Buntsandstein", "T1_GenTxt": "marin; salinar", "T1_PethTxt": "Tonstein, Schluffstein, Salze", "T1_System": "Trias", "T1_Serie": "Buntsandstein", "T1_Stufe": "Oberer Buntsandstein", "T1_UStufe": null, "T2_Kuerzel": null, "T2_GenTxt": null, "T2_PethTxt": null, "T1_Blattnu": "CC 3926", "T1_Blattna": "Braunschweig" }, "geometry": { "type": "Polygon", "coordinates": [ [ [ 11.066529623552153, 52.319968498586206 ], [ 11.065045494411347, 52.320147256935378 ], [ 11.060087857414787, 52.320386630415229 ], [ 11.059108999221507, 52.320628406651721 ], [ 11.05850407480286, 52.320868153822168 ], [ 11.057781531266436, 52.321339149040043 ], [ 11.057572107292513, 52.319513670710649 ], [ 11.058287622154731, 52.318970892281833 ], [ 11.060369765735443, 52.318246982736568 ], [ 11.063078225142105, 52.317745793909211 ], [ 11.064184693929167, 52.317726462072471 ], [ 11.064722091210752, 52.318400183911677 ], [ 11.066529623552153, 52.319968498586206 ] ] ] } },
{ "type": "Feature", "properties": { "OBJECTID": 55796, "Kuerzel": "mu", "T1_MatBez": "Unterer Muschelkalk", "T1_GenTxt": "marin", "T1_PethTxt": "Kalkstein", "T1_System": "Trias", "T1_Serie": "Muschelkalk", "T1_Stufe": "Unterer Muschelkalk", "T1_UStufe": null, "T2_Kuerzel": null, "T2_GenTxt": null, "T2_PethTxt": null, "T1_Blattnu": "CC 3926", "T1_Blattna": "Braunschweig" }, "geometry": { "type": "Polygon", "coordinates": [ [ [ 11.027379477248926, 52.335563034340794 ], [ 11.030328664617068, 52.334680967327138 ], [ 11.033362589576811, 52.333329975340973 ], [ 11.034937528476071, 52.332161342019312 ], [ 11.036127407751016, 52.331075725696863 ], [ 11.037320429595026, 52.330219244006429 ], [ 11.038805168375646, 52.329964425767947 ], [ 11.040414044639927, 52.329936646503512 ], [ 11.041300203024383, 52.330303339229886 ], [ 11.04351322282672, 52.332399798347389 ], [ 11.045122184199391, 52.332371954044028 ], [ 11.045738052865131, 52.332284888999681 ], [ 11.047941969918252, 52.331559095632606 ], [ 11.049515923842552, 52.330695884810815 ], [ 11.052365198704175, 52.327752176154654 ], [ 11.053419323525844, 52.326439538052611 ], [ 11.053804648281718, 52.32414980492937 ], [ 11.05439220107365, 52.323375579396988 ], [ 11.057781531266436, 52.321339149040043 ], [ 11.057572107292513, 52.319513670710649 ], [ 11.058287622154731, 52.318970892281833 ], [ 11.060369765735443, 52.318246982736568 ], [ 11.063078225142105, 52.317745793909211 ], [ 11.064184693929167, 52.317726462072471 ], [ 11.063811798433701, 52.314915131292629 ], [ 11.063773190920847, 52.314864 ], [ 11.039918545573185, 52.314864 ], [ 11.039275227786982, 52.315790733144048 ], [ 11.036931447474803, 52.318725413817504 ], [ 11.036122027886208, 52.32026288856045 ], [ 11.035130418844227, 52.322945011683323 ], [ 11.035193156867582, 52.324391048024673 ], [ 11.034750829452239, 52.325540182561284 ], [ 11.033329059090439, 52.327164582736671 ], [ 11.031779904381084, 52.328332751915788 ], [ 11.031537165251418, 52.328638035312736 ], [ 11.030938811798404, 52.329106727314162 ], [ 11.029673712603055, 52.331033988915735 ], [ 11.027379477248926, 52.335563034340794 ] ] ] } },
{ "type": "Feature", "properties": { "OBJECTID": 55795, "Kuerzel": "mm", "T1_MatBez": "Mittlerer Muschelkalk", "T1_GenTxt": "marin - brackisch", "T1_PethTxt": "Mergelstein, dolomitisch, Gips", "T1_System": "Trias", "T1_Serie": "Muschelkalk", "T1_Stufe": "Mittlerer Muschelkalk", "T1_UStufe": null, "T2_Kuerzel": null, "T2_GenTxt": null, "T2_PethTxt": null, "T1_Blattnu": "CC 3926", "T1_Blattna": "Braunschweig" }, "geometry": { "type": "Polygon", "coordinates": [ [ [ 11.024947, 52.333322338536505 ], [ 11.024947, 52.335604724324227 ], [ 11.027379477248926, 52.335563034340794 ], [ 11.029673712603055, 52.331033988915735 ], [ 11.030938811798404, 52.329106727314162 ], [ 11.031537165251418, 52.328638035312736 ], [ 11.031779904381084, 52.328332751915788 ], [ 11.033329059090439, 52.327164582736671 ], [ 11.034750829452239, 52.325540182561284 ], [ 11.035193156867582, 52.324391048024673 ], [ 11.035130418844227, 52.322945011683323 ], [ 11.036122027886208, 52.32026288856045 ], [ 11.036931447474803, 52.318725413817504 ], [ 11.039275227786982, 52.315790733144048 ], [ 11.039918545573185, 52.314864 ], [ 11.038795003427117, 52.314864 ], [ 11.038164818374085, 52.315962701025576 ], [ 11.034381749894376, 52.320216474117743 ], [ 11.032677816120497, 52.323441151613316 ], [ 11.030221558197468, 52.327060737266194 ], [ 11.027655676790069, 52.330457442305047 ], [ 11.024947, 52.333322338536505 ] ] ] } },
{ "type": "Feature", "properties": { "OBJECTID": 55772, "Kuerzel": "ko", "T1_MatBez": "Oberer Keuper", "T1_GenTxt": "limnisch-fluviatil bis marin-brackisch", "T1_PethTxt": "Wechsel Sandstein / Quarzit / Tonstein", "T1_System": "Trias", "T1_Serie": "Keuper", "T1_Stufe": "Oberer Keuper", "T1_UStufe": null, "T2_Kuerzel": null, "T2_GenTxt": null, "T2_PethTxt": null, "T1_Blattnu": "CC 3926", "T1_Blattna": "Braunschweig" }, "geometry": { "type": "Polygon", "coordinates": [ [ [ 11.024947, 52.316092834044746 ], [ 11.024947, 52.327406103667855 ], [ 11.02538071795956, 52.327067437890214 ], [ 11.027533253994422, 52.324976684980975 ], [ 11.028698667446626, 52.323356758344595 ], [ 11.031281895733969, 52.320188928595883 ], [ 11.035940782542495, 52.316077458875661 ], [ 11.036876501912712, 52.314864 ], [ 11.027292292630001, 52.314864 ], [ 11.024947, 52.316092834044746 ] ] ] } },
{ "type": "Feature", "properties": { "OBJECTID": 55740, "Kuerzel": "mo", "T1_MatBez": "Oberer Muschelkalk", "T1_GenTxt": "marin", "T1_PethTxt": null, "T1_System": "Trias", "T1_Serie": "Muschelkalk", "T1_Stufe": "Oberer Muschelkalk", "T1_UStufe": null, "T2_Kuerzel": null, "T2_GenTxt": null, "T2_PethTxt": null, "T1_Blattnu": "CC 3926", "T1_Blattna": "Braunschweig" }, "geometry": { "type": "Polygon", "coordinates": [ [ [ 11.024947, 52.327406103667855 ], [ 11.024947, 52.333322338536505 ], [ 11.027655676790069, 52.330457442305047 ], [ 11.030221558197468, 52.327060737266194 ], [ 11.032677816120497, 52.323441151613316 ], [ 11.034381749894376, 52.320216474117743 ], [ 11.038164818374085, 52.315962701025576 ], [ 11.038795003427117, 52.314864 ], [ 11.036876501912712, 52.314864 ], [ 11.035940782542495, 52.316077458875661 ], [ 11.031281895733969, 52.320188928595883 ], [ 11.028698667446626, 52.323356758344595 ], [ 11.027533253994422, 52.324976684980975 ], [ 11.02538071795956, 52.327067437890214 ], [ 11.024947, 52.327406103667855 ] ] ] } },
{ "type": "Feature", "properties": { "OBJECTID": 55254, "Kuerzel": "D,,gf", "T1_MatBez": "Drenthe-Stadium", "T1_GenTxt": "glazifluviatile Ablagerungen", "T1_PethTxt": "Sand und Kies", "T1_System": "Quartär", "T1_Serie": "Pleistozän", "T1_Stufe": "Saale-Kaltzeit", "T1_UStufe": "Drenthe-Stadium", "T2_Kuerzel": null, "T2_GenTxt": null, "T2_PethTxt": null, "T1_Blattnu": "CC 3926", "T1_Blattna": "Braunschweig" }, "geometry": { "type": "Polygon", "coordinates": [ [ [ 11.086450834020807, 52.335437788295792 ], [ 11.086592079739797, 52.33493194597645 ], [ 11.087275244023269, 52.333549153369304 ], [ 11.088463864250336, 52.332463024978829 ], [ 11.089560350432475, 52.331913320946249 ], [ 11.09166046635125, 52.331723349512018 ], [ 11.09505831984427, 52.332759714115234 ], [ 11.092950714868017, 52.33395657364531 ], [ 11.091361972019632, 52.33456895523458 ], [ 11.089687745255681, 52.335003060447221 ], [ 11.086450834020807, 52.335437788295792 ] ] ] } },
{ "type": "Feature", "properties": { "OBJECTID": 55678, "Kuerzel": "w,,f", "T1_MatBez": "Weichsel-Kaltzeit", "T1_GenTxt": "fluviatile Ablagerungen", "T1_PethTxt": "Sand und Kies; Schluff", "T1_System": "Quartär", "T1_Serie": "Pleistozän", "T1_Stufe": "Weichsel-Kaltzeit", "T1_UStufe": null, "T2_Kuerzel": null, "T2_GenTxt": null, "T2_PethTxt": null, "T1_Blattnu": "CC 3926", "T1_Blattna": "Braunschweig" }, "geometry": { "type": "Polygon", "coordinates": [ [ [ 11.062930091551184, 52.353634251492025 ], [ 11.062258223670575, 52.353785299830086 ], [ 11.060940491444404, 52.354725099981401 ], [ 11.060711917600553, 52.355412196876109 ], [ 11.059081063147614, 52.354829426668523 ], [ 11.057931052391314, 52.354089954084557 ], [ 11.057663967325638, 52.3537126036749 ], [ 11.05732957291201, 52.351965709984547 ], [ 11.056030307694014, 52.35061761326142 ], [ 11.054713162051042, 52.349040612159719 ], [ 11.054678069321787, 52.348205310651828 ], [ 11.055144556913383, 52.347662393613788 ], [ 11.057438465059523, 52.346175350154816 ], [ 11.057891033745237, 52.345255155576844 ], [ 11.05795569910366, 52.34388331303326 ], [ 11.058301008139763, 52.34341889353815 ], [ 11.059875171276868, 52.342555543105433 ], [ 11.05965866860161, 52.340424594774035 ], [ 11.060840934249638, 52.339262460105523 ], [ 11.063127108745885, 52.337622635190606 ], [ 11.064718871132694, 52.337064513684574 ], [ 11.067182428196876, 52.336715826492338 ], [ 11.069656951822518, 52.336524191166539 ], [ 11.072494485373383, 52.336016037749829 ], [ 11.07482632876809, 52.335363896996597 ], [ 11.076616770108984, 52.334119010596275 ], [ 11.078347439405002, 52.336371611751176 ], [ 11.078390042193028, 52.337435979482883 ], [ 11.077364966520317, 52.339435937687448 ], [ 11.074677396640247, 52.342835814608549 ], [ 11.071775104860858, 52.344634977112207 ], [ 11.07031494846618, 52.345343687439829 ], [ 11.068758826309747, 52.346512463259749 ], [ 11.067535122245621, 52.348201216662133 ], [ 11.066637282722075, 52.347596732901586 ], [ 11.065858777276727, 52.347268793827119 ], [ 11.064895503386582, 52.347069914404052 ], [ 11.064036661732548, 52.347143346569972 ], [ 11.063039216242149, 52.347470865918218 ], [ 11.062216766014251, 52.348168336180116 ], [ 11.06155881195472, 52.349325827949841 ], [ 11.06166983074214, 52.35068561757214 ], [ 11.062104750775926, 52.352381309959142 ], [ 11.062930091551184, 52.353634251492025 ] ] ] } },
{ "type": "Feature", "properties": { "OBJECTID": 55619, "Kuerzel": "D,,Lg", "T1_MatBez": "Drenthe-Stadium", "T1_GenTxt": "Grundmoräne (Geschiebemergel, Geschiebelehm)", "T1_PethTxt": "Schluff, tonig, sandig, kiesig; Steine", "T1_System": "Quartär", "T1_Serie": "Pleistozän", "T1_Stufe": "Saale-Kaltzeit", "T1_UStufe": "Drenthe-Stadium", "T2_Kuerzel": null, "T2_GenTxt": null, "T2_PethTxt": null, "T1_Blattnu": "CC 3926", "T1_Blattna": "Braunschweig" }, "geometry": { "type": "Polygon", "coordinates": [ [ [ 11.024947, 52.335604724324227 ], [ 11.024947, 52.352713351669969 ], [ 11.026273209889153, 52.352035041403838 ], [ 11.027945511323139, 52.350330037661593 ], [ 11.029332579676733, 52.348328802139228 ], [ 11.030651176956589, 52.34731743630855 ], [ 11.032585964352627, 52.346142653798609 ], [ 11.040460640605801, 52.344406994363901 ], [ 11.043060162173838, 52.344209266149662 ], [ 11.044562812435027, 52.344412471642507 ], [ 11.047959335800623, 52.345423247276166 ], [ 11.049878060619656, 52.346607884118789 ], [ 11.051173950018041, 52.347731398661537 ], [ 11.052590817978338, 52.348771902466133 ], [ 11.053342049050672, 52.348988049876723 ], [ 11.054713162051042, 52.349040612159719 ], [ 11.054678069321787, 52.348205310651828 ], [ 11.055144556913383, 52.347662393613788 ], [ 11.057438465059523, 52.346175350154816 ], [ 11.057891033745237, 52.345255155576844 ], [ 11.05795569910366, 52.34388331303326 ], [ 11.058301008139763, 52.34341889353815 ], [ 11.059875171276868, 52.342555543105433 ], [ 11.05965866860161, 52.340424594774035 ], [ 11.060840934249638, 52.339262460105523 ], [ 11.063127108745885, 52.337622635190606 ], [ 11.064718871132694, 52.337064513684574 ], [ 11.067182428196876, 52.336715826492338 ], [ 11.069656951822518, 52.336524191166539 ], [ 11.072494485373383, 52.336016037749829 ], [ 11.07482632876809, 52.335363896996597 ], [ 11.076616770108984, 52.334119010596275 ], [ 11.074562361634896, 52.329962048075267 ], [ 11.073540705932675, 52.326627335107567 ], [ 11.072345098217518, 52.324823682990768 ], [ 11.070903584744402, 52.323249039350401 ], [ 11.067298437436316, 52.320413451181125 ], [ 11.066529623552153, 52.319968498586206 ], [ 11.065045494411347, 52.320147256935378 ], [ 11.060087857414787, 52.320386630415229 ], [ 11.059108999221507, 52.320628406651721 ], [ 11.05850407480286, 52.320868153822168 ], [ 11.057781531266436, 52.321339149040043 ], [ 11.05439220107365, 52.323375579396988 ], [ 11.053804648281718, 52.32414980492937 ], [ 11.053419323525844, 52.326439538052611 ], [ 11.052365198704175, 52.327752176154654 ], [ 11.049515923842552, 52.330695884810815 ], [ 11.047941969918252, 52.331559095632606 ], [ 11.045738052865131, 52.332284888999681 ], [ 11.045122184199391, 52.332371954044028 ], [ 11.04351322282672, 52.332399798347389 ], [ 11.041300203024383, 52.330303339229886 ], [ 11.040414044639927, 52.329936646503512 ], [ 11.038805168375646, 52.329964425767947 ], [ 11.037320429595026, 52.330219244006429 ], [ 11.036127407751016, 52.331075725696863 ], [ 11.034937528476071, 52.332161342019312 ], [ 11.033362589576811, 52.333329975340973 ], [ 11.030328664617068, 52.334680967327138 ], [ 11.027379477248926, 52.335563034340794 ], [ 11.024947, 52.335604724324227 ] ] ] } },
{ "type": "Feature", "properties": { "OBJECTID": 55687, "Kuerzel": "D,,gf", "T1_MatBez": "Drenthe-Stadium", "T1_GenTxt": "glazifluviatile Ablagerungen", "T1_PethTxt": "Sand und Kies", "T1_System": "Quartär", "T1_Serie": "Pleistozän", "T1_Stufe": "Saale-Kaltzeit", "T1_UStufe": "Drenthe-Stadium", "T2_Kuerzel": null, "T2_GenTxt": null, "T2_PethTxt": null, "T1_Blattnu": "CC 3926", "T1_Blattna": "Braunschweig" }, "geometry": { "type": "Polygon", "coordinates": [ [ [ 11.067535122245621, 52.348201216662133 ], [ 11.066415031206878, 52.349753320035411 ], [ 11.06562810278376, 52.351290599751849 ], [ 11.064331450115915, 52.352836779816307 ], [ 11.062930091551184, 52.353634251492025 ], [ 11.062104750775926, 52.352381309959142 ], [ 11.06166983074214, 52.35068561757214 ], [ 11.06155881195472, 52.349325827949841 ], [ 11.062216766014251, 52.348168336180116 ], [ 11.063039216242149, 52.347470865918218 ], [ 11.064036661732548, 52.347143346569972 ], [ 11.064895503386582, 52.347069914404052 ], [ 11.065858777276727, 52.347268793827119 ], [ 11.066637282722075, 52.347596732901586 ], [ 11.067535122245621, 52.348201216662133 ] ] ] } },
{ "type": "Feature", "properties": { "OBJECTID": 55597, "Kuerzel": ",,Hm/w,,f", "T1_MatBez": "Holozän", "T1_GenTxt": "Anmoor (Moorerde)", "T1_PethTxt": "Gemischtkörnige Sedimente mit 10-30 % organischer Substanz", "T1_System": "Quartär", "T1_Serie": "Holozän", "T1_Stufe": null, "T1_UStufe": null, "T2_Kuerzel": "w,,f", "T2_GenTxt": "fluviatile Ablagerungen", "T2_PethTxt": "Sand und Kies; Schluff", "T1_Blattnu": "CC 3926", "T1_Blattna": "Braunschweig" }, "geometry": { "type": "Polygon", "coordinates": [ [ [ 11.089819560899173, 52.374333643211344 ], [ 11.088707899348499, 52.374506099988885 ], [ 11.085600514686325, 52.374556493053767 ], [ 11.082831711187195, 52.373922221242026 ], [ 11.08078957331942, 52.372812192823744 ], [ 11.077561040178251, 52.370280375378428 ], [ 11.076117905659947, 52.368629424896135 ], [ 11.075056159311835, 52.367124560770527 ], [ 11.071793007623521, 52.363523588856864 ], [ 11.070432072364454, 52.361188017298886 ], [ 11.070115349916129, 52.359517249506041 ], [ 11.070645563109714, 52.357984441833018 ], [ 11.071482893866934, 52.356976556804277 ], [ 11.072797403119573, 52.355892882732583 ], [ 11.074691889746545, 52.35403050866686 ], [ 11.07498029145907, 52.354937757530742 ], [ 11.075051647902166, 52.356460022716576 ], [ 11.074955774038868, 52.356920109684744 ], [ 11.073837593814144, 52.359451973381269 ], [ 11.074019033503983, 52.360895904794532 ], [ 11.07469952768956, 52.362101872340887 ], [ 11.075216022200159, 52.362627605239226 ], [ 11.076113864888086, 52.363223036148497 ], [ 11.077008023236461, 52.363661230727892 ], [ 11.079402136947076, 52.364383125444725 ], [ 11.080424851226995, 52.364899926352706 ], [ 11.080813154883055, 52.365351492070836 ], [ 11.080973621685978, 52.366031776812328 ], [ 11.079648308562417, 52.367043824237967 ], [ 11.079199569908907, 52.368040434016216 ], [ 11.079235442896875, 52.36880380814042 ], [ 11.080418575881573, 52.370153697041076 ], [ 11.083611446595933, 52.372002955590233 ], [ 11.084997618928503, 52.372436906796551 ], [ 11.085892263633111, 52.372879520124457 ], [ 11.089819560899173, 52.374333643211344 ] ] ] } },
{ "type": "Feature", "properties": { "OBJECTID": 55534, "Kuerzel": "D,,gf", "T1_MatBez": "Drenthe-Stadium", "T1_GenTxt": "glazifluviatile Ablagerungen", "T1_PethTxt": "Sand und Kies", "T1_System": "Quartär", "T1_Serie": "Pleistozän", "T1_Stufe": "Saale-Kaltzeit", "T1_UStufe": "Drenthe-Stadium", "T2_Kuerzel": null, "T2_GenTxt": null, "T2_PethTxt": null, "T1_Blattnu": "CC 3926", "T1_Blattna": "Braunschweig" }, "geometry": { "type": "Polygon", "coordinates": [ [ [ 11.024947, 52.352713351669969 ], [ 11.024947, 52.377575586048657 ], [ 11.025926867927771, 52.377100196870359 ], [ 11.026272765116435, 52.37663586651486 ], [ 11.026996910278042, 52.376093141657734 ], [ 11.02697242244871, 52.375558762067961 ], [ 11.02767187680271, 52.374558056401384 ], [ 11.028537830463726, 52.374466793752305 ], [ 11.029421290791982, 52.374757224281197 ], [ 11.031049819149652, 52.37488204370112 ], [ 11.033512404280602, 52.37438129090534 ], [ 11.037900376656394, 52.372481082798274 ], [ 11.041225100044253, 52.371812495076135 ], [ 11.043576843632872, 52.371699939661973 ], [ 11.04506278763794, 52.371521431208798 ], [ 11.045903999899402, 52.370976562234745 ], [ 11.045993417093833, 52.370211011698579 ], [ 11.044149236238212, 52.367879019689163 ], [ 11.042939416369148, 52.365846126003255 ], [ 11.040791477329238, 52.365038348310129 ], [ 11.038903384572505, 52.364769838424067 ], [ 11.037665166455914, 52.364265385900417 ], [ 11.036122305727522, 52.363042616028295 ], [ 11.036273143296842, 52.362491733206326 ], [ 11.036869144509796, 52.362202823848996 ], [ 11.038333168399491, 52.362271952593431 ], [ 11.040016950545384, 52.362490070614264 ], [ 11.041644784377127, 52.362529365683308 ], [ 11.043515041640459, 52.362254350281056 ], [ 11.050530099642209, 52.360766595976592 ], [ 11.051769804554665, 52.360668674266471 ], [ 11.052154496374161, 52.360891194015473 ], [ 11.05204008802642, 52.361194288464844 ], [ 11.050126657425894, 52.36267461657178 ], [ 11.049313667294811, 52.363983030573891 ], [ 11.049370231443872, 52.365204453865694 ], [ 11.05082633763586, 52.36708020829164 ], [ 11.050989711015568, 52.368070575796004 ], [ 11.050651007384849, 52.368683161926853 ], [ 11.048861666199697, 52.370314112581489 ], [ 11.047093179810982, 52.372398580905298 ], [ 11.046248357557074, 52.373024414888619 ], [ 11.044409288867557, 52.37358655507213 ], [ 11.041932926353109, 52.37370577430061 ], [ 11.040575145967008, 52.37395842923852 ], [ 11.039224387629679, 52.374363748133518 ], [ 11.038254476550136, 52.374987189411968 ], [ 11.036381963701341, 52.377378886197413 ], [ 11.036295728831266, 52.378297171456907 ], [ 11.036365816606736, 52.379819469300422 ], [ 11.036015971632482, 52.380355803365511 ], [ 11.034935705492874, 52.381138410073511 ], [ 11.03383062056572, 52.381382140726075 ], [ 11.029739028584462, 52.381681689566598 ], [ 11.028758858883629, 52.381927720662524 ], [ 11.027889090950081, 52.382019050180197 ], [ 11.024947, 52.382823144810757 ], [ 11.024947, 52.390379 ], [ 11.026656876852826, 52.390379 ], [ 11.026779529990149, 52.390338699542205 ], [ 11.028148399256622, 52.390315215706046 ], [ 11.028491552746592, 52.390379 ], [ 11.035812542053215, 52.390379 ], [ 11.037195752574616, 52.389705696113282 ], [ 11.038646977135723, 52.388840271692665 ], [ 11.040555356268923, 52.387059125177409 ], [ 11.042249255892617, 52.385964759360121 ], [ 11.043831935110472, 52.385326196873358 ], [ 11.045767862965699, 52.384227593504065 ], [ 11.04882661722988, 52.383033094280194 ], [ 11.050398685760047, 52.382169920999381 ], [ 11.051339658332994, 52.381160389437326 ], [ 11.053393582199025, 52.379605702650714 ], [ 11.055061805766716, 52.378129593134055 ], [ 11.056113699053054, 52.376587785162592 ], [ 11.056912390765293, 52.37505037444096 ], [ 11.057557987178944, 52.372985316403117 ], [ 11.058256824237386, 52.371908036359727 ], [ 11.062016337464282, 52.369784174303845 ], [ 11.063067689300087, 52.368318710066795 ], [ 11.063163929943945, 52.365422803688624 ], [ 11.063478375819264, 52.363821892608399 ], [ 11.063709759198998, 52.363588649584671 ], [ 11.063649243433641, 52.362290899600175 ], [ 11.063221769370312, 52.361309653926028 ], [ 11.062149970661023, 52.359575648922089 ], [ 11.061780222273256, 52.356917074491705 ], [ 11.060711917600553, 52.355412196876109 ], [ 11.059081063147614, 52.354829426668523 ], [ 11.057931052391314, 52.354089954084557 ], [ 11.057663967325638, 52.3537126036749 ], [ 11.05732957291201, 52.351965709984547 ], [ 11.056030307694014, 52.35061761326142 ], [ 11.054713162051042, 52.349040612159719 ], [ 11.053342049050672, 52.348988049876723 ], [ 11.052590817978338, 52.348771902466133 ], [ 11.051173950018041, 52.347731398661537 ], [ 11.049878060619656, 52.346607884118789 ], [ 11.047959335800623, 52.345423247276166 ], [ 11.044562812435027, 52.344412471642507 ], [ 11.043060162173838, 52.344209266149662 ], [ 11.040460640605801, 52.344406994363901 ], [ 11.032585964352627, 52.346142653798609 ], [ 11.030651176956589, 52.34731743630855 ], [ 11.029332579676733, 52.348328802139228 ], [ 11.027945511323139, 52.350330037661593 ], [ 11.026273209889153, 52.352035041403838 ], [ 11.024947, 52.352713351669969 ] ] ] } },
{ "type": "Feature", "properties": { "OBJECTID": 55566, "Kuerzel": "w,,f", "T1_MatBez": "Weichsel-Kaltzeit", "T1_GenTxt": "fluviatile Ablagerungen", "T1_PethTxt": "Sand und Kies; Schluff", "T1_System": "Quartär", "T1_Serie": "Pleistozän", "T1_Stufe": "Weichsel-Kaltzeit", "T1_UStufe": null, "T2_Kuerzel": null, "T2_GenTxt": null, "T2_PethTxt": null, "T1_Blattnu": "CC 3926", "T1_Blattna": "Braunschweig" }, "geometry": { "type": "Polygon", "coordinates": [ [ [ 11.024947, 52.377575586048657 ], [ 11.024947, 52.378731278380421 ], [ 11.025002316632657, 52.378639547787557 ], [ 11.026439642930084, 52.377473403278955 ], [ 11.028224262006498, 52.376436104367379 ], [ 11.029663940277896, 52.375804679615989 ], [ 11.030395450009683, 52.37582357162384 ], [ 11.030702058242049, 52.376344114006727 ], [ 11.030653961302955, 52.377135904832343 ], [ 11.029666171653057, 52.378653909684722 ], [ 11.026442257313549, 52.38169782312174 ], [ 11.024947, 52.382613243646247 ], [ 11.024947, 52.382823144810757 ], [ 11.027889090950081, 52.382019050180197 ], [ 11.028758858883629, 52.381927720662524 ], [ 11.029739028584462, 52.381681689566598 ], [ 11.03383062056572, 52.381382140726075 ], [ 11.034935705492874, 52.381138410073511 ], [ 11.036015971632482, 52.380355803365511 ], [ 11.036365816606736, 52.379819469300422 ], [ 11.036295728831266, 52.378297171456907 ], [ 11.036381963701341, 52.377378886197413 ], [ 11.038254476550136, 52.374987189411968 ], [ 11.039224387629679, 52.374363748133518 ], [ 11.040575145967008, 52.37395842923852 ], [ 11.041932926353109, 52.37370577430061 ], [ 11.044409288867557, 52.37358655507213 ], [ 11.046248357557074, 52.373024414888619 ], [ 11.047093179810982, 52.372398580905298 ], [ 11.048861666199697, 52.370314112581489 ], [ 11.050651007384849, 52.368683161926853 ], [ 11.050989711015568, 52.368070575796004 ], [ 11.05082633763586, 52.36708020829164 ], [ 11.049370231443872, 52.365204453865694 ], [ 11.049313667294811, 52.363983030573891 ], [ 11.050126657425894, 52.36267461657178 ], [ 11.05204008802642, 52.361194288464844 ], [ 11.052154496374161, 52.360891194015473 ], [ 11.051769804554665, 52.360668674266471 ], [ 11.050530099642209, 52.360766595976592 ], [ 11.043515041640459, 52.362254350281056 ], [ 11.041644784377127, 52.362529365683308 ], [ 11.040016950545384, 52.362490070614264 ], [ 11.038333168399491, 52.362271952593431 ], [ 11.036869144509796, 52.362202823848996 ], [ 11.036273143296842, 52.362491733206326 ], [ 11.036122305727522, 52.363042616028295 ], [ 11.037665166455914, 52.364265385900417 ], [ 11.038903384572505, 52.364769838424067 ], [ 11.040791477329238, 52.365038348310129 ], [ 11.042939416369148, 52.365846126003255 ], [ 11.044149236238212, 52.367879019689163 ], [ 11.045993417093833, 52.370211011698579 ], [ 11.045903999899402, 52.370976562234745 ], [ 11.04506278763794, 52.371521431208798 ], [ 11.043576843632872, 52.371699939661973 ], [ 11.041225100044253, 52.371812495076135 ], [ 11.037900376656394, 52.372481082798274 ], [ 11.033512404280602, 52.37438129090534 ], [ 11.031049819149652, 52.37488204370112 ], [ 11.029421290791982, 52.374757224281197 ], [ 11.028537830463726, 52.374466793752305 ], [ 11.02767187680271, 52.374558056401384 ], [ 11.02697242244871, 52.375558762067961 ], [ 11.026996910278042, 52.376093141657734 ], [ 11.026272765116435, 52.37663586651486 ], [ 11.025926867927771, 52.377100196870359 ], [ 11.024947, 52.377575586048657 ] ] ] } },
{ "type": "Feature", "properties": { "OBJECTID": 55537, "Kuerzel": "D,,Lg", "T1_MatBez": "Drenthe-Stadium", "T1_GenTxt": "Grundmoräne (Geschiebemergel, Geschiebelehm)", "T1_PethTxt": "Schluff, tonig, sandig, kiesig; Steine", "T1_System": "Quartär", "T1_Serie": "Pleistozän", "T1_Stufe": "Saale-Kaltzeit", "T1_UStufe": "Drenthe-Stadium", "T2_Kuerzel": null, "T2_GenTxt": null, "T2_PethTxt": null, "T1_Blattnu": "CC 3926", "T1_Blattna": "Braunschweig" }, "geometry": { "type": "Polygon", "coordinates": [ [ [ 11.066489975867938, 52.383192919237281 ], [ 11.066660280720166, 52.384479756056315 ], [ 11.065245823564808, 52.385803287699133 ], [ 11.063912333491123, 52.386738893351193 ], [ 11.063213519823476, 52.387739803270328 ], [ 11.063152553260689, 52.389187976002162 ], [ 11.062315204944863, 52.389660992914386 ], [ 11.061320589222515, 52.389754745950846 ], [ 11.059577790838626, 52.389555932382471 ], [ 11.058201423382073, 52.389575417267373 ], [ 11.056857580362944, 52.390057214270968 ], [ 11.054882860023563, 52.39032076826701 ], [ 11.056565631910194, 52.389149989504446 ], [ 11.05798491591019, 52.387448973883807 ], [ 11.05930387615772, 52.386513689523355 ], [ 11.062087643328306, 52.385018038271156 ], [ 11.066489975867938, 52.383192919237281 ] ] ] } },
{ "type": "Feature", "properties": { "OBJECTID": 55526, "Kuerzel": "D,,Lg", "T1_MatBez": "Drenthe-Stadium", "T1_GenTxt": "Grundmoräne (Geschiebemergel, Geschiebelehm)", "T1_PethTxt": "Schluff, tonig, sandig, kiesig; Steine", "T1_System": "Quartär", "T1_Serie": "Pleistozän", "T1_Stufe": "Saale-Kaltzeit", "T1_UStufe": "Drenthe-Stadium", "T2_Kuerzel": null, "T2_GenTxt": null, "T2_PethTxt": null, "T1_Blattnu": "CC 3926", "T1_Blattna": "Braunschweig" }, "geometry": { "type": "Polygon", "coordinates": [ [ [ 11.08890015912896, 52.390379 ], [ 11.09516740811887, 52.390379 ], [ 11.094373926538658, 52.389335365399766 ], [ 11.092345447149793, 52.388535387964602 ], [ 11.091229678613626, 52.388550644173677 ], [ 11.090367140828718, 52.388795105791502 ], [ 11.08890015912896, 52.390379 ] ] ] } },
{ "type": "Feature", "properties": { "OBJECTID": 55636, "Kuerzel": "r", "T1_MatBez": "Rotliegend", "T1_GenTxt": null, "T1_PethTxt": null, "T1_System": "Perm", "T1_Serie": "Rotliegend", "T1_Stufe": null, "T1_UStufe": null, "T2_Kuerzel": null, "T2_GenTxt": null, "T2_PethTxt": null, "T1_Blattnu": "CC 3926", "T1_Blattna": "Braunschweig" }, "geometry": { "type": "Polygon", "coordinates": [ [ [ 11.108668683981913, 52.364390245440916 ], [ 11.107895402919574, 52.365109628259844 ], [ 11.106691909283231, 52.365814205757964 ], [ 11.105323827751995, 52.365914991790078 ], [ 11.103603350025731, 52.366170344093128 ], [ 11.102227956670314, 52.366194823459317 ], [ 11.101098513685541, 52.365832910322467 ], [ 11.097919806106109, 52.364365873528122 ], [ 11.097146558705004, 52.363772888666674 ], [ 11.09720635237127, 52.362401108212531 ], [ 11.097911031951304, 52.361548189302695 ], [ 11.09948163428585, 52.360612469590528 ], [ 11.10315856679607, 52.36268180270892 ], [ 11.107328841096438, 52.364157983116407 ], [ 11.108668683981913, 52.364390245440916 ] ] ] } },
{ "type": "Feature", "properties": { "OBJECTID": 55586, "Kuerzel": "w,,f", "T1_MatBez": "Weichsel-Kaltzeit", "T1_GenTxt": "fluviatile Ablagerungen", "T1_PethTxt": "Sand und Kies; Schluff", "T1_System": "Quartär", "T1_Serie": "Pleistozän", "T1_Stufe": "Weichsel-Kaltzeit", "T1_UStufe": null, "T2_Kuerzel": null, "T2_GenTxt": null, "T2_PethTxt": null, "T1_Blattnu": "CC 3926", "T1_Blattna": "Braunschweig" }, "geometry": { "type": "Polygon", "coordinates": [ [ [ 11.073837593814144, 52.359451973381269 ], [ 11.074019033503983, 52.360895904794532 ], [ 11.07469952768956, 52.362101872340887 ], [ 11.075216022200159, 52.362627605239226 ], [ 11.076113864888086, 52.363223036148497 ], [ 11.077008023236461, 52.363661230727892 ], [ 11.079402136947076, 52.364383125444725 ], [ 11.080424851226995, 52.364899926352706 ], [ 11.080813154883055, 52.365351492070836 ], [ 11.080973621685978, 52.366031776812328 ], [ 11.079648308562417, 52.367043824237967 ], [ 11.079199569908907, 52.368040434016216 ], [ 11.079235442896875, 52.36880380814042 ], [ 11.080418575881573, 52.370153697041076 ], [ 11.083611446595933, 52.372002955590233 ], [ 11.084997618928503, 52.372436906796551 ], [ 11.085892263633111, 52.372879520124457 ], [ 11.089819560899173, 52.374333643211344 ], [ 11.091558332630241, 52.374379278533524 ], [ 11.096191026312448, 52.37506119118553 ], [ 11.09928729973954, 52.374853420523216 ], [ 11.100267118158417, 52.374611301175669 ], [ 11.102251773369815, 52.374499607267843 ], [ 11.102739750660229, 52.374338122695882 ], [ 11.104731685033821, 52.374302658211832 ], [ 11.105476296400479, 52.3744421942137 ], [ 11.107526239314444, 52.375547165215849 ], [ 11.107724681834437, 52.374703217914352 ], [ 11.108576204232161, 52.374081313771136 ], [ 11.109801677476318, 52.37398753196431 ], [ 11.110564426261426, 52.37412221790057 ], [ 11.111312670000983, 52.374414453181302 ], [ 11.113909087830747, 52.376502759087764 ], [ 11.115031588316175, 52.376788275227192 ], [ 11.116891564141692, 52.376678566727691 ], [ 11.117397809285267, 52.37674589689226 ], [ 11.118700569734719, 52.375428225491717 ], [ 11.120006921648544, 52.374110474452927 ], [ 11.121569949866251, 52.373017302187336 ], [ 11.122061499782706, 52.372932073974141 ], [ 11.122145, 52.372905799314992 ], [ 11.122145, 52.368517569753607 ], [ 11.120071243530484, 52.367484913371442 ], [ 11.119062638297398, 52.367273804361311 ], [ 11.118065004295593, 52.367291693227621 ], [ 11.115874951383217, 52.368090446799606 ], [ 11.115621833655776, 52.368247781016208 ], [ 11.114752531383328, 52.368339744476849 ], [ 11.114007995644473, 52.368200266025461 ], [ 11.112093733079961, 52.367088487818528 ], [ 11.110692830195138, 52.366578715893588 ], [ 11.109589027435277, 52.366679324269008 ], [ 11.10579555290346, 52.368036819018599 ], [ 11.103120871183268, 52.369225975591561 ], [ 11.101891976797122, 52.369477044743377 ], [ 11.096900127926643, 52.369107335313366 ], [ 11.095165121643968, 52.369214514757715 ], [ 11.093964814162591, 52.37014810547052 ], [ 11.092896338572444, 52.371308551114069 ], [ 11.09193847863685, 52.37193671833073 ], [ 11.091201046527541, 52.372102573062456 ], [ 11.090460062979941, 52.372115684698031 ], [ 11.08868888122602, 52.371459402709945 ], [ 11.0877869663673, 52.370940538335887 ], [ 11.085445679931198, 52.368546054046348 ], [ 11.084771629963639, 52.367641142322277 ], [ 11.083998287955826, 52.367043580906504 ], [ 11.082818873537434, 52.365617259986415 ], [ 11.082676344958406, 52.365318664415568 ], [ 11.082751032038257, 52.364175833275496 ], [ 11.083334918738458, 52.363401533093722 ], [ 11.083003097210964, 52.361654663352915 ], [ 11.083117009688808, 52.361423453589367 ], [ 11.080726955769471, 52.360629655688363 ], [ 11.079967982388164, 52.360490218425909 ], [ 11.077677174478142, 52.359384516169342 ], [ 11.076494419702884, 52.358034591845538 ], [ 11.07621679472836, 52.357279959495017 ], [ 11.07612374158829, 52.355452473617845 ], [ 11.075714011226655, 52.354619265996462 ], [ 11.075080480126827, 52.354100085453034 ], [ 11.074691889746545, 52.35403050866686 ], [ 11.07498029145907, 52.354937757530742 ], [ 11.075051647902166, 52.356460022716576 ], [ 11.074955774038868, 52.356920109684744 ], [ 11.073837593814144, 52.359451973381269 ] ] ] } },
{ "type": "Feature", "properties": { "OBJECTID": 55608, "Kuerzel": "D,,gf", "T1_MatBez": "Drenthe-Stadium", "T1_GenTxt": "glazifluviatile Ablagerungen", "T1_PethTxt": "Sand und Kies", "T1_System": "Quartär", "T1_Serie": "Pleistozän", "T1_Stufe": "Saale-Kaltzeit", "T1_UStufe": "Drenthe-Stadium", "T2_Kuerzel": null, "T2_GenTxt": null, "T2_PethTxt": null, "T1_Blattnu": "CC 3926", "T1_Blattna": "Braunschweig" }, "geometry": { "type": "Polygon", "coordinates": [ [ [ 11.082676344958406, 52.365318664415568 ], [ 11.082818873537434, 52.365617259986415 ], [ 11.083998287955826, 52.367043580906504 ], [ 11.084771629963639, 52.367641142322277 ], [ 11.085445679931198, 52.368546054046348 ], [ 11.0877869663673, 52.370940538335887 ], [ 11.08868888122602, 52.371459402709945 ], [ 11.090460062979941, 52.372115684698031 ], [ 11.091201046527541, 52.372102573062456 ], [ 11.09193847863685, 52.37193671833073 ], [ 11.092896338572444, 52.371308551114069 ], [ 11.093964814162591, 52.37014810547052 ], [ 11.095165121643968, 52.369214514757715 ], [ 11.096900127926643, 52.369107335313366 ], [ 11.101891976797122, 52.369477044743377 ], [ 11.103120871183268, 52.369225975591561 ], [ 11.10579555290346, 52.368036819018599 ], [ 11.109589027435277, 52.366679324269008 ], [ 11.110692830195138, 52.366578715893588 ], [ 11.112093733079961, 52.367088487818528 ], [ 11.114007995644473, 52.368200266025461 ], [ 11.114752531383328, 52.368339744476849 ], [ 11.115621833655776, 52.368247781016208 ], [ 11.115874951383217, 52.368090446799606 ], [ 11.118065004295593, 52.367291693227621 ], [ 11.119062638297398, 52.367273804361311 ], [ 11.120071243530484, 52.367484913371442 ], [ 11.122145, 52.368517569753607 ], [ 11.122145, 52.366786814124112 ], [ 11.121001242995881, 52.366515458147617 ], [ 11.116402150759734, 52.365604716687677 ], [ 11.108668683981913, 52.364390245440916 ], [ 11.107895402919574, 52.365109628259844 ], [ 11.106691909283231, 52.365814205757964 ], [ 11.105323827751995, 52.365914991790078 ], [ 11.103603350025731, 52.366170344093128 ], [ 11.102227956670314, 52.366194823459317 ], [ 11.101098513685541, 52.365832910322467 ], [ 11.097919806106109, 52.364365873528122 ], [ 11.097146558705004, 52.363772888666674 ], [ 11.09720635237127, 52.362401108212531 ], [ 11.097911031951304, 52.361548189302695 ], [ 11.09948163428585, 52.360612469590528 ], [ 11.099719931300523, 52.360374538269433 ], [ 11.098444209187058, 52.359633195306522 ], [ 11.096948096557739, 52.359506957280658 ], [ 11.094971216151636, 52.359924030701976 ], [ 11.093415252368704, 52.361093127173369 ], [ 11.092226219994252, 52.362183799461214 ], [ 11.090765888367386, 52.362816361447003 ], [ 11.088653425901846, 52.362853724168176 ], [ 11.087149895145288, 52.36272749261714 ], [ 11.08349100670865, 52.36149325960875 ], [ 11.083117009688808, 52.361423453589367 ], [ 11.083003097210964, 52.361654663352915 ], [ 11.083334918738458, 52.363401533093722 ], [ 11.082751032038257, 52.364175833275496 ], [ 11.082676344958406, 52.365318664415568 ] ] ] } },
{ "type": "Feature", "properties": { "OBJECTID": 55580, "Kuerzel": "D,,Lg", "T1_MatBez": "Drenthe-Stadium", "T1_GenTxt": "Grundmoräne (Geschiebemergel, Geschiebelehm)", "T1_PethTxt": "Schluff, tonig, sandig, kiesig; Steine", "T1_System": "Quartär", "T1_Serie": "Pleistozän", "T1_Stufe": "Saale-Kaltzeit", "T1_UStufe": "Drenthe-Stadium", "T2_Kuerzel": null, "T2_GenTxt": null, "T2_PethTxt": null, "T1_Blattnu": "CC 3926", "T1_Blattna": "Braunschweig" }, "geometry": { "type": "Polygon", "coordinates": [ [ [ 11.118700569734719, 52.375428225491717 ], [ 11.121415484743403, 52.374849202368722 ], [ 11.122145, 52.374801332181853 ], [ 11.122145, 52.372905799314992 ], [ 11.122061499782706, 52.372932073974141 ], [ 11.121569949866251, 52.373017302187336 ], [ 11.120006921648544, 52.374110474452927 ], [ 11.118700569734719, 52.375428225491717 ] ] ] } },
{ "type": "Feature", "properties": { "OBJECTID": 55570, "Kuerzel": "D,,gf", "T1_MatBez": "Drenthe-Stadium", "T1_GenTxt": "glazifluviatile Ablagerungen", "T1_PethTxt": "Sand und Kies", "T1_System": "Quartär", "T1_Serie": "Pleistozän", "T1_Stufe": "Saale-Kaltzeit", "T1_UStufe": "Drenthe-Stadium", "T2_Kuerzel": null, "T2_GenTxt": null, "T2_PethTxt": null, "T1_Blattnu": "CC 3926", "T1_Blattna": "Braunschweig" }, "geometry": { "type": "Polygon", "coordinates": [ [ [ 11.117397809285267, 52.37674589689226 ], [ 11.117452379858342, 52.378039238574111 ], [ 11.117727431667628, 52.378569115207043 ], [ 11.119575958954389, 52.380594298249456 ], [ 11.122145, 52.380800235534885 ], [ 11.122145, 52.374801332181853 ], [ 11.121415484743403, 52.374849202368722 ], [ 11.118700569734719, 52.375428225491717 ], [ 11.117397809285267, 52.37674589689226 ] ] ] } },
{ "type": "Feature", "properties": { "OBJECTID": 55572, "Kuerzel": "D,,Lg", "T1_MatBez": "Drenthe-Stadium", "T1_GenTxt": "Grundmoräne (Geschiebemergel, Geschiebelehm)", "T1_PethTxt": "Schluff, tonig, sandig, kiesig; Steine", "T1_System": "Quartär", "T1_Serie": "Pleistozän", "T1_Stufe": "Saale-Kaltzeit", "T1_UStufe": "Drenthe-Stadium", "T2_Kuerzel": null, "T2_GenTxt": null, "T2_PethTxt": null, "T1_Blattnu": "CC 3926", "T1_Blattna": "Braunschweig" }, "geometry": { "type": "Polygon", "coordinates": [ [ [ 11.119575958954389, 52.380594298249456 ], [ 11.114817609003715, 52.379915546937127 ], [ 11.113552030347204, 52.379326985385312 ], [ 11.111355139951829, 52.377842739137051 ], [ 11.10894544657576, 52.376820656446874 ], [ 11.107526239314444, 52.375547165215849 ], [ 11.107724681834437, 52.374703217914352 ], [ 11.108576204232161, 52.374081313771136 ], [ 11.109801677476318, 52.37398753196431 ], [ 11.110564426261426, 52.37412221790057 ], [ 11.111312670000983, 52.374414453181302 ], [ 11.113909087830747, 52.376502759087764 ], [ 11.115031588316175, 52.376788275227192 ], [ 11.116891564141692, 52.376678566727691 ], [ 11.117397809285267, 52.37674589689226 ], [ 11.117452379858342, 52.378039238574111 ], [ 11.117727431667628, 52.378569115207043 ], [ 11.119575958954389, 52.380594298249456 ] ] ] } },
{ "type": "Feature", "properties": { "OBJECTID": 55557, "Kuerzel": "D,,Lg", "T1_MatBez": "Drenthe-Stadium", "T1_GenTxt": "Grundmoräne (Geschiebemergel, Geschiebelehm)", "T1_PethTxt": "Schluff, tonig, sandig, kiesig; Steine", "T1_System": "Quartär", "T1_Serie": "Pleistozän", "T1_Stufe": "Saale-Kaltzeit", "T1_UStufe": "Drenthe-Stadium", "T2_Kuerzel": null, "T2_GenTxt": null, "T2_PethTxt": null, "T1_Blattnu": "CC 3926", "T1_Blattna": "Braunschweig" }, "geometry": { "type": "Polygon", "coordinates": [ [ [ 11.120268945614329, 52.382334589394652 ], [ 11.121046489632693, 52.383003747776122 ], [ 11.121079440814128, 52.383690762547666 ], [ 11.120595090953623, 52.383928658207218 ], [ 11.119098089946359, 52.383879112607822 ], [ 11.116834361615856, 52.383232080233562 ], [ 11.115557689660188, 52.382490935749182 ], [ 11.11465187919349, 52.381594835055047 ], [ 11.116024054371533, 52.381646672032637 ], [ 11.120268945614329, 52.382334589394652 ] ] ] } }
]
}
