{
"type": "FeatureCollection",
"name": "bodenschaetzung_parcels",
"crs": { "type": "name", "properties": { "name": "urn:ogc:def:crs:OGC:1.3:CRS84" } },
"features": [
{ "type": "Feature", "properties": { "parcel_id": 3153799, "bodenzahl": 48, "ackerzahl": "48", "klassenzeichen": "lS4Al", "bodenart": "lS", "updated": "2023-06-15T14:51:26.0000000" }, "geometry": { "type": "Polygon", "coordinates": [ [ [ 11.067610014039255, 52.358421353458709 ], [ 11.068031652966631, 52.358793772417279 ], [ 11.06813750412493, 52.359304547117816 ], [ 11.067651883126114, 52.359342568348524 ], [ 11.067238920512528, 52.359033038370526 ], [ 11.066033087420871, 52.359477921563439 ], [ 11.0659308393641, 52.358858765839109 ], [ 11.065062671957488, 52.358587086389598 ], [ 11.067610014039255, 52.358421353458709 ] ] ] } },
{ "type": "Feature", "properties": { "parcel_id": 4320649, "bodenzahl": 37, "ackerzahl": "38", "klassenzeichen": "Sl3D", "bodenart": "Sl", "updated": "2023-06-15T17:52:52.0000000" }, "geometry": { "type": "Polygon", "coordinates": [ [ [ 11.050117638896738, 52.365379698267674 ], [ 11.049388678627897, 52.365615137293346 ], [ 11.049519277609308, 52.364964387877855 ], [ 11.049224174200312, 52.364532943405415 ], [ 11.049781592583836, 52.363509584715217 ], [ 11.050822023962787, 52.362732920143195 ], [ 11.051768424062644, 52.362026424226137 ], [ 11.052636017574592, 52.361786115359941 ], [ 11.054036934981568, 52.361192157540934 ], [ 11.054251966482859, 52.361284451679545 ], [ 11.054767799443583, 52.361508118304251 ], [ 11.0546538719081, 52.361608210148596 ], [ 11.054578259226355, 52.361674653336948 ], [ 11.05434958451106, 52.361875579122795 ], [ 11.05415929377642, 52.362042782909548 ], [ 11.053932224567145, 52.362242304176512 ], [ 11.053862818744802, 52.362303279817134 ], [ 11.053408848451381, 52.362704520785805 ], [ 11.053305072241448, 52.36279623423632 ], [ 11.05301469404842, 52.363052855353843 ], [ 11.052976597709462, 52.363086526541998 ], [ 11.052365454043899, 52.362833899637451 ], [ 11.051762050773055, 52.363121519249717 ], [ 11.051362579191872, 52.36351522353312 ], [ 11.050632839961798, 52.363861481810936 ], [ 11.050117638896738, 52.365379698267674 ] ] ] } },
{ "type": "Feature", "properties": { "parcel_id": 3154457, "bodenzahl": 17, "ackerzahl": "18", "klassenzeichen": "S5D", "bodenart": "S", "updated": "2023-06-15T14:51:33.0000000" }, "geometry": { "type": "Polygon", "coordinates": [ [ [ 11.051185188446414, 52.373475507393096 ], [ 11.050330544069036, 52.374182435521647 ], [ 11.049774452658447, 52.374643115567736 ], [ 11.04883606007381, 52.37541979639326 ], [ 11.047196921865309, 52.374418742403314 ], [ 11.04745643570444, 52.374259603724902 ], [ 11.047300194268205, 52.374164435004424 ], [ 11.048826568092375, 52.373228117876401 ], [ 11.051185188446414, 52.373475507393096 ] ] ] } },
{ "type": "Feature", "properties": { "parcel_id": 4459972, "bodenzahl": 42, "ackerzahl": "44", "klassenzeichen": "lS4Al", "bodenart": "lS", "updated": "2023-06-15T18:14:51.0000000" }, "geometry": { "type": "Polygon", "coordinates": [ [ [ 11.045069319021662, 52.388210930977493 ], [ 11.04503181126751, 52.388215006004664 ], [ 11.044899796306078, 52.388253842432263 ], [ 11.044494084202755, 52.38832911075194 ], [ 11.044294309016255, 52.388377292440104 ], [ 11.043772227050949, 52.388467798424408 ], [ 11.04374300085739, 52.388440869879304 ], [ 11.043674591139061, 52.38841165172132 ], [ 11.043361240586894, 52.388386022025301 ], [ 11.042965503702153, 52.388421197889414 ], [ 11.04243227677607, 52.388431135106778 ], [ 11.042027106597903, 52.388438677165261 ], [ 11.041810610168731, 52.388602571532324 ], [ 11.041772202780075, 52.388611049070839 ], [ 11.041354086149383, 52.388703362546998 ], [ 11.04036938515412, 52.388281083589554 ], [ 11.040342265633297, 52.388025132297486 ], [ 11.040494773184756, 52.387907025956139 ], [ 11.041020896893766, 52.387805063018561 ], [ 11.042198614078266, 52.386828893344365 ], [ 11.041850934065655, 52.386372542470006 ], [ 11.041987012417607, 52.386318011416954 ], [ 11.042432066569688, 52.386158420664643 ], [ 11.042455688045921, 52.386149946701018 ], [ 11.043303357782838, 52.385845979606231 ], [ 11.043543516849098, 52.385759856963055 ], [ 11.043594518349737, 52.385732035405233 ], [ 11.044336833631814, 52.386059580204034 ], [ 11.044539503770075, 52.386148986097965 ], [ 11.044627443800877, 52.386187801764493 ], [ 11.045069319021662, 52.388210930977493 ] ] ] } },
{ "type": "Feature", "properties": { "parcel_id": 3154509, "bodenzahl": 26, "ackerzahl": "27", "klassenzeichen": "Sl5D", "bodenart": "Sl", "updated": "2023-06-15T14:51:34.0000000" }, "geometry": { "type": "Polygon", "coordinates": [ [ [ 11.038254312677417, 52.379589687994759 ], [ 11.037185238218909, 52.379959750631642 ], [ 11.036906037200097, 52.379922869107588 ], [ 11.036187976354487, 52.37870663042164 ], [ 11.03667635897092, 52.378408064821656 ], [ 11.037449300791089, 52.378999645559801 ], [ 11.037889985617689, 52.379110440897158 ], [ 11.038254312677417, 52.379589687994759 ] ] ] } },
{ "type": "Feature", "properties": { "parcel_id": 4460052, "bodenzahl": 46, "ackerzahl": "47", "klassenzeichen": "lS4Al", "bodenart": "lS", "updated": "2023-06-15T18:14:51.0000000" }, "geometry": { "type": "Polygon", "coordinates": [ [ [ 11.067610014039255, 52.358421353458709 ], [ 11.069239857761991, 52.358315287179138 ], [ 11.069240311830894, 52.358315261241572 ], [ 11.06942474274217, 52.358481779487406 ], [ 11.06954836588071, 52.358592219275756 ], [ 11.069514707280451, 52.358698814399467 ], [ 11.069472821799421, 52.358834273747291 ], [ 11.06939093310608, 52.359099287704318 ], [ 11.069302918197664, 52.35939005378264 ], [ 11.069221837348676, 52.359651025066725 ], [ 11.069138707809856, 52.359919090798378 ], [ 11.0690925869373, 52.360067365667867 ], [ 11.068916894001417, 52.360632714841415 ], [ 11.068705208834089, 52.361317755590107 ], [ 11.067623758771024, 52.36138765463869 ], [ 11.067608732729388, 52.361402736263827 ], [ 11.06757849286533, 52.36139050603812 ], [ 11.06754845717483, 52.361392398488888 ], [ 11.067517335492072, 52.361410351468415 ], [ 11.067475433690719, 52.361416677763224 ], [ 11.068698910339894, 52.361337926795116 ], [ 11.068566145363015, 52.361767267521167 ], [ 11.068536843642519, 52.361862213429276 ], [ 11.068493842288278, 52.362001261643123 ], [ 11.068479356272755, 52.36204833605715 ], [ 11.068456624404613, 52.362162562408187 ], [ 11.067474484297184, 52.361762792170666 ], [ 11.066803839856213, 52.362037315218984 ], [ 11.065944739639592, 52.361780742500279 ], [ 11.065631442316176, 52.361956509416011 ], [ 11.064914560611355, 52.362002689909055 ], [ 11.064844809365669, 52.361586029249899 ], [ 11.065940383479729, 52.361515513076 ], [ 11.066995814604422, 52.361447541434423 ], [ 11.067428852401575, 52.361419669020343 ], [ 11.067443779419875, 52.361399005188673 ], [ 11.066995061251989, 52.361427313875815 ], [ 11.065940520369296, 52.361494838334998 ], [ 11.06484142714989, 52.361565155259392 ], [ 11.064731022901858, 52.360904715716273 ], [ 11.064639184896588, 52.36035290622636 ], [ 11.0646152076687, 52.360209104419354 ], [ 11.064571728041191, 52.359949108597917 ], [ 11.064529439857548, 52.359696069636016 ], [ 11.064494558477119, 52.359489425233754 ], [ 11.064482088925073, 52.35941475871828 ], [ 11.064438106726321, 52.359151822272025 ], [ 11.064416909945471, 52.359025101363514 ], [ 11.064991883295479, 52.358988328012927 ], [ 11.064924127572386, 52.358596090297787 ], [ 11.065062671957488, 52.358587086389598 ], [ 11.0659308393641, 52.358858765839109 ], [ 11.066033087420871, 52.359477921563439 ], [ 11.067238920512528, 52.359033038370526 ], [ 11.067651883126114, 52.359342568348524 ], [ 11.06813750412493, 52.359304547117816 ], [ 11.068031652966631, 52.358793772417279 ], [ 11.067610014039255, 52.358421353458709 ] ], [ [ 11.068295452773059, 52.36011843442683 ], [ 11.067198484710511, 52.359524999969928 ], [ 11.066752457830631, 52.359553611464626 ], [ 11.066866377536829, 52.360210454119368 ], [ 11.067026031825707, 52.360200188399176 ], [ 11.068295452773059, 52.36011843442683 ] ] ] } },
{ "type": "Feature", "properties": { "parcel_id": 4295602, "bodenzahl": 39, "ackerzahl": "39", "klassenzeichen": "lS4D", "bodenart": "lS", "updated": "2023-06-15T17:49:13.0000000" }, "geometry": { "type": "Polygon", "coordinates": [ [ [ 11.039054006010717, 52.363633439165746 ], [ 11.037816554937688, 52.363705523147928 ], [ 11.037932711033886, 52.363348170771594 ], [ 11.038058260119712, 52.362961981211036 ], [ 11.038607798096933, 52.362929507295981 ], [ 11.039190791232937, 52.362895050613133 ], [ 11.040854014582944, 52.362796714524222 ], [ 11.041750946451957, 52.361678437624434 ], [ 11.043852637100292, 52.361301222673312 ], [ 11.045132344913622, 52.361423502591599 ], [ 11.045147807980925, 52.361374472055161 ], [ 11.045397961081727, 52.36058112358365 ], [ 11.045460565514682, 52.360382578400248 ], [ 11.046587199140353, 52.360367957082182 ], [ 11.046539203615303, 52.360520211492044 ], [ 11.046212906181871, 52.361555503592086 ], [ 11.046093214804491, 52.361935252723114 ], [ 11.046526225009133, 52.362083104533497 ], [ 11.046166926022485, 52.363218795464746 ], [ 11.045924844524265, 52.363232933155906 ], [ 11.04567967072056, 52.363247222807281 ], [ 11.044536243306975, 52.363313891689018 ], [ 11.043193063477769, 52.363392213955372 ], [ 11.043307833472552, 52.363028378829384 ], [ 11.041940428602716, 52.36296951260195 ], [ 11.040735658665145, 52.363169852705489 ], [ 11.040682425273239, 52.363337705927584 ], [ 11.040487815254464, 52.363336265796669 ], [ 11.039900458152458, 52.363219048801149 ], [ 11.0395406677465, 52.363128346741242 ], [ 11.039273773121012, 52.362948198713383 ], [ 11.039042584661642, 52.362957125794885 ], [ 11.039054006010717, 52.363633439165746 ] ] ] } },
{ "type": "Feature", "properties": { "parcel_id": 3154469, "bodenzahl": 20, "ackerzahl": "21", "klassenzeichen": "S5D", "bodenart": "S", "updated": "2023-06-15T14:51:33.0000000" }, "geometry": { "type": "Polygon", "coordinates": [ [ [ 11.042405497980708, 52.383788006327656 ], [ 11.042407190730566, 52.383939902909184 ], [ 11.04074026814782, 52.383161868146722 ], [ 11.040184947198245, 52.382792012054395 ], [ 11.040289821705224, 52.381972754651166 ], [ 11.040798697468508, 52.381672307710176 ], [ 11.042382217019977, 52.381711504109354 ], [ 11.042393225439767, 52.382693580807349 ], [ 11.042405497980708, 52.383788006327656 ] ] ] } },
{ "type": "Feature", "properties": { "parcel_id": 3153747, "bodenzahl": 41, "ackerzahl": "43", "klassenzeichen": "lS4D", "bodenart": "lS", "updated": "2023-06-15T14:51:26.0000000" }, "geometry": { "type": "Polygon", "coordinates": [ [ [ 11.031434990894995, 52.360219954040225 ], [ 11.032856369295187, 52.360377929832111 ], [ 11.033209892291644, 52.360594259041846 ], [ 11.032947075837511, 52.361435481809885 ], [ 11.032673088354846, 52.36122702692078 ], [ 11.032544799838202, 52.361063011091026 ], [ 11.031211987145273, 52.360933379532909 ], [ 11.031434990894995, 52.360219954040225 ] ] ] } },
{ "type": "Feature", "properties": { "parcel_id": 4344018, "bodenzahl": 31, "ackerzahl": "32", "klassenzeichen": "Sl4D", "bodenart": "Sl", "updated": "2023-06-15T17:56:52.0000000" }, "geometry": { "type": "Polygon", "coordinates": [ [ [ 11.056984517919119, 52.375609472266483 ], [ 11.056374266225566, 52.375337939802328 ], [ 11.055860155440014, 52.375109178089893 ], [ 11.0546694221207, 52.376757470544767 ], [ 11.054224721187877, 52.376559631500001 ], [ 11.053377905020515, 52.376182846545071 ], [ 11.054259146560296, 52.375462629663467 ], [ 11.053949910464411, 52.375325646956775 ], [ 11.05347613674946, 52.375115766953002 ], [ 11.054016171001283, 52.374288606753481 ], [ 11.053682087181521, 52.374139943338129 ], [ 11.054104242577788, 52.373781706483221 ], [ 11.054520417765644, 52.373825525900614 ], [ 11.05578944084443, 52.373959145437965 ], [ 11.057279856271359, 52.374116051948015 ], [ 11.058599033006244, 52.374254900526616 ], [ 11.058372758790874, 52.374444920416529 ], [ 11.057864450553826, 52.374871761550253 ], [ 11.057717480525382, 52.374995171880727 ], [ 11.057518644589633, 52.375161827908812 ], [ 11.056984517919119, 52.375609472266483 ] ] ] } },
{ "type": "Feature", "properties": { "parcel_id": 4459974, "bodenzahl": 25, "ackerzahl": "26", "klassenzeichen": "S4D", "bodenart": "S", "updated": "2023-06-15T18:14:51.0000000" }, "geometry": { "type": "Polygon", "coordinates": [ [ [ 11.03002352867267, 52.389563836168143 ], [ 11.028348730618786, 52.389930193288187 ], [ 11.028059168285775, 52.390326926802892 ], [ 11.028029555748278, 52.390330815943528 ], [ 11.025850375628409, 52.390614597838734 ], [ 11.026147373378389, 52.390552965382987 ], [ 11.027263807445021, 52.390404155595483 ], [ 11.027955772670829, 52.390312776834293 ], [ 11.027948180219978, 52.39029078732122 ], [ 11.027266412977527, 52.390386289161953 ], [ 11.026142669859921, 52.390539801123381 ], [ 11.025843222550728, 52.390597366314651 ], [ 11.025799762306219, 52.390480220017487 ], [ 11.02530761842349, 52.38915367186285 ], [ 11.02482316764663, 52.387847796782722 ], [ 11.025421614933666, 52.387737147109043 ], [ 11.025508023368642, 52.387960101143484 ], [ 11.026049517216444, 52.387832324057094 ], [ 11.027163498631586, 52.387718067249004 ], [ 11.027780914880182, 52.387760740962236 ], [ 11.028312835954571, 52.387927581099532 ], [ 11.028989412044782, 52.38799275556196 ], [ 11.029776795039682, 52.387477157723787 ], [ 11.028824384907162, 52.387151564933582 ], [ 11.028611658935651, 52.386861823756192 ], [ 11.029435818437205, 52.386686610664178 ], [ 11.032826374156825, 52.385961209428544 ], [ 11.033267125506521, 52.385865002784094 ], [ 11.034236648317298, 52.385660440900807 ], [ 11.036134435151821, 52.385259997744399 ], [ 11.035142476509574, 52.386969471331831 ], [ 11.034839984127027, 52.387490729664435 ], [ 11.033471124719515, 52.387317625460362 ], [ 11.033246631525591, 52.387625600386535 ], [ 11.03188456041096, 52.387358351701209 ], [ 11.031605651015607, 52.387738006630123 ], [ 11.030229721023932, 52.387482127019034 ], [ 11.030171083787634, 52.387791778033751 ], [ 11.030418337135957, 52.3880358562824 ], [ 11.032265678348203, 52.388473587945036 ], [ 11.032650476866495, 52.387996464230888 ], [ 11.033434039366277, 52.388129828012922 ], [ 11.033661757614453, 52.388059801346557 ], [ 11.034592225373229, 52.387917664812008 ], [ 11.034162247795887, 52.388658565073165 ], [ 11.032738728137067, 52.388969963279379 ], [ 11.031038178555857, 52.388514627640518 ], [ 11.030552038556054, 52.38844906091343 ], [ 11.03002352867267, 52.389563836168143 ] ] ] } },
{ "type": "Feature", "properties": { "parcel_id": 4466971, "bodenzahl": 34, "ackerzahl": "35", "klassenzeichen": "Sl4D", "bodenart": "Sl", "updated": "2023-06-15T18:15:46.0000000" }, "geometry": { "type": "Polygon", "coordinates": [ [ [ 11.050237765286473, 52.349168986210316 ], [ 11.050635165017024, 52.349158059453025 ], [ 11.050799613401239, 52.349153495972288 ], [ 11.052406221976382, 52.349109333914889 ], [ 11.05290536598034, 52.349095642496081 ], [ 11.05291271268848, 52.349095433884848 ], [ 11.053400223856389, 52.349081987507084 ], [ 11.054148284494152, 52.349061427697542 ], [ 11.054386572817478, 52.349054918685717 ], [ 11.054356952125127, 52.349260304993877 ], [ 11.054287164050407, 52.349531697927517 ], [ 11.054511049732342, 52.350289722464467 ], [ 11.054665663516614, 52.35081316631188 ], [ 11.054677544538343, 52.350853405144996 ], [ 11.054689790795853, 52.35089486951189 ], [ 11.054972659646289, 52.351852538992006 ], [ 11.055121974246179, 52.352358054651638 ], [ 11.055228261181446, 52.352717885936514 ], [ 11.054846966844799, 52.352642045861735 ], [ 11.054646723374711, 52.35260269172862 ], [ 11.054440063712686, 52.35256176736813 ], [ 11.054106207826019, 52.351444613182622 ], [ 11.05394098198723, 52.350891724952021 ], [ 11.053416559351335, 52.350772969011331 ], [ 11.052903099368546, 52.350761104559616 ], [ 11.052685084963827, 52.350036398002125 ], [ 11.052677794871602, 52.350012165676652 ], [ 11.051578949280145, 52.34966265175386 ], [ 11.050895533928479, 52.349674429708031 ], [ 11.050237765286473, 52.349168986210316 ] ] ] } },
{ "type": "Feature", "properties": { "parcel_id": 4320646, "bodenzahl": 25, "ackerzahl": "26", "klassenzeichen": "S4D", "bodenart": "S", "updated": "2023-06-15T17:52:52.0000000" }, "geometry": { "type": "Polygon", "coordinates": [ [ [ 11.057222632365008, 52.368554440439972 ], [ 11.056995383818295, 52.36937673786975 ], [ 11.055938591093895, 52.369268572648409 ], [ 11.054605921310729, 52.36913216898273 ], [ 11.054936359480518, 52.367946806577102 ], [ 11.055190323257024, 52.36703576629526 ], [ 11.053652886201023, 52.366676238476252 ], [ 11.053802881505723, 52.3661342630894 ], [ 11.054008210835375, 52.365392299474024 ], [ 11.052260005974183, 52.365396344482818 ], [ 11.051944119111585, 52.366551701667575 ], [ 11.052539391391026, 52.366843028923519 ], [ 11.052244770467075, 52.367914995347604 ], [ 11.053196328540674, 52.368325934869688 ], [ 11.053018175010278, 52.368969619875379 ], [ 11.052967385806035, 52.368964423958417 ], [ 11.050561861935227, 52.368718110392336 ], [ 11.050575347024816, 52.368669904788433 ], [ 11.050616692764088, 52.36852199947279 ], [ 11.050647429161932, 52.368412080049985 ], [ 11.050706668561217, 52.368200165796686 ], [ 11.050853095660663, 52.367676366106295 ], [ 11.051004309767524, 52.367135479460607 ], [ 11.051155052641951, 52.366596228259837 ], [ 11.051175843361101, 52.366521846307172 ], [ 11.051251797490076, 52.366250088394686 ], [ 11.05130006985784, 52.366077406809012 ], [ 11.051448185623846, 52.365547543257328 ], [ 11.051516956886049, 52.365301527651731 ], [ 11.051605003364765, 52.365020423712849 ], [ 11.051652461454188, 52.364868895939914 ], [ 11.051729990754183, 52.364669278941335 ], [ 11.051778233378448, 52.364566707160385 ], [ 11.051810591388492, 52.364497914920619 ], [ 11.051889641041159, 52.364370745803669 ], [ 11.054224023066846, 52.36461238725547 ], [ 11.055819758624825, 52.364777549651372 ], [ 11.057145181941953, 52.364914694422801 ], [ 11.057323670136592, 52.364933166736741 ], [ 11.058198268324128, 52.365023668092327 ], [ 11.058741026712092, 52.365079824575012 ], [ 11.058594293470708, 52.365882010622386 ], [ 11.058567199132021, 52.366730631845293 ], [ 11.058141395141829, 52.367232216751525 ], [ 11.058128331820926, 52.367468768590967 ], [ 11.057487785801991, 52.367594958779648 ], [ 11.057257326894076, 52.368428894331856 ], [ 11.057222632365008, 52.368554440439972 ] ] ] } },
{ "type": "Feature", "properties": { "parcel_id": 3154567, "bodenzahl": 49, "ackerzahl": "50", "klassenzeichen": "lS4Al", "bodenart": "lS", "updated": "2023-06-15T14:51:35.0000000" }, "geometry": { "type": "Polygon", "coordinates": [ [ [ 11.063824808296362, 52.372816821441631 ], [ 11.063146449180897, 52.372859916104069 ], [ 11.062803045793173, 52.370786551811676 ], [ 11.06284297901232, 52.370784119135664 ], [ 11.062768960570956, 52.370333192387974 ], [ 11.062721694037821, 52.370045225748832 ], [ 11.062709009070526, 52.36996783838736 ], [ 11.06321607626171, 52.369937286799818 ], [ 11.063092892786521, 52.368789917072846 ], [ 11.063931115171153, 52.368359851722403 ], [ 11.063976067170582, 52.368392012627915 ], [ 11.064316403807569, 52.368628010683594 ], [ 11.064672078366879, 52.368864908670986 ], [ 11.064752028325385, 52.368912930762669 ], [ 11.06525643257786, 52.369216006440674 ], [ 11.065639543315436, 52.369415753075884 ], [ 11.06567585987621, 52.369433749264559 ], [ 11.066048847674988, 52.369619221643063 ], [ 11.066071568745873, 52.369628562500957 ], [ 11.066240401472896, 52.369698381088391 ], [ 11.066257618260488, 52.369703726873858 ], [ 11.066394451040717, 52.369746059242694 ], [ 11.066442001660565, 52.369760810460775 ], [ 11.066945233690932, 52.369890149507675 ], [ 11.06680401443402, 52.370091160734717 ], [ 11.066100124305823, 52.370133325598196 ], [ 11.064778823152336, 52.37021262451885 ], [ 11.06482117783902, 52.370663626987756 ], [ 11.06476230072394, 52.370954356126937 ], [ 11.06470301594694, 52.370956075595473 ], [ 11.063510449544101, 52.371516809924444 ], [ 11.063557624771486, 52.371733346416754 ], [ 11.064008833092799, 52.371977623600579 ], [ 11.063861030020274, 52.372379066984834 ], [ 11.063824808296362, 52.372816821441631 ] ] ] } },
{ "type": "Feature", "properties": { "parcel_id": 3153723, "bodenzahl": 37, "ackerzahl": "38", "klassenzeichen": "lS4D", "bodenart": "lS", "updated": "2023-06-15T14:51:25.0000000" }, "geometry": { "type": "Polygon", "coordinates": [ [ [ 11.041293439675218, 52.36486122192003 ], [ 11.040613168971268, 52.364899185480716 ], [ 11.039490144293328, 52.364961828995682 ], [ 11.039575018592917, 52.364695356094927 ], [ 11.039690049662031, 52.364334244809335 ], [ 11.041298643941394, 52.364597544993529 ], [ 11.041293439675218, 52.36486122192003 ] ] ] } },
{ "type": "Feature", "properties": { "parcel_id": 4299010, "bodenzahl": 32, "ackerzahl": "32", "klassenzeichen": "SII-", "bodenart": "S", "updated": "2023-06-15T17:49:36.0000000" }, "geometry": { "type": "Polygon", "coordinates": [ [ [ 11.04215565914321, 52.372593332759479 ], [ 11.042259126054541, 52.373113826187272 ], [ 11.042269457662416, 52.373165800253041 ], [ 11.042289189891665, 52.373580045785666 ], [ 11.040926374453623, 52.373737025210438 ], [ 11.040808582345312, 52.37331624588569 ], [ 11.040726338917541, 52.373022455547627 ], [ 11.04215565914321, 52.372593332759479 ] ] ] } },
{ "type": "Feature", "properties": { "parcel_id": 4295639, "bodenzahl": 41, "ackerzahl": "42", "klassenzeichen": "lS4Al", "bodenart": "lS", "updated": "2023-06-15T17:49:13.0000000" }, "geometry": { "type": "Polygon", "coordinates": [ [ [ 11.06313395849906, 52.360944253973244 ], [ 11.062916831407758, 52.360958035773791 ], [ 11.062344734609042, 52.360994397913878 ], [ 11.062258774336243, 52.360505715093865 ], [ 11.062208685186871, 52.360222401046329 ], [ 11.062163995546301, 52.359968917701117 ], [ 11.062142885046203, 52.359849280540757 ], [ 11.062093112395287, 52.359565790056386 ], [ 11.062067373942712, 52.359419617687514 ], [ 11.062024566320094, 52.3591765499879 ], [ 11.061986685367529, 52.358961999455545 ], [ 11.061955714371242, 52.358785759608594 ], [ 11.064218301906903, 52.35864263120223 ], [ 11.064247761891762, 52.358819031804487 ], [ 11.064258830860661, 52.358885720041691 ], [ 11.064283467146026, 52.359032675563668 ], [ 11.064348898539654, 52.359424306787631 ], [ 11.064373099919484, 52.35956948049791 ], [ 11.063027123502264, 52.360456610606079 ], [ 11.06313395849906, 52.360944253973244 ] ], [ [ 11.062990935728417, 52.359114987997181 ], [ 11.062920934080383, 52.359141999184011 ], [ 11.062910082709317, 52.359157807585746 ], [ 11.062927323030031, 52.359179518653612 ], [ 11.06297101166083, 52.35922135026965 ], [ 11.063017763514697, 52.359253902700061 ], [ 11.063083729141004, 52.359301028103616 ], [ 11.063137819219806, 52.359341976637083 ], [ 11.063224352926044, 52.359407203084935 ], [ 11.063277099767047, 52.359443903870542 ], [ 11.0633064502242, 52.359451915540191 ], [ 11.063345819261121, 52.359450517546655 ], [ 11.063410413996264, 52.359442996051236 ], [ 11.063437859515922, 52.359434711697752 ], [ 11.063436999972462, 52.359416266370374 ], [ 11.063426766678154, 52.359395853699993 ], [ 11.063401016457547, 52.359340922458529 ], [ 11.063376459108413, 52.359286689726602 ], [ 11.063381714353689, 52.359250387609841 ], [ 11.063378439542365, 52.359205008811315 ], [ 11.063341443968595, 52.35913252399429 ], [ 11.063324288010463, 52.359112942588901 ], [ 11.06327965732258, 52.359096601568098 ], [ 11.062990935728417, 52.359114987997181 ] ] ] } },
{ "type": "Feature", "properties": { "parcel_id": 3153690, "bodenzahl": 38, "ackerzahl": "40", "klassenzeichen": "lS4D", "bodenart": "lS", "updated": "2023-06-15T14:51:25.0000000" }, "geometry": { "type": "Polygon", "coordinates": [ [ [ 11.043015502096823, 52.365091381489719 ], [ 11.042051352013296, 52.365145187309864 ], [ 11.042156941929838, 52.364811634865887 ], [ 11.042241648632855, 52.364544110778958 ], [ 11.04235557076651, 52.364184274762678 ], [ 11.042469553317014, 52.363824194779781 ], [ 11.043721421830986, 52.363752999514119 ], [ 11.04471750236495, 52.363696352231337 ], [ 11.045085766882762, 52.363675401925079 ], [ 11.046018776128134, 52.363622317212837 ], [ 11.045908577174778, 52.363975276708118 ], [ 11.045889589284712, 52.364036075761895 ], [ 11.045793755818121, 52.364342990821797 ], [ 11.045709385932589, 52.364613200349737 ], [ 11.045605220927085, 52.364946803433028 ], [ 11.044129410447097, 52.365029194871504 ], [ 11.043115772889967, 52.365085780929505 ], [ 11.043015502096823, 52.365091381489719 ] ] ] } },
{ "type": "Feature", "properties": { "parcel_id": 3154473, "bodenzahl": 30, "ackerzahl": "31", "klassenzeichen": "Sl4D", "bodenart": "Sl", "updated": "2023-06-15T14:51:33.0000000" }, "geometry": { "type": "Polygon", "coordinates": [ [ [ 11.042298881338516, 52.377119217066728 ], [ 11.040206455990344, 52.378397462058516 ], [ 11.03959434373686, 52.377301855536324 ], [ 11.039104843666127, 52.376447367787407 ], [ 11.03908128738942, 52.376400720092754 ], [ 11.038786449561819, 52.375816681509704 ], [ 11.038676392966003, 52.375633357901705 ], [ 11.038277436346725, 52.374968767412405 ], [ 11.040933320432638, 52.374654162190367 ], [ 11.04082827478339, 52.375040962046114 ], [ 11.040547759843101, 52.375085227314344 ], [ 11.039540718233901, 52.375385336649231 ], [ 11.039683280178235, 52.375655121260202 ], [ 11.039905024634642, 52.375840211327215 ], [ 11.04062573294963, 52.37571903664422 ], [ 11.041604614393256, 52.376167111528375 ], [ 11.042298881338516, 52.377119217066728 ] ] ] } },
{ "type": "Feature", "properties": { "parcel_id": 3154475, "bodenzahl": 25, "ackerzahl": "26", "klassenzeichen": "S4D", "bodenart": "S", "updated": "2023-06-15T14:51:33.0000000" }, "geometry": { "type": "Polygon", "coordinates": [ [ [ 11.046194035115315, 52.383348390747678 ], [ 11.046279444346528, 52.383385001040814 ], [ 11.046789173421363, 52.383603476864828 ], [ 11.046024746395616, 52.384041606943541 ], [ 11.045492476533131, 52.384278000949799 ], [ 11.044463231665778, 52.384882098987966 ], [ 11.044447299694824, 52.384374534364532 ], [ 11.044444484732811, 52.384284682801173 ], [ 11.044433730209208, 52.383942568065365 ], [ 11.046194035115315, 52.383348390747678 ] ] ] } },
{ "type": "Feature", "properties": { "parcel_id": 3154492, "bodenzahl": 18, "ackerzahl": "19", "klassenzeichen": "S5D", "bodenart": "S", "updated": "2023-06-15T14:51:34.0000000" }, "geometry": { "type": "Polygon", "coordinates": [ [ [ 11.057476371306171, 52.371127979960683 ], [ 11.056915107617669, 52.371243883924656 ], [ 11.055355717698832, 52.371381883463258 ], [ 11.055567496849683, 52.370620410053654 ], [ 11.055653464110499, 52.370311329743615 ], [ 11.055920768486263, 52.36935009729477 ], [ 11.057955600644327, 52.369558349048617 ], [ 11.057757958003267, 52.370281014865185 ], [ 11.057525575726498, 52.371130620893062 ], [ 11.057476371306171, 52.371127979960683 ] ] ] } },
{ "type": "Feature", "properties": { "parcel_id": 3154560, "bodenzahl": 47, "ackerzahl": "45", "klassenzeichen": "lS4Al", "bodenart": "lS", "updated": "2023-06-15T14:51:35.0000000" }, "geometry": { "type": "Polygon", "coordinates": [ [ [ 11.069305011853112, 52.372788222835894 ], [ 11.068913246960346, 52.373035409753896 ], [ 11.067722654905204, 52.372871811494115 ], [ 11.067332633547304, 52.372863395562774 ], [ 11.067304024824285, 52.372013759441849 ], [ 11.068271439660574, 52.37189263874501 ], [ 11.068730859383262, 52.372492095284542 ], [ 11.069305011853112, 52.372788222835894 ] ] ] } },
{ "type": "Feature", "properties": { "parcel_id": 3153653, "bodenzahl": 32, "ackerzahl": "25", "klassenzeichen": "Sl4D", "bodenart": "Sl", "updated": "2023-06-15T14:51:25.0000000" }, "geometry": { "type": "Polygon", "coordinates": [ [ [ 11.050198694737025, 52.361024728932186 ], [ 11.049548670246171, 52.361061383295024 ], [ 11.049037782097535, 52.36109018974021 ], [ 11.049136774690357, 52.360776311142764 ], [ 11.049626520308607, 52.360748689328624 ], [ 11.050293825123537, 52.360711042217275 ], [ 11.050198694737025, 52.361024728932186 ] ] ] } },
{ "type": "Feature", "properties": { "parcel_id": 3153683, "bodenzahl": 24, "ackerzahl": "23", "klassenzeichen": "S4D", "bodenart": "S", "updated": "2023-06-15T14:51:25.0000000" }, "geometry": { "type": "Polygon", "coordinates": [ [ [ 11.039028879739133, 52.371067705935545 ], [ 11.040449334799659, 52.371009426873933 ], [ 11.04076527891238, 52.370499150094268 ], [ 11.040923776489107, 52.368656699710378 ], [ 11.041505986416968, 52.368600476420752 ], [ 11.041705691493151, 52.3692676369118 ], [ 11.041318615351582, 52.36995106048996 ], [ 11.041768386447693, 52.370906764040527 ], [ 11.040115352966712, 52.371863178620636 ], [ 11.039309772784833, 52.372012629332829 ], [ 11.038783616237186, 52.371714432151698 ], [ 11.039028879739133, 52.371067705935545 ] ] ] } },
{ "type": "Feature", "properties": { "parcel_id": 4320645, "bodenzahl": 22, "ackerzahl": "23", "klassenzeichen": "S4D", "bodenart": "S", "updated": "2023-06-15T17:52:52.0000000" }, "geometry": { "type": "Polygon", "coordinates": [ [ [ 11.053775063188768, 52.36260100659743 ], [ 11.054239216225668, 52.362192033947146 ], [ 11.054435385392905, 52.362019197808493 ], [ 11.054761331240931, 52.361735554282667 ], [ 11.054827344367714, 52.361678107968366 ], [ 11.055218910469723, 52.361333112138205 ], [ 11.055595781456249, 52.361001049194172 ], [ 11.056233880512574, 52.361144163756315 ], [ 11.056550846064271, 52.361215247992391 ], [ 11.056851945728294, 52.361283073823351 ], [ 11.057154085758663, 52.3613508268243 ], [ 11.057456215777039, 52.361418660159146 ], [ 11.057758503959084, 52.361486400052947 ], [ 11.057635476148889, 52.361928758186501 ], [ 11.056391852188321, 52.361783163959196 ], [ 11.056283063323322, 52.362174738382187 ], [ 11.054659624425543, 52.362084130696985 ], [ 11.054514898591366, 52.362076046342573 ], [ 11.054223405373895, 52.362643952450824 ], [ 11.053775063188768, 52.36260100659743 ] ] ] } },
{ "type": "Feature", "properties": { "parcel_id": 4320644, "bodenzahl": 18, "ackerzahl": "19", "klassenzeichen": "S4D", "bodenart": "S", "updated": "2023-06-15T17:52:52.0000000" }, "geometry": { "type": "Polygon", "coordinates": [ [ [ 11.046978655426178, 52.372255768621478 ], [ 11.047096156131065, 52.372303448679098 ], [ 11.047397430618963, 52.372448050299226 ], [ 11.047717527795507, 52.372611414615882 ], [ 11.048091102371801, 52.372802058470953 ], [ 11.048486154014261, 52.372997040511329 ], [ 11.048725477647199, 52.373115152899508 ], [ 11.048762017163233, 52.373156457252747 ], [ 11.046391905778121, 52.374611715984031 ], [ 11.046024554440853, 52.373916462742194 ], [ 11.045998280541722, 52.373638593264211 ], [ 11.046139696143692, 52.373075385980378 ], [ 11.046785568134659, 52.373737678692834 ], [ 11.047198030192602, 52.373586743934446 ], [ 11.046691296400935, 52.372491774460698 ], [ 11.046978655426178, 52.372255768621478 ] ] ] } },
{ "type": "Feature", "properties": { "parcel_id": 3154510, "bodenzahl": 20, "ackerzahl": "21", "klassenzeichen": "S5D", "bodenart": "S", "updated": "2023-06-15T14:51:34.0000000" }, "geometry": { "type": "Polygon", "coordinates": [ [ [ 11.044128411296883, 52.377771569575728 ], [ 11.042924473445845, 52.377823378355565 ], [ 11.042646552838278, 52.377596014345478 ], [ 11.042906963530527, 52.376858174113508 ], [ 11.044074934180081, 52.3761421402709 ], [ 11.044128411296883, 52.377771569575728 ] ] ] } },
{ "type": "Feature", "properties": { "parcel_id": 3153701, "bodenzahl": 46, "ackerzahl": "46", "klassenzeichen": "lSII-", "bodenart": "lS", "updated": "2023-06-15T14:51:25.0000000" }, "geometry": { "type": "Polygon", "coordinates": [ [ [ 11.046041592491083, 52.369060382717272 ], [ 11.045180456261493, 52.369529794939126 ], [ 11.044255273678342, 52.36919045844671 ], [ 11.044585154960398, 52.368751289042685 ], [ 11.044591879740802, 52.368343176616548 ], [ 11.044717976911034, 52.368310745709415 ], [ 11.044141223537055, 52.367072550069459 ], [ 11.044124896987894, 52.367043456193244 ], [ 11.044127428071148, 52.367042917847556 ], [ 11.045678573252511, 52.366713529162773 ], [ 11.045678881848783, 52.366715439083386 ], [ 11.045683698359669, 52.366746557403438 ], [ 11.046041592491083, 52.369060382717272 ] ] ] } },
{ "type": "Feature", "properties": { "parcel_id": 3154527, "bodenzahl": 23, "ackerzahl": "24", "klassenzeichen": "S4D", "bodenart": "S", "updated": "2023-06-15T14:51:34.0000000" }, "geometry": { "type": "Polygon", "coordinates": [ [ [ 11.036820843438253, 52.383580518797309 ], [ 11.035460983433335, 52.38401801616714 ], [ 11.035302433048296, 52.384278839300947 ], [ 11.03566326856952, 52.385090006078876 ], [ 11.03458006546877, 52.385278247964145 ], [ 11.033570750710819, 52.385342002482496 ], [ 11.03444982759534, 52.383815157963454 ], [ 11.034817687420507, 52.383176222644501 ], [ 11.036820843438253, 52.383580518797309 ] ] ] } },
{ "type": "Feature", "properties": { "parcel_id": 4329880, "bodenzahl": 17, "ackerzahl": "18", "klassenzeichen": "S5D", "bodenart": "S", "updated": "2023-06-15T17:54:18.0000000" }, "geometry": { "type": "Polygon", "coordinates": [ [ [ 11.060259514233314, 52.362945450376969 ], [ 11.059741012563256, 52.363188541348265 ], [ 11.059091953572528, 52.363359237139051 ], [ 11.058584167185963, 52.363638742085243 ], [ 11.057597774914408, 52.36323220238593 ], [ 11.057710476071096, 52.362828932112478 ], [ 11.057816446781914, 52.362854151777817 ], [ 11.057915058691588, 52.362867989941591 ], [ 11.057997480999939, 52.362863424945665 ], [ 11.058047540818958, 52.362841691712589 ], [ 11.058158743760991, 52.362795253599124 ], [ 11.058230952370561, 52.362744126622495 ], [ 11.058267301041223, 52.362599020887089 ], [ 11.058853066596225, 52.362685844954598 ], [ 11.059217971969039, 52.362840250570592 ], [ 11.060209826424295, 52.362940436226502 ], [ 11.060259514233314, 52.362945450376969 ] ] ] } },
{ "type": "Feature", "properties": { "parcel_id": 3154530, "bodenzahl": 18, "ackerzahl": "19", "klassenzeichen": "S4D", "bodenart": "S", "updated": "2023-06-15T14:51:34.0000000" }, "geometry": { "type": "Polygon", "coordinates": [ [ [ 11.046516049351469, 52.376404813527145 ], [ 11.046270743087273, 52.376509321276281 ], [ 11.045756223881231, 52.376646859417363 ], [ 11.04540458616747, 52.376774606966045 ], [ 11.044774582420041, 52.376947229920027 ], [ 11.044214163320245, 52.376947890627044 ], [ 11.044187421148626, 52.37607380740166 ], [ 11.044903864763244, 52.375634432244794 ], [ 11.045483231833996, 52.375769117958292 ], [ 11.046516049351469, 52.376404813527145 ] ] ] } },
{ "type": "Feature", "properties": { "parcel_id": 3153689, "bodenzahl": 28, "ackerzahl": "29", "klassenzeichen": "Sl4D", "bodenart": "Sl", "updated": "2023-06-15T14:51:25.0000000" }, "geometry": { "type": "Polygon", "coordinates": [ [ [ 11.036120428444926, 52.356990983209165 ], [ 11.036753760848928, 52.357174271209097 ], [ 11.036550893523616, 52.357831916885083 ], [ 11.036474951737258, 52.358078155061861 ], [ 11.038615060688164, 52.359838200549234 ], [ 11.037139937817393, 52.359745971151021 ], [ 11.036577248567692, 52.35955617097882 ], [ 11.036562845521591, 52.359302084879971 ], [ 11.035437641560433, 52.359170882207955 ], [ 11.035553681932534, 52.358800288985435 ], [ 11.036052698140562, 52.357207901051247 ], [ 11.036120428444926, 52.356990983209165 ] ] ] } },
{ "type": "Feature", "properties": { "parcel_id": 4295601, "bodenzahl": 30, "ackerzahl": "31", "klassenzeichen": "Sl4D", "bodenart": "Sl", "updated": "2023-06-15T17:49:13.0000000" }, "geometry": { "type": "Polygon", "coordinates": [ [ [ 11.046698882904082, 52.365546150087859 ], [ 11.045476074384078, 52.365612746175117 ], [ 11.045639573312322, 52.365089125112213 ], [ 11.046825706001888, 52.365020977642466 ], [ 11.047248028373861, 52.364996710214854 ], [ 11.046563899093611, 52.364719196828247 ], [ 11.046297098319714, 52.36401692380668 ], [ 11.045968172641926, 52.36403672901131 ], [ 11.045978075777217, 52.364005014076746 ], [ 11.046099138846069, 52.363617310651676 ], [ 11.046851619431008, 52.36380263582064 ], [ 11.046926884107078, 52.363979001838182 ], [ 11.047218032831188, 52.363961467140541 ], [ 11.047621014751279, 52.363937191764798 ], [ 11.047793870062984, 52.363926786316014 ], [ 11.047912104468624, 52.364648419408262 ], [ 11.048381702103761, 52.364623768972351 ], [ 11.048284538633585, 52.364937147369432 ], [ 11.048119722665783, 52.365468761947064 ], [ 11.046698882904082, 52.365546150087859 ] ], [ [ 11.046049160347515, 52.365103918315988 ], [ 11.045987648597231, 52.365106557202061 ], [ 11.04590631504791, 52.365111274756934 ], [ 11.045872631041846, 52.365112802232375 ], [ 11.045793577584126, 52.365114414001845 ], [ 11.045735013105219, 52.365116624060562 ], [ 11.045705594394846, 52.365123994267599 ], [ 11.045688438769615, 52.365138633341296 ], [ 11.045678548983696, 52.365156023990586 ], [ 11.045670018068833, 52.36517834561969 ], [ 11.045662254523769, 52.365199790742615 ], [ 11.045661113559028, 52.365217695294049 ], [ 11.045655591356264, 52.365236466992911 ], [ 11.04565223797316, 52.365257035474684 ], [ 11.045651187775947, 52.365271818281322 ], [ 11.045654576478089, 52.365283484979138 ], [ 11.045661731870483, 52.365291157014198 ], [ 11.0456776160046, 52.365301132678731 ], [ 11.045689208619313, 52.365306605800335 ], [ 11.045714028193856, 52.365309053414464 ], [ 11.045767493780609, 52.365306796786214 ], [ 11.045847991161631, 52.365306544777035 ], [ 11.045891225930134, 52.365302855721318 ], [ 11.045933073489591, 52.365296484125828 ], [ 11.045979331211329, 52.365289235863322 ], [ 11.046019659507152, 52.365284634967743 ], [ 11.046102474233289, 52.365278587865113 ], [ 11.046144219488101, 52.365276677925436 ], [ 11.046176484533218, 52.365273367587484 ], [ 11.04620292601399, 52.365268638483933 ], [ 11.046216271929772, 52.365260242724212 ], [ 11.046224605848119, 52.365247329944744 ], [ 11.046225768773096, 52.365226727449972 ], [ 11.046220074497429, 52.36515278715725 ], [ 11.046219094353662, 52.365129038665224 ], [ 11.046209911082833, 52.365113722744212 ], [ 11.046195453300276, 52.365106006376536 ], [ 11.046172155130716, 52.365100879916454 ], [ 11.046128981139571, 52.365101429867188 ], [ 11.046088742691834, 52.365100661108933 ], [ 11.046049160347515, 52.365103918315988 ] ] ] } },
{ "type": "Feature", "properties": { "parcel_id": 3153722, "bodenzahl": 38, "ackerzahl": "40", "klassenzeichen": "lS4D", "bodenart": "lS", "updated": "2023-06-15T14:51:25.0000000" }, "geometry": { "type": "Polygon", "coordinates": [ [ [ 11.049263520352866, 52.369732124824537 ], [ 11.047950307703966, 52.370687305746394 ], [ 11.047934375611378, 52.370642056188053 ], [ 11.047610039995099, 52.369720528314701 ], [ 11.048784856900951, 52.369650301226208 ], [ 11.048778295060769, 52.369609142421922 ], [ 11.046209206150603, 52.369762701423632 ], [ 11.046150159773292, 52.369380896170632 ], [ 11.046094667020563, 52.369022237288846 ], [ 11.045862818662455, 52.367523372792789 ], [ 11.04637547756486, 52.367404757355956 ], [ 11.047090587240488, 52.368312567486569 ], [ 11.047559368696181, 52.368213212469328 ], [ 11.04813993956124, 52.368528878776111 ], [ 11.048166380954811, 52.368756507684388 ], [ 11.047536555556279, 52.368808994260078 ], [ 11.04761959551994, 52.369276722825965 ], [ 11.048977940717489, 52.369192270727218 ], [ 11.049033265720599, 52.369188829447872 ], [ 11.049263520352866, 52.369732124824537 ] ] ] } },
{ "type": "Feature", "properties": { "parcel_id": 3154487, "bodenzahl": 26, "ackerzahl": "25", "klassenzeichen": "Sl4D", "bodenart": "Sl", "updated": "2023-06-15T14:51:34.0000000" }, "geometry": { "type": "Polygon", "coordinates": [ [ [ 11.038515905882779, 52.371830244601291 ], [ 11.03628020949421, 52.372797321874586 ], [ 11.034956196339795, 52.371923154168492 ], [ 11.035361055598392, 52.371575084119968 ], [ 11.036077151396398, 52.371446858687797 ], [ 11.036754956885913, 52.371061906791951 ], [ 11.037991202212627, 52.370961055417006 ], [ 11.038186020400733, 52.371280852186942 ], [ 11.038515905882779, 52.371830244601291 ] ] ] } },
{ "type": "Feature", "properties": { "parcel_id": 4320650, "bodenzahl": 18, "ackerzahl": "19", "klassenzeichen": "S5D", "bodenart": "S", "updated": "2023-06-15T17:52:52.0000000" }, "geometry": { "type": "Polygon", "coordinates": [ [ [ 11.055900276851171, 52.363553973677625 ], [ 11.055802011843914, 52.363910448922496 ], [ 11.055741809668863, 52.364128830002379 ], [ 11.053850464426386, 52.363983579993324 ], [ 11.053710753392851, 52.364496953601602 ], [ 11.052800811619498, 52.364402780135215 ], [ 11.052360320687574, 52.364357183648764 ], [ 11.05192729904509, 52.364312363969191 ], [ 11.05196874959357, 52.364259751966394 ], [ 11.052004262022445, 52.364214661378263 ], [ 11.052047394411275, 52.364166965657397 ], [ 11.052127567702151, 52.364078324966272 ], [ 11.052181818724815, 52.364023970903986 ], [ 11.052247874049607, 52.363957785274444 ], [ 11.052306473579625, 52.363902186668057 ], [ 11.052408955399917, 52.363804948650589 ], [ 11.052713820266499, 52.363536199140611 ], [ 11.053072262393881, 52.363220227580705 ], [ 11.053180949380401, 52.363124472581518 ], [ 11.053257800604552, 52.363056767930452 ], [ 11.053710180400376, 52.362658180873694 ], [ 11.053775063188768, 52.36260100659743 ], [ 11.054223405373895, 52.362643952450824 ], [ 11.054703566092044, 52.362697421180762 ], [ 11.054886519160137, 52.363213276610736 ], [ 11.055965091450778, 52.363318868264649 ], [ 11.055904275551887, 52.363539499114182 ], [ 11.055900276851171, 52.363553973677625 ] ] ] } },
{ "type": "Feature", "properties": { "parcel_id": 4377486, "bodenzahl": 41, "ackerzahl": "42", "klassenzeichen": "lS4Al", "bodenart": "lS", "updated": "2023-06-15T18:02:18.0000000" }, "geometry": { "type": "Polygon", "coordinates": [ [ [ 11.065059603583304, 52.363678993144546 ], [ 11.065116840320835, 52.364021527469767 ], [ 11.065231572027072, 52.364707346807286 ], [ 11.065342888275817, 52.36537371331891 ], [ 11.064814737708192, 52.365407421429133 ], [ 11.064519637075435, 52.365435723933942 ], [ 11.063185355289779, 52.365526032137574 ], [ 11.063182831026328, 52.365511581315793 ], [ 11.063083850138872, 52.36494343167859 ], [ 11.063149023913123, 52.364842573575736 ], [ 11.06335983593204, 52.364516398040315 ], [ 11.06342865774732, 52.364378807168869 ], [ 11.063454343672927, 52.364275032840617 ], [ 11.063448562799303, 52.364131461565329 ], [ 11.063445232540046, 52.364046141838216 ], [ 11.063424342208759, 52.363909290637821 ], [ 11.063384372259883, 52.363799865215121 ], [ 11.063313136094148, 52.363697478002614 ], [ 11.06305852794679, 52.363401137241873 ], [ 11.063046658934944, 52.363386301100491 ], [ 11.062779537644209, 52.363049867673887 ], [ 11.062748643443637, 52.363010977725338 ], [ 11.06267507369879, 52.3628874460125 ], [ 11.062654602272106, 52.362807128300865 ], [ 11.062581712972223, 52.362380378445685 ], [ 11.062559892871512, 52.362253128661159 ], [ 11.062359492248714, 52.36107694651799 ], [ 11.062933025384607, 52.361040181572747 ], [ 11.063151906806263, 52.361026216244639 ], [ 11.063211340445188, 52.361297470444171 ], [ 11.063919656399147, 52.361657271566628 ], [ 11.064036059000324, 52.36228622524915 ], [ 11.063456566217692, 52.362323710983468 ], [ 11.063544038703037, 52.362831231470153 ], [ 11.064158117494502, 52.362958600666154 ], [ 11.063651793527267, 52.363481728145466 ], [ 11.0639539137283, 52.363746683170888 ], [ 11.065059603583304, 52.363678993144546 ] ] ] } },
{ "type": "Feature", "properties": { "parcel_id": 3154471, "bodenzahl": 34, "ackerzahl": "34", "klassenzeichen": "Mo/S--", "bodenart": "Mo/S", "updated": "2023-06-15T14:51:33.0000000" }, "geometry": { "type": "Polygon", "coordinates": [ [ [ 11.045632880975958, 52.372918181796727 ], [ 11.045016115192428, 52.373614567850787 ], [ 11.044142460752814, 52.373761318209688 ], [ 11.043834367532806, 52.373404124334186 ], [ 11.044074176459018, 52.373280716870589 ], [ 11.044876789526562, 52.372846846179407 ], [ 11.045632880975958, 52.372918181796727 ] ] ] } }
]
}
